id;bezirk;name;shortname;strasse;plz_ort;von;bis;veranstalter;oeffnungszeiten;email;w3;bemerkungen;lat;lng;rss_titel;barrierefrei;immer-kostenlos;Mo;Di;Mi;Do;Fr;Sa;So;closed-exc;closed-exc-readable;hours-exc;hours-exc-readable;ignore;merged;international;action;image;urheberschaft;train;train_distance;short_distance;rss_beschreibung
733;Zentrum;Haus A 01;Hensel & Stache GbR;Augustusplatz;04109 Leipzig;28.11.23;23.12.23;Hensel & Stache GbR;10:00-21:00;;http://www.burgervereinleipzig.de;;51.33918345756951;12.381076100002485;Hensel & Stache GbR;;1;10:00-21:00;10:00-21:00;10:00-21:00;10:00-21:00;10:00-22:00;10:00-22:00;10:00-21:00;0;;01.12.23=10:00-22:00,02.12.23=10:00-22:00,08.12.23=10:00-22:00,09.12.23=10:00-22:00,15.12.23=10:00-22:00,16.12.23=10:00-22:00,22.12.23=10:00-22:00;freitags und samstags bis 22 Uhr;0;;0;0;;;Straßenbahn 4, 7, 12, 14, 15 (oder 8, 10, 11, 14 auf Ostseite);72;1;Imbiss und Getränke
751;Zentrum;Haus A 02;Andria Pastore;Augustusplatz;04109 Leipzig;28.11.23;23.12.23;Andria Pastore;10:00-21:00;;http://www.andria-leipzig.de;;51.339209904316654;12.380897458374518;Andria Pastore;;1;10:00-21:00;10:00-21:00;10:00-21:00;10:00-21:00;10:00-22:00;10:00-22:00;10:00-21:00;0;;01.12.23=10:00-22:00,02.12.23=10:00-22:00,08.12.23=10:00-22:00,09.12.23=10:00-22:00,15.12.23=10:00-22:00,16.12.23=10:00-22:00,22.12.23=10:00-22:00;freitags und samstags bis 22 Uhr;0;;0;0;;;Straßenbahn 4, 7, 12, 14, 15 (oder 8, 10, 11, 14 auf Ostseite);72;1;Imbiss und Getränke
677;Zentrum;Haus A 03;Greenlife Value GmbH;Augustusplatz;04109 Leipzig;28.11.23;23.12.23;Greenlife Value GmbH;10:00-21:00;;https://www.warmies.de/;;51.33921344155247;12.381086739282873;Greenlife Value GmbH;;1;10:00-21:00;10:00-21:00;10:00-21:00;10:00-21:00;10:00-22:00;10:00-22:00;10:00-21:00;0;;01.12.23=10:00-22:00,02.12.23=10:00-22:00,08.12.23=10:00-22:00,09.12.23=10:00-22:00,15.12.23=10:00-22:00,16.12.23=10:00-22:00,22.12.23=10:00-22:00;freitags und samstags bis 22 Uhr;0;;0;0;;;Straßenbahn 4, 7, 12, 14, 15 (oder 8, 10, 11, 14 auf Ostseite);72;1;Handel und Handwerk
744;Zentrum;Haus A 04;Whiskypunsch - Kunst & Technik;Augustusplatz;04109 Leipzig;28.11.23;23.12.23;Whiskypunsch - Kunst & Technik;10:00-21:00;;http://www.whiskypunsch.de;;51.33923819733917;12.380924148959942;Whiskypunsch - Kunst & Technik;;1;10:00-21:00;10:00-21:00;10:00-21:00;10:00-21:00;10:00-22:00;10:00-22:00;10:00-21:00;0;;01.12.23=10:00-22:00,02.12.23=10:00-22:00,08.12.23=10:00-22:00,09.12.23=10:00-22:00,15.12.23=10:00-22:00,16.12.23=10:00-22:00,22.12.23=10:00-22:00;freitags und samstags bis 22 Uhr;0;;0;0;;;Straßenbahn 4, 7, 12, 14, 15 (oder 8, 10, 11, 14 auf Ostseite);72;1;Imbiss und Getränke
507;Zentrum;Haus A 05;Schaustellerbetrieb Cornelia Nüßner;Augustusplatz;04109 Leipzig;28.11.23;23.12.23;Schaustellerbetrieb Cornelia Nüßner;10:00-21:00;;https://www.leipzig.de/freizeit-kultur-und-tourismus/veranstaltungen-und-termine/eventsingle/event/leipziger-weihnachtsmarkt-2023;;51.33931754054251;12.380927509689593;Schaustellerbetrieb Cornelia Nüßner;;1;10:00-21:00;10:00-21:00;10:00-21:00;10:00-21:00;10:00-22:00;10:00-22:00;10:00-21:00;0;;01.12.23=10:00-22:00,02.12.23=10:00-22:00,08.12.23=10:00-22:00,09.12.23=10:00-22:00,15.12.23=10:00-22:00,16.12.23=10:00-22:00,22.12.23=10:00-22:00;freitags und samstags bis 22 Uhr;0;;0;0;;;Straßenbahn 4, 7, 12, 14, 15 (oder 8, 10, 11, 14 auf Ostseite);72;1;Süßwaren
658;Zentrum;Haus A 06;Knobi-Matti;Augustusplatz;04109 Leipzig;28.11.23;23.12.23;Knobi-Matti;10:00-21:00;;https://www.matti-unternehmensgruppe.de/;;51.33936598062685;12.380853300381347;Knobi-Matti;;1;10:00-21:00;10:00-21:00;10:00-21:00;10:00-21:00;10:00-22:00;10:00-22:00;10:00-21:00;0;;01.12.23=10:00-22:00,02.12.23=10:00-22:00,08.12.23=10:00-22:00,09.12.23=10:00-22:00,15.12.23=10:00-22:00,16.12.23=10:00-22:00,22.12.23=10:00-22:00;freitags und samstags bis 22 Uhr;0;;0;0;;;Straßenbahn 4, 7, 12, 14, 15 (oder 8, 10, 11, 14 auf Ostseite);72;1;Imbiss und Getränke
660;Zentrum;Haus A 07;Schmalzbäckerei Axel Sehning;Augustusplatz;04109 Leipzig;28.11.23;23.12.23;Schmalzbäckerei Axel Sehning;10:00-21:00;;https://www.leipzig.de/freizeit-kultur-und-tourismus/veranstaltungen-und-termine/eventsingle/event/leipziger-weihnachtsmarkt-2023;;51.339427083256766;12.380817025113558;Schmalzbäckerei Axel Sehning;;1;10:00-21:00;10:00-21:00;10:00-21:00;10:00-21:00;10:00-22:00;10:00-22:00;10:00-21:00;0;;01.12.23=10:00-22:00,02.12.23=10:00-22:00,08.12.23=10:00-22:00,09.12.23=10:00-22:00,15.12.23=10:00-22:00,16.12.23=10:00-22:00,22.12.23=10:00-22:00;freitags und samstags bis 22 Uhr;0;;0;0;;;Straßenbahn 4, 7, 12, 14, 15 (oder 8, 10, 11, 14 auf Ostseite);72;1;Imbiss und Getränke
659;Zentrum;Haus A 08;Schaustellerbetrieb Franz-Josef Sehning;Augustusplatz;04109 Leipzig;28.11.23;23.12.23;Schaustellerbetrieb Franz-Josef Sehning;10:00-21:00;;https://www.leipzig.de/freizeit-kultur-und-tourismus/veranstaltungen-und-termine/eventsingle/event/leipziger-weihnachtsmarkt-2023;;51.339496285082305;12.380822490969123;Schaustellerbetrieb Franz-Josef Sehning;;1;10:00-21:00;10:00-21:00;10:00-21:00;10:00-21:00;10:00-22:00;10:00-22:00;10:00-21:00;0;;01.12.23=10:00-22:00,02.12.23=10:00-22:00,08.12.23=10:00-22:00,09.12.23=10:00-22:00,15.12.23=10:00-22:00,16.12.23=10:00-22:00,22.12.23=10:00-22:00;freitags und samstags bis 22 Uhr;0;;0;0;;;Straßenbahn 4, 7, 12, 14, 15 (oder 8, 10, 11, 14 auf Ostseite);72;1;Imbiss und Getränke
670;Zentrum;Haus A 09;Drei p GmbH;Augustusplatz;04109 Leipzig;28.11.23;23.12.23;Drei p GmbH;10:00-21:00;;http://www.dreip.de;;51.339553260407556;12.380857524614061;Drei p GmbH;;1;10:00-21:00;10:00-21:00;10:00-21:00;10:00-21:00;10:00-22:00;10:00-22:00;10:00-21:00;0;;01.12.23=10:00-22:00,02.12.23=10:00-22:00,08.12.23=10:00-22:00,09.12.23=10:00-22:00,15.12.23=10:00-22:00,16.12.23=10:00-22:00,22.12.23=10:00-22:00;freitags und samstags bis 22 Uhr;0;;0;0;;;Straßenbahn 4, 7, 12, 14, 15 (oder 8, 10, 11, 14 auf Ostseite);72;1;Handel und Handwerk
651;Zentrum;Haus A 10;JR Seide Studio;Augustusplatz;04109 Leipzig;28.11.23;23.12.23;JR Seide Studio;10:00-21:00;;http://www.jrseidestudio.com/;;51.33959224458788;12.380907570915106;JR Seide Studio;;1;10:00-21:00;10:00-21:00;10:00-21:00;10:00-21:00;10:00-22:00;10:00-22:00;10:00-21:00;0;;01.12.23=10:00-22:00,02.12.23=10:00-22:00,08.12.23=10:00-22:00,09.12.23=10:00-22:00,15.12.23=10:00-22:00,16.12.23=10:00-22:00,22.12.23=10:00-22:00;freitags und samstags bis 22 Uhr;0;;0;0;;;Straßenbahn 4, 7, 12, 14, 15 (oder 8, 10, 11, 14 auf Ostseite);72;1;Bekleidung und Textil
680;Zentrum;Haus A 11;Ligna Arts GbR;Augustusplatz;04109 Leipzig;28.11.23;23.12.23;Ligna Arts GbR;10:00-21:00;;https://www.holz3dpuzzle.de/;;51.33962152815187;12.380966689188826;Ligna Arts GbR;;1;10:00-21:00;10:00-21:00;10:00-21:00;10:00-21:00;10:00-22:00;10:00-22:00;10:00-21:00;0;;01.12.23=10:00-22:00,02.12.23=10:00-22:00,08.12.23=10:00-22:00,09.12.23=10:00-22:00,15.12.23=10:00-22:00,16.12.23=10:00-22:00,22.12.23=10:00-22:00;freitags und samstags bis 22 Uhr;0;;0;0;;;Straßenbahn 4, 7, 12, 14, 15 (oder 8, 10, 11, 14 auf Ostseite);72;1;Handel und Handwerk
676;Zentrum;Haus A 12;Geduldsspiele-iiiKUH230;Augustusplatz;04109 Leipzig;28.11.23;23.12.23;Geduldsspiele-iiiKUH230;10:00-21:00;;https://www.iii-kuh230.de/;;51.33964429812706;12.381027131062071;Geduldsspiele-iiiKUH230;;1;10:00-21:00;10:00-21:00;10:00-21:00;10:00-21:00;10:00-22:00;10:00-22:00;10:00-21:00;0;;01.12.23=10:00-22:00,02.12.23=10:00-22:00,08.12.23=10:00-22:00,09.12.23=10:00-22:00,15.12.23=10:00-22:00,16.12.23=10:00-22:00,22.12.23=10:00-22:00;freitags und samstags bis 22 Uhr;0;;0;0;;;Straßenbahn 4, 7, 12, 14, 15 (oder 8, 10, 11, 14 auf Ostseite);72;1;Handel und Handwerk
578;Zentrum;Haus A 13;Schaustellerbetrieb Dieter Hadlok;Augustusplatz;04109 Leipzig;28.11.23;23.12.23;Schaustellerbetrieb Dieter Hadlok;10:00-21:00;;https://www.leipzig.de/freizeit-kultur-und-tourismus/veranstaltungen-und-termine/eventsingle/event/leipziger-weihnachtsmarkt-2023;;51.33955473547109;12.380614185560482;Schaustellerbetrieb Dieter Hadlok;;1;10:00-21:00;10:00-21:00;10:00-21:00;10:00-21:00;10:00-22:00;10:00-22:00;10:00-21:00;0;;01.12.23=10:00-22:00,02.12.23=10:00-22:00,08.12.23=10:00-22:00,09.12.23=10:00-22:00,15.12.23=10:00-22:00,16.12.23=10:00-22:00,22.12.23=10:00-22:00;freitags und samstags bis 22 Uhr;0;;0;0;;;Straßenbahn 4, 7, 12, 14, 15 (oder 8, 10, 11, 14 auf Ostseite);72;1;Fahrgeschäft
748;Zentrum;Haus A 14;Schaustellerbetrieb Maik Hadlok;Augustusplatz;04109 Leipzig;28.11.23;23.12.23;Schaustellerbetrieb Maik Hadlok;10:00-21:00;;https://www.leipzig.de/freizeit-kultur-und-tourismus/veranstaltungen-und-termine/eventsingle/event/leipziger-weihnachtsmarkt-2023;;51.33943699207101;12.380596147227166;Schaustellerbetrieb Maik Hadlok;;1;10:00-21:00;10:00-21:00;10:00-21:00;10:00-21:00;10:00-22:00;10:00-22:00;10:00-21:00;0;;01.12.23=10:00-22:00,02.12.23=10:00-22:00,08.12.23=10:00-22:00,09.12.23=10:00-22:00,15.12.23=10:00-22:00,16.12.23=10:00-22:00,22.12.23=10:00-22:00;freitags und samstags bis 22 Uhr;0;;0;0;;;Straßenbahn 4, 7, 12, 14, 15 (oder 8, 10, 11, 14 auf Ostseite);72;1;Imbiss und Getränke
734;Zentrum;Haus A 15;Gartengaststätte Osthöhe;Augustusplatz;04109 Leipzig;28.11.23;23.12.23;Gartengaststätte Osthöhe;10:00-21:00;;https://www.gartenlokal.com/;;51.33939434733779;12.380646986730772;Gartengaststätte Osthöhe;;1;10:00-21:00;10:00-21:00;10:00-21:00;10:00-21:00;10:00-22:00;10:00-22:00;10:00-21:00;0;;01.12.23=10:00-22:00,02.12.23=10:00-22:00,08.12.23=10:00-22:00,09.12.23=10:00-22:00,15.12.23=10:00-22:00,16.12.23=10:00-22:00,22.12.23=10:00-22:00;freitags und samstags bis 22 Uhr;0;;0;0;;;Straßenbahn 4, 7, 12, 14, 15 (oder 8, 10, 11, 14 auf Ostseite);72;1;Imbiss und Getränke
794;Zentrum;Haus A 16;Sächsische Großbäckerei Union GmbH (Emil Reimann);Augustusplatz;04109 Leipzig;28.11.23;23.12.23;Sächsische Großbäckerei Union GmbH (Emil Reimann);10:00-21:00;;https://www.emil-reimann.de/;;51.3394421099163;12.38065452167378;Sächsische Großbäckerei Union GmbH (Emil Reimann);;1;10:00-21:00;10:00-21:00;10:00-21:00;10:00-21:00;10:00-22:00;10:00-22:00;10:00-21:00;0;;01.12.23=10:00-22:00,02.12.23=10:00-22:00,08.12.23=10:00-22:00,09.12.23=10:00-22:00,15.12.23=10:00-22:00,16.12.23=10:00-22:00,22.12.23=10:00-22:00;freitags und samstags bis 22 Uhr;0;;0;0;;;Straßenbahn 4, 7, 12, 14, 15 (oder 8, 10, 11, 14 auf Ostseite);72;1;Nahrung und Genuss
781;Zentrum;Haus A 17;Petit Con de France - Gildas Voland;Augustusplatz;04109 Leipzig;28.11.23;23.12.23;Petit Con de France - Gildas Voland;10:00-21:00;;https://www.leipzig.de/freizeit-kultur-und-tourismus/veranstaltungen-und-termine/eventsingle/event/leipziger-weihnachtsmarkt-2023;;51.33948987993347;12.380667753195603;Petit Con de France - Gildas Voland;;1;10:00-21:00;10:00-21:00;10:00-21:00;10:00-21:00;10:00-22:00;10:00-22:00;10:00-21:00;0;;01.12.23=10:00-22:00,02.12.23=10:00-22:00,08.12.23=10:00-22:00,09.12.23=10:00-22:00,15.12.23=10:00-22:00,16.12.23=10:00-22:00,22.12.23=10:00-22:00;freitags und samstags bis 22 Uhr;0;;0;0;;;Straßenbahn 4, 7, 12, 14, 15 (oder 8, 10, 11, 14 auf Ostseite);72;1;Nahrung und Genuss
749;Zentrum;Haus A 18;Wechselhütte - div. gemeinnützige Vereine;Augustusplatz;04109 Leipzig;28.11.23;23.12.23;Wechselhütte - div. gemeinnützige Vereine;10:00-21:00;;https://www.leipzig.de/freizeit-kultur-und-tourismus/veranstaltungen-und-termine/eventsingle/event/leipziger-weihnachtsmarkt-2023;;51.339535952895694;12.38068488273427;Wechselhütte - div. gemeinnützige Vereine;;1;10:00-21:00;10:00-21:00;10:00-21:00;10:00-21:00;10:00-22:00;10:00-22:00;10:00-21:00;0;;01.12.23=10:00-22:00,02.12.23=10:00-22:00,08.12.23=10:00-22:00,09.12.23=10:00-22:00,15.12.23=10:00-22:00,16.12.23=10:00-22:00,22.12.23=10:00-22:00;freitags und samstags bis 22 Uhr;0;;0;0;;;Straßenbahn 4, 7, 12, 14, 15 (oder 8, 10, 11, 14 auf Ostseite);72;1;Imbiss und Getränke
684;Zentrum;Haus A 19;THD Agentur;Augustusplatz;04109 Leipzig;28.11.23;23.12.23;THD Agentur;10:00-21:00;;https://www.olivenholzprodukte.com/;;51.33957965788558;12.38070784808812;THD Agentur;;1;10:00-21:00;10:00-21:00;10:00-21:00;10:00-21:00;10:00-22:00;10:00-22:00;10:00-21:00;0;;01.12.23=10:00-22:00,02.12.23=10:00-22:00,08.12.23=10:00-22:00,09.12.23=10:00-22:00,15.12.23=10:00-22:00,16.12.23=10:00-22:00,22.12.23=10:00-22:00;freitags und samstags bis 22 Uhr;0;;0;0;;;Straßenbahn 4, 7, 12, 14, 15 (oder 8, 10, 11, 14 auf Ostseite);72;1;Handel und Handwerk
570;Zentrum;Haus A 20;Fellhandel Körner;Augustusplatz;04109 Leipzig;28.11.23;23.12.23;Fellhandel Körner;10:00-21:00;;https://www.fellhandel-koerner.de/;;51.339622692292416;12.380738065958084;Fellhandel Körner;;1;10:00-21:00;10:00-21:00;10:00-21:00;10:00-21:00;10:00-22:00;10:00-22:00;10:00-21:00;0;;01.12.23=10:00-22:00,02.12.23=10:00-22:00,08.12.23=10:00-22:00,09.12.23=10:00-22:00,15.12.23=10:00-22:00,16.12.23=10:00-22:00,22.12.23=10:00-22:00;freitags und samstags bis 22 Uhr;0;;0;0;;;Straßenbahn 4, 7, 12, 14, 15 (oder 8, 10, 11, 14 auf Ostseite);72;1;Handel und Handwerk
763;Zentrum;Haus A 21;Sächsische Staatsweingut GmbH Schloss Wackerbarth;Augustusplatz;04109 Leipzig;28.11.23;23.12.23;Sächsische Staatsweingut GmbH Schloss Wackerbarth;10:00-21:00;;https://www.schloss-wackerbarth.de/;;51.339669740229695;12.380755573029267;Sächsische Staatsweingut GmbH Schloss Wackerbarth;;1;10:00-21:00;10:00-21:00;10:00-21:00;10:00-21:00;10:00-22:00;10:00-22:00;10:00-21:00;0;;01.12.23=10:00-22:00,02.12.23=10:00-22:00,08.12.23=10:00-22:00,09.12.23=10:00-22:00,15.12.23=10:00-22:00,16.12.23=10:00-22:00,22.12.23=10:00-22:00;freitags und samstags bis 22 Uhr;0;;0;0;;;Straßenbahn 4, 7, 12, 14, 15 (oder 8, 10, 11, 14 auf Ostseite);72;1;Imbiss und Getränke
650;Zentrum;Haus A 22;Schaustellerbetrieb Heike Katzschmann-Herrmann;Augustusplatz;04109 Leipzig;28.11.23;23.12.23;Schaustellerbetrieb Heike Katzschmann-Herrmann;10:00-21:00;;https://www.leipzig.de/freizeit-kultur-und-tourismus/veranstaltungen-und-termine/eventsingle/event/leipziger-weihnachtsmarkt-2023;;51.33977291727282;12.380954464282869;Schaustellerbetrieb Heike Katzschmann-Herrmann;;1;10:00-21:00;10:00-21:00;10:00-21:00;10:00-21:00;10:00-22:00;10:00-22:00;10:00-21:00;0;;01.12.23=10:00-22:00,02.12.23=10:00-22:00,08.12.23=10:00-22:00,09.12.23=10:00-22:00,15.12.23=10:00-22:00,16.12.23=10:00-22:00,22.12.23=10:00-22:00;freitags und samstags bis 22 Uhr;0;;0;0;;;Straßenbahn 4, 7, 12, 14, 15 (oder 8, 10, 11, 14 auf Ostseite);72;1;Süßwaren
665;Zentrum;Haus A 23;Schaustellerbetrieb Petra Parpalioni;Augustusplatz;04109 Leipzig;28.11.23;23.12.23;Schaustellerbetrieb Petra Parpalioni;10:00-21:00;;https://www.leipzig.de/freizeit-kultur-und-tourismus/veranstaltungen-und-termine/eventsingle/event/leipziger-weihnachtsmarkt-2023;;51.339804810972076;12.381094045751029;Schaustellerbetrieb Petra Parpalioni;;1;10:00-21:00;10:00-21:00;10:00-21:00;10:00-21:00;10:00-22:00;10:00-22:00;10:00-21:00;0;;01.12.23=10:00-22:00,02.12.23=10:00-22:00,08.12.23=10:00-22:00,09.12.23=10:00-22:00,15.12.23=10:00-22:00,16.12.23=10:00-22:00,22.12.23=10:00-22:00;freitags und samstags bis 22 Uhr;0;;0;0;;;Straßenbahn 4, 7, 12, 14, 15 (oder 8, 10, 11, 14 auf Ostseite);72;1;Imbiss und Getränke
663;Zentrum;Haus A 24;Schaustellerbetrieb Heike Katzschmann-Herrmann;Augustusplatz;04109 Leipzig;28.11.23;23.12.23;Schaustellerbetrieb Heike Katzschmann-Herrmann;10:00-21:00;;https://www.leipzig.de/freizeit-kultur-und-tourismus/veranstaltungen-und-termine/eventsingle/event/leipziger-weihnachtsmarkt-2023;;51.33970993299078;12.381195135083658;Schaustellerbetrieb Heike Katzschmann-Herrmann;;1;10:00-21:00;10:00-21:00;10:00-21:00;10:00-21:00;10:00-22:00;10:00-22:00;10:00-21:00;0;;01.12.23=10:00-22:00,02.12.23=10:00-22:00,08.12.23=10:00-22:00,09.12.23=10:00-22:00,15.12.23=10:00-22:00,16.12.23=10:00-22:00,22.12.23=10:00-22:00;freitags und samstags bis 22 Uhr;0;;0;0;;;Straßenbahn 4, 7, 12, 14, 15 (oder 8, 10, 11, 14 auf Ostseite);72;1;Fahrgeschäft
666;Zentrum;Haus A 25;Schaustellerbetrieb Karl Parpalioni;Augustusplatz;04109 Leipzig;28.11.23;23.12.23;Schaustellerbetrieb Karl Parpalioni;10:00-21:00;;https://www.leipzig.de/freizeit-kultur-und-tourismus/veranstaltungen-und-termine/eventsingle/event/leipziger-weihnachtsmarkt-2023;;51.339770161456386;12.381390570095421;Schaustellerbetrieb Karl Parpalioni;;1;10:00-21:00;10:00-21:00;10:00-21:00;10:00-21:00;10:00-22:00;10:00-22:00;10:00-21:00;0;;01.12.23=10:00-22:00,02.12.23=10:00-22:00,08.12.23=10:00-22:00,09.12.23=10:00-22:00,15.12.23=10:00-22:00,16.12.23=10:00-22:00,22.12.23=10:00-22:00;freitags und samstags bis 22 Uhr;0;;0;0;;;Straßenbahn 4, 7, 12, 14, 15 (oder 8, 10, 11, 14 auf Ostseite);72;1;Imbiss und Getränke
557;Zentrum;Haus A 26;Erzgebirgische Holzkunst Gahlenz GmbH;Augustusplatz;04109 Leipzig;28.11.23;23.12.23;Erzgebirgische Holzkunst Gahlenz GmbH;10:00-21:00;;http://www.gahlenz.de;;51.33970944256979;12.381448355064796;Erzgebirgische Holzkunst Gahlenz GmbH;;1;10:00-21:00;10:00-21:00;10:00-21:00;10:00-21:00;10:00-22:00;10:00-22:00;10:00-21:00;0;;01.12.23=10:00-22:00,02.12.23=10:00-22:00,08.12.23=10:00-22:00,09.12.23=10:00-22:00,15.12.23=10:00-22:00,16.12.23=10:00-22:00,22.12.23=10:00-22:00;freitags und samstags bis 22 Uhr;0;;0;0;;;Straßenbahn 4, 7, 12, 14, 15 (oder 8, 10, 11, 14 auf Ostseite);72;1;Weihnachtliches
766;Zentrum;Haus A 27;Feinkost Delikatessen - Serdal Coban;Augustusplatz;04109 Leipzig;28.11.23;23.12.23;Feinkost Delikatessen - Serdal Coban;10:00-21:00;;https://www.leipzig.de/freizeit-kultur-und-tourismus/veranstaltungen-und-termine/eventsingle/event/leipziger-weihnachtsmarkt-2023;;51.33960545842911;12.381304212484908;Feinkost Delikatessen - Serdal Coban;;1;10:00-21:00;10:00-21:00;10:00-21:00;10:00-21:00;10:00-22:00;10:00-22:00;10:00-21:00;0;;01.12.23=10:00-22:00,02.12.23=10:00-22:00,08.12.23=10:00-22:00,09.12.23=10:00-22:00,15.12.23=10:00-22:00,16.12.23=10:00-22:00,22.12.23=10:00-22:00;freitags und samstags bis 22 Uhr;0;;0;0;;;Straßenbahn 4, 7, 12, 14, 15 (oder 8, 10, 11, 14 auf Ostseite);72;1;Imbiss und Getränke
656;Zentrum;Haus A 28;Janos Baumstriezel - Sven Burghart;Augustusplatz;04109 Leipzig;28.11.23;23.12.23;Janos Baumstriezel - Sven Burghart;10:00-21:00;;https://www.leipzig.de/freizeit-kultur-und-tourismus/veranstaltungen-und-termine/eventsingle/event/leipziger-weihnachtsmarkt-2023;;51.33955160362492;12.381351966774764;Janos Baumstriezel - Sven Burghart;;1;10:00-21:00;10:00-21:00;10:00-21:00;10:00-21:00;10:00-22:00;10:00-22:00;10:00-21:00;0;;01.12.23=10:00-22:00,02.12.23=10:00-22:00,08.12.23=10:00-22:00,09.12.23=10:00-22:00,15.12.23=10:00-22:00,16.12.23=10:00-22:00,22.12.23=10:00-22:00;freitags und samstags bis 22 Uhr;0;;0;0;;;Straßenbahn 4, 7, 12, 14, 15 (oder 8, 10, 11, 14 auf Ostseite);72;1;Imbiss und Getränke
702;Zentrum;Haus A 29;Schaustellerbetrieb Patrick Zinnecker;Augustusplatz;04109 Leipzig;28.11.23;23.12.23;Schaustellerbetrieb Patrick Zinnecker;10:00-21:00;;https://www.zinnecker-schausteller.de/;;51.339488383231256;12.381384177503001;Schaustellerbetrieb Patrick Zinnecker;;1;10:00-21:00;10:00-21:00;10:00-21:00;10:00-21:00;10:00-22:00;10:00-22:00;10:00-21:00;0;;01.12.23=10:00-22:00,02.12.23=10:00-22:00,08.12.23=10:00-22:00,09.12.23=10:00-22:00,15.12.23=10:00-22:00,16.12.23=10:00-22:00,22.12.23=10:00-22:00;freitags und samstags bis 22 Uhr;0;;0;0;;;Straßenbahn 4, 7, 12, 14, 15 (oder 8, 10, 11, 14 auf Ostseite);72;1;Imbiss und Getränke
760;Zentrum;Haus A 30;Plauderstübchen - Julia Tärrer;Augustusplatz;04109 Leipzig;28.11.23;23.12.23;Plauderstübchen - Julia Tärrer;10:00-21:00;;https://www.leipzig.de/freizeit-kultur-und-tourismus/veranstaltungen-und-termine/eventsingle/event/leipziger-weihnachtsmarkt-2023;;51.33941595364614;12.381377816261393;Plauderstübchen - Julia Tärrer;;1;10:00-21:00;10:00-21:00;10:00-21:00;10:00-21:00;10:00-22:00;10:00-22:00;10:00-21:00;0;;01.12.23=10:00-22:00,02.12.23=10:00-22:00,08.12.23=10:00-22:00,09.12.23=10:00-22:00,15.12.23=10:00-22:00,16.12.23=10:00-22:00,22.12.23=10:00-22:00;freitags und samstags bis 22 Uhr;0;;0;0;;;Straßenbahn 4, 7, 12, 14, 15 (oder 8, 10, 11, 14 auf Ostseite);72;1;Imbiss und Getränke
673;Zentrum;Haus A 31;Fellhandel Jablonski;Augustusplatz;04109 Leipzig;28.11.23;23.12.23;Fellhandel Jablonski;10:00-21:00;;https://www.leipzig.de/freizeit-kultur-und-tourismus/veranstaltungen-und-termine/eventsingle/event/leipziger-weihnachtsmarkt-2023;;51.339355525765406;12.381326647008036;Fellhandel Jablonski;;1;10:00-21:00;10:00-21:00;10:00-21:00;10:00-21:00;10:00-22:00;10:00-22:00;10:00-21:00;0;;01.12.23=10:00-22:00,02.12.23=10:00-22:00,08.12.23=10:00-22:00,09.12.23=10:00-22:00,15.12.23=10:00-22:00,16.12.23=10:00-22:00,22.12.23=10:00-22:00;freitags und samstags bis 22 Uhr;0;;0;0;;;Straßenbahn 4, 7, 12, 14, 15 (oder 8, 10, 11, 14 auf Ostseite);72;1;Handel und Handwerk
603;Zentrum;Haus A 32;patiperro - Mareike Schade;Augustusplatz;04109 Leipzig;28.11.23;23.12.23;patiperro - Mareike Schade;10:00-21:00;;https://www.leipzig.de/freizeit-kultur-und-tourismus/veranstaltungen-und-termine/eventsingle/event/leipziger-weihnachtsmarkt-2023;;51.33931026216644;12.381255424459617;patiperro - Mareike Schade;;1;10:00-21:00;10:00-21:00;10:00-21:00;10:00-21:00;10:00-22:00;10:00-22:00;10:00-21:00;0;;01.12.23=10:00-22:00,02.12.23=10:00-22:00,08.12.23=10:00-22:00,09.12.23=10:00-22:00,15.12.23=10:00-22:00,16.12.23=10:00-22:00,22.12.23=10:00-22:00;freitags und samstags bis 22 Uhr;0;;0;0;;;Straßenbahn 4, 7, 12, 14, 15 (oder 8, 10, 11, 14 auf Ostseite);72;1;Handel und Handwerk
551;Zentrum;Haus A 33;Schaustellerbetrieb Mario Seiferth;Augustusplatz;04109 Leipzig;28.11.23;23.12.23;Schaustellerbetrieb Mario Seiferth;10:00-21:00;;https://www.leipzig.de/freizeit-kultur-und-tourismus/veranstaltungen-und-termine/eventsingle/event/leipziger-weihnachtsmarkt-2023;;51.339284588893584;12.381156809313213;Schaustellerbetrieb Mario Seiferth;;1;10:00-21:00;10:00-21:00;10:00-21:00;10:00-21:00;10:00-22:00;10:00-22:00;10:00-21:00;0;;01.12.23=10:00-22:00,02.12.23=10:00-22:00,08.12.23=10:00-22:00,09.12.23=10:00-22:00,15.12.23=10:00-22:00,16.12.23=10:00-22:00,22.12.23=10:00-22:00;freitags und samstags bis 22 Uhr;0;;0;0;;;Straßenbahn 4, 7, 12, 14, 15 (oder 8, 10, 11, 14 auf Ostseite);72;1;Süßwaren
690;Zentrum;Haus A 34;72 Grad - Walter Hecht;Augustusplatz;04109 Leipzig;28.11.23;23.12.23;72 Grad - Walter Hecht;10:00-21:00;;https://www.leipzig.de/freizeit-kultur-und-tourismus/veranstaltungen-und-termine/eventsingle/event/leipziger-weihnachtsmarkt-2023;;51.33953366501909;12.381561462399032;72 Grad - Walter Hecht;;1;10:00-21:00;10:00-21:00;10:00-21:00;10:00-21:00;10:00-22:00;10:00-22:00;10:00-21:00;0;;01.12.23=10:00-22:00,02.12.23=10:00-22:00,08.12.23=10:00-22:00,09.12.23=10:00-22:00,15.12.23=10:00-22:00,16.12.23=10:00-22:00,22.12.23=10:00-22:00;freitags und samstags bis 22 Uhr;0;;0;0;;;Straßenbahn 4, 7, 12, 14, 15 (oder 8, 10, 11, 14 auf Ostseite);72;1;Imbiss und Getränke
753;Zentrum;Haus A 34A;72 Grad - Walter Hecht;Augustusplatz;04109 Leipzig;28.11.23;23.12.23;72 Grad - Walter Hecht;10:00-21:00;;https://www.leipzig.de/freizeit-kultur-und-tourismus/veranstaltungen-und-termine/eventsingle/event/leipziger-weihnachtsmarkt-2023;;51.33957370739366;12.381535526074034;72 Grad - Walter Hecht;;1;10:00-21:00;10:00-21:00;10:00-21:00;10:00-21:00;10:00-22:00;10:00-22:00;10:00-21:00;0;;01.12.23=10:00-22:00,02.12.23=10:00-22:00,08.12.23=10:00-22:00,09.12.23=10:00-22:00,15.12.23=10:00-22:00,16.12.23=10:00-22:00,22.12.23=10:00-22:00;freitags und samstags bis 22 Uhr;0;;0;0;;;Straßenbahn 4, 7, 12, 14, 15 (oder 8, 10, 11, 14 auf Ostseite);72;1;Imbiss und Getränke
695;Zentrum;Haus A 35;Fischhandel Ute Pohle;Augustusplatz;04109 Leipzig;28.11.23;23.12.23;Fischhandel Ute Pohle;10:00-21:00;;https://www.leipzig.de/freizeit-kultur-und-tourismus/veranstaltungen-und-termine/eventsingle/event/leipziger-weihnachtsmarkt-2023;;51.33946105279398;12.38157371291712;Fischhandel Ute Pohle;;1;10:00-21:00;10:00-21:00;10:00-21:00;10:00-21:00;10:00-22:00;10:00-22:00;10:00-21:00;0;;01.12.23=10:00-22:00,02.12.23=10:00-22:00,08.12.23=10:00-22:00,09.12.23=10:00-22:00,15.12.23=10:00-22:00,16.12.23=10:00-22:00,22.12.23=10:00-22:00;freitags und samstags bis 22 Uhr;0;;0;0;;;Straßenbahn 4, 7, 12, 14, 15 (oder 8, 10, 11, 14 auf Ostseite);72;1;Imbiss und Getränke
556;Zentrum;Haus A 36;Schaustellerbetrieb Ronny Scheffler;Augustusplatz;04109 Leipzig;28.11.23;23.12.23;Schaustellerbetrieb Ronny Scheffler;10:00-21:00;;https://www.leipzig.de/freizeit-kultur-und-tourismus/veranstaltungen-und-termine/eventsingle/event/leipziger-weihnachtsmarkt-2023;;51.339385007408474;12.381561169717317;Schaustellerbetrieb Ronny Scheffler;;1;10:00-21:00;10:00-21:00;10:00-21:00;10:00-21:00;10:00-22:00;10:00-22:00;10:00-21:00;0;;01.12.23=10:00-22:00,02.12.23=10:00-22:00,08.12.23=10:00-22:00,09.12.23=10:00-22:00,15.12.23=10:00-22:00,16.12.23=10:00-22:00,22.12.23=10:00-22:00;freitags und samstags bis 22 Uhr;0;;0;0;;;Straßenbahn 4, 7, 12, 14, 15 (oder 8, 10, 11, 14 auf Ostseite);72;1;Fahrgeschäft
698;Zentrum;Haus A 37;Schaustellerbetrieb Florian Kaiser;Augustusplatz;04109 Leipzig;28.11.23;23.12.23;Schaustellerbetrieb Florian Kaiser;10:00-21:00;;https://www.leipzig.de/freizeit-kultur-und-tourismus/veranstaltungen-und-termine/eventsingle/event/leipziger-weihnachtsmarkt-2023;;51.33929341820775;12.381537534144414;Schaustellerbetrieb Florian Kaiser;;1;10:00-21:00;10:00-21:00;10:00-21:00;10:00-21:00;10:00-22:00;10:00-22:00;10:00-21:00;0;;01.12.23=10:00-22:00,02.12.23=10:00-22:00,08.12.23=10:00-22:00,09.12.23=10:00-22:00,15.12.23=10:00-22:00,16.12.23=10:00-22:00,22.12.23=10:00-22:00;freitags und samstags bis 22 Uhr;0;;0;0;;;Straßenbahn 4, 7, 12, 14, 15 (oder 8, 10, 11, 14 auf Ostseite);72;1;Imbiss und Getränke
555;Zentrum;Haus A 38;Landwermann-Henschel GbR;Augustusplatz;04109 Leipzig;28.11.23;23.12.23;Landwermann-Henschel GbR;10:00-21:00;;https://riesenraeder.de/;;51.33914311215871;12.381502374660995;Landwermann-Henschel GbR;;1;10:00-21:00;10:00-21:00;10:00-21:00;10:00-21:00;10:00-22:00;10:00-22:00;10:00-21:00;0;;01.12.23=10:00-22:00,02.12.23=10:00-22:00,08.12.23=10:00-22:00,09.12.23=10:00-22:00,15.12.23=10:00-22:00,16.12.23=10:00-22:00,22.12.23=10:00-22:00;freitags und samstags bis 22 Uhr;0;;0;0;;;Straßenbahn 4, 7, 12, 14, 15 (oder 8, 10, 11, 14 auf Ostseite);72;1;Fahrgeschäft
545;Zentrum;Haus A 39;Schaustellerbetrieb Jürgen Parniske;Augustusplatz;04109 Leipzig;28.11.23;23.12.23;Schaustellerbetrieb Jürgen Parniske;10:00-21:00;;https://www.leipzig.de/freizeit-kultur-und-tourismus/veranstaltungen-und-termine/eventsingle/event/leipziger-weihnachtsmarkt-2023;;51.339432363181274;12.380271959054697;Schaustellerbetrieb Jürgen Parniske;;1;10:00-21:00;10:00-21:00;10:00-21:00;10:00-21:00;10:00-22:00;10:00-22:00;10:00-21:00;0;;01.12.23=10:00-22:00,02.12.23=10:00-22:00,08.12.23=10:00-22:00,09.12.23=10:00-22:00,15.12.23=10:00-22:00,16.12.23=10:00-22:00,22.12.23=10:00-22:00;freitags und samstags bis 22 Uhr;0;;0;0;;;Straßenbahn 4, 7, 12, 14, 15 (oder 8, 10, 11, 14 auf Ostseite);72;1;Fahrgeschäft
544;Zentrum;Haus A 40;Schaustellerbetrieb Ronny Scheffler;Augustusplatz;04109 Leipzig;28.11.23;23.12.23;Schaustellerbetrieb Ronny Scheffler;10:00-21:00;;https://www.leipzig.de/freizeit-kultur-und-tourismus/veranstaltungen-und-termine/eventsingle/event/leipziger-weihnachtsmarkt-2023;;51.33929476168785;12.37989878376268;Schaustellerbetrieb Ronny Scheffler;;1;10:00-21:00;10:00-21:00;10:00-21:00;10:00-21:00;10:00-22:00;10:00-22:00;10:00-21:00;0;;01.12.23=10:00-22:00,02.12.23=10:00-22:00,08.12.23=10:00-22:00,09.12.23=10:00-22:00,15.12.23=10:00-22:00,16.12.23=10:00-22:00,22.12.23=10:00-22:00;freitags und samstags bis 22 Uhr;0;;0;0;;;Straßenbahn 4, 7, 12, 14, 15 (oder 8, 10, 11, 14 auf Ostseite);72;1;Fahrgeschäft
526;Zentrum;Haus F 01;Kalevala Spirit GmbH;Augustusplatz;04109 Leipzig;28.11.23;23.12.23;Kalevala Spirit GmbH;10:00-21:00;;https://kalevalaspirit.de/;;51.33880477478503;12.380722965843379;Kalevala Spirit GmbH;;1;10:00-21:00;10:00-21:00;10:00-21:00;10:00-21:00;10:00-22:00;10:00-22:00;10:00-21:00;0;;01.12.23=10:00-22:00,02.12.23=10:00-22:00,08.12.23=10:00-22:00,09.12.23=10:00-22:00,15.12.23=10:00-22:00,16.12.23=10:00-22:00,22.12.23=10:00-22:00;freitags und samstags bis 22 Uhr;0;;0;0;;;Straßenbahn 4, 7, 12, 14, 15 (oder 8, 10, 11, 14 auf Ostseite);72;1;Imbiss und Getränke
524;Zentrum;Haus F 01A;Kalevala Spirit GmbH;Augustusplatz;04109 Leipzig;28.11.23;23.12.23;Kalevala Spirit GmbH;10:00-21:00;;https://kalevalaspirit.de/;;51.33885961161536;12.380695546018435;Kalevala Spirit GmbH;;1;10:00-21:00;10:00-21:00;10:00-21:00;10:00-21:00;10:00-22:00;10:00-22:00;10:00-21:00;0;;01.12.23=10:00-22:00,02.12.23=10:00-22:00,08.12.23=10:00-22:00,09.12.23=10:00-22:00,15.12.23=10:00-22:00,16.12.23=10:00-22:00,22.12.23=10:00-22:00;freitags und samstags bis 22 Uhr;0;;0;0;;;Straßenbahn 4, 7, 12, 14, 15 (oder 8, 10, 11, 14 auf Ostseite);72;1;Imbiss und Getränke
525;Zentrum;Haus F 02;Kalevala Spirit GmbH;Augustusplatz;04109 Leipzig;28.11.23;23.12.23;Kalevala Spirit GmbH;10:00-21:00;;https://kalevalaspirit.de/;;51.33874075464846;12.380697116213838;Kalevala Spirit GmbH;;1;10:00-21:00;10:00-21:00;10:00-21:00;10:00-21:00;10:00-22:00;10:00-22:00;10:00-21:00;0;;01.12.23=10:00-22:00,02.12.23=10:00-22:00,08.12.23=10:00-22:00,09.12.23=10:00-22:00,15.12.23=10:00-22:00,16.12.23=10:00-22:00,22.12.23=10:00-22:00;freitags und samstags bis 22 Uhr;0;;0;0;;;Straßenbahn 4, 7, 12, 14, 15 (oder 8, 10, 11, 14 auf Ostseite);72;1;Imbiss und Getränke
527;Zentrum;Haus F 03;Kalevala Spirit GmbH;Augustusplatz;04109 Leipzig;28.11.23;23.12.23;Kalevala Spirit GmbH;10:00-21:00;;https://kalevalaspirit.de/;;51.33866082063037;12.381019053731631;Kalevala Spirit GmbH;;1;10:00-21:00;10:00-21:00;10:00-21:00;10:00-21:00;10:00-22:00;10:00-22:00;10:00-21:00;0;;01.12.23=10:00-22:00,02.12.23=10:00-22:00,08.12.23=10:00-22:00,09.12.23=10:00-22:00,15.12.23=10:00-22:00,16.12.23=10:00-22:00,22.12.23=10:00-22:00;freitags und samstags bis 22 Uhr;0;;0;0;;;Straßenbahn 4, 7, 12, 14, 15 (oder 8, 10, 11, 14 auf Ostseite);72;1;Imbiss und Getränke
528;Zentrum;Haus F 04;Kalevala Spirit GmbH;Augustusplatz;04109 Leipzig;28.11.23;23.12.23;Kalevala Spirit GmbH;10:00-21:00;;https://kalevalaspirit.de/;;51.338700709515834;12.381109112344244;Kalevala Spirit GmbH;;1;10:00-21:00;10:00-21:00;10:00-21:00;10:00-21:00;10:00-22:00;10:00-22:00;10:00-21:00;0;;01.12.23=10:00-22:00,02.12.23=10:00-22:00,08.12.23=10:00-22:00,09.12.23=10:00-22:00,15.12.23=10:00-22:00,16.12.23=10:00-22:00,22.12.23=10:00-22:00;freitags und samstags bis 22 Uhr;0;;0;0;;;Straßenbahn 4, 7, 12, 14, 15 (oder 8, 10, 11, 14 auf Ostseite);72;1;Imbiss und Getränke
547;Zentrum;Haus Foto;cosmoproducts GmbH;Salzgäßchen;04109 Leipzig;28.11.23;23.12.23;cosmoproducts GmbH;10:00-21:00;;https://www.cosmocard.de/de/;;51.34099189395319;12.37519957342372;cosmoproducts GmbH;;1;10:00-21:00;10:00-21:00;10:00-21:00;10:00-21:00;10:00-22:00;10:00-22:00;10:00-21:00;0;;01.12.23=10:00-22:00,02.12.23=10:00-22:00,08.12.23=10:00-22:00,09.12.23=10:00-22:00,15.12.23=10:00-22:00,16.12.23=10:00-22:00,22.12.23=10:00-22:00;freitags und samstags bis 22 Uhr;0;;0;0;;;S1, S2, S3, S4, S5, S5X und S6 bis "Leipzig, Markt";72;1;Handel und Handwerk
664;Zentrum;Haus Foto;cosmoproducts GmbH;Nikolaikirchhof;04109 Leipzig;28.11.23;23.12.23;cosmoproducts GmbH;10:00-21:00;;https://www.cosmocard.de/de/;;51.340539518767294;12.37855890232389;cosmoproducts GmbH;;1;10:00-21:00;10:00-21:00;10:00-21:00;10:00-21:00;10:00-22:00;10:00-22:00;10:00-21:00;0;;01.12.23=10:00-22:00,02.12.23=10:00-22:00,08.12.23=10:00-22:00,09.12.23=10:00-22:00,15.12.23=10:00-22:00,16.12.23=10:00-22:00,22.12.23=10:00-22:00;freitags und samstags bis 22 Uhr;0;;0;0;;;S1, S2, S3, S4, S5, S5X und S6 bis "Leipzig, Markt";72;1;Handel und Handwerk
685;Zentrum;Haus Foto;cosmoproducts GmbH;Petersstraße;04109 Leipzig;28.11.23;23.12.23;cosmoproducts GmbH;10:00-21:00;;https://www.cosmocard.de/de/;;51.33947281735771;12.374365278956464;cosmoproducts GmbH;;1;10:00-21:00;10:00-21:00;10:00-21:00;10:00-21:00;10:00-22:00;10:00-22:00;10:00-21:00;0;;01.12.23=10:00-22:00,02.12.23=10:00-22:00,08.12.23=10:00-22:00,09.12.23=10:00-22:00,15.12.23=10:00-22:00,16.12.23=10:00-22:00,22.12.23=10:00-22:00;freitags und samstags bis 22 Uhr;0;;0;0;;;S1, S2, S3, S4, S5, S5X und S6 bis "Leipzig, Markt";72;1;Handel und Handwerk
686;Zentrum;Haus Foto;cosmoproducts GmbH;Nikolaikirchhof;04109 Leipzig;28.11.23;23.12.23;cosmoproducts GmbH;10:00-21:00;;https://www.cosmocard.de/de/;;51.34053857783057;12.378596570159274;cosmoproducts GmbH;;1;10:00-21:00;10:00-21:00;10:00-21:00;10:00-21:00;10:00-22:00;10:00-22:00;10:00-21:00;0;;01.12.23=10:00-22:00,02.12.23=10:00-22:00,08.12.23=10:00-22:00,09.12.23=10:00-22:00,15.12.23=10:00-22:00,16.12.23=10:00-22:00,22.12.23=10:00-22:00;freitags und samstags bis 22 Uhr;0;;0;0;;;S1, S2, S3, S4, S5, S5X und S6 bis "Leipzig, Markt";72;1;Handel und Handwerk
806;Zentrum;Haus Foto;cosmoproducts GmbH;Augustusplatz;04109 Leipzig;28.11.23;23.12.23;cosmoproducts GmbH;10:00-21:00;;https://www.cosmocard.de/de/;;51.3389254686061;12.380630436682022;cosmoproducts GmbH;;1;10:00-21:00;10:00-21:00;10:00-21:00;10:00-21:00;10:00-22:00;10:00-22:00;10:00-21:00;0;;01.12.23=10:00-22:00,02.12.23=10:00-22:00,08.12.23=10:00-22:00,09.12.23=10:00-22:00,15.12.23=10:00-22:00,16.12.23=10:00-22:00,22.12.23=10:00-22:00;freitags und samstags bis 22 Uhr;0;;0;0;;;Straßenbahn 4, 7, 12, 14, 15 (oder 8, 10, 11, 14 auf Ostseite);72;1;Handel und Handwerk
560;Zentrum;Haus G 01;Christoph Arnold;Grimmaische Straße;04109 Leipzig;28.11.23;23.12.23;Christoph Arnold;10:00-21:00;;https://www.leipzig.de/freizeit-kultur-und-tourismus/veranstaltungen-und-termine/eventsingle/event/leipziger-weihnachtsmarkt-2023;;51.339859736619985;12.37591130994745;Christoph Arnold;;1;10:00-21:00;10:00-21:00;10:00-21:00;10:00-21:00;10:00-22:00;10:00-22:00;10:00-21:00;0;;01.12.23=10:00-22:00,02.12.23=10:00-22:00,08.12.23=10:00-22:00,09.12.23=10:00-22:00,15.12.23=10:00-22:00,16.12.23=10:00-22:00,22.12.23=10:00-22:00;freitags und samstags bis 22 Uhr;0;;0;0;;;S1, S2, S3, S4, S5, S5X und S6 bis "Leipzig, Markt";72;1;Handel und Handwerk
775;Zentrum;Haus G 02;Trockenobst Vogel;Grimmaische Straße;04109 Leipzig;28.11.23;23.12.23;Trockenobst Vogel;10:00-21:00;;https://www.trockenobst-spezialist.de/;;51.33985558582521;12.37600363534303;Trockenobst Vogel;;1;10:00-21:00;10:00-21:00;10:00-21:00;10:00-21:00;10:00-22:00;10:00-22:00;10:00-21:00;0;;01.12.23=10:00-22:00,02.12.23=10:00-22:00,08.12.23=10:00-22:00,09.12.23=10:00-22:00,15.12.23=10:00-22:00,16.12.23=10:00-22:00,22.12.23=10:00-22:00;freitags und samstags bis 22 Uhr;0;;0;0;;;S1, S2, S3, S4, S5, S5X und S6 bis "Leipzig, Markt";72;1;Nahrung und Genuss
559;Zentrum;Haus G 03;Andrea Lohmann;Grimmaische Straße;04109 Leipzig;28.11.23;23.12.23;Andrea Lohmann;10:00-21:00;;https://www.leipzig.de/freizeit-kultur-und-tourismus/veranstaltungen-und-termine/eventsingle/event/leipziger-weihnachtsmarkt-2023;;51.339835730654954;12.376183688386782;Andrea Lohmann;;1;10:00-21:00;10:00-21:00;10:00-21:00;10:00-21:00;10:00-22:00;10:00-22:00;10:00-21:00;0;;01.12.23=10:00-22:00,02.12.23=10:00-22:00,08.12.23=10:00-22:00,09.12.23=10:00-22:00,15.12.23=10:00-22:00,16.12.23=10:00-22:00,22.12.23=10:00-22:00;freitags und samstags bis 22 Uhr;0;;0;0;;;S1, S2, S3, S4, S5, S5X und S6 bis "Leipzig, Markt";72;1;Weihnachtliches
633;Zentrum;Haus G 04;Matthias Hentschke;Grimmaische Straße;04109 Leipzig;28.11.23;23.12.23;Matthias Hentschke;10:00-21:00;;http://www.hut-bude.de;;51.33982925967686;12.376304949476607;Matthias Hentschke;;1;10:00-21:00;10:00-21:00;10:00-21:00;10:00-21:00;10:00-22:00;10:00-22:00;10:00-21:00;0;;01.12.23=10:00-22:00,02.12.23=10:00-22:00,08.12.23=10:00-22:00,09.12.23=10:00-22:00,15.12.23=10:00-22:00,16.12.23=10:00-22:00,22.12.23=10:00-22:00;freitags und samstags bis 22 Uhr;0;;0;0;;;S1, S2, S3, S4, S5, S5X und S6 bis "Leipzig, Markt";72;1;Bekleidung und Textil
715;Zentrum;Haus G 05;San Remo;Grimmaische Straße;04109 Leipzig;28.11.23;23.12.23;San Remo;10:00-21:00;;https://sanremo-leipzig.de/;;51.33980790191863;12.376836845628787;San Remo;;1;10:00-21:00;10:00-21:00;10:00-21:00;10:00-21:00;10:00-22:00;10:00-22:00;10:00-21:00;0;;01.12.23=10:00-22:00,02.12.23=10:00-22:00,08.12.23=10:00-22:00,09.12.23=10:00-22:00,15.12.23=10:00-22:00,16.12.23=10:00-22:00,22.12.23=10:00-22:00;freitags und samstags bis 22 Uhr;0;;0;0;;;S1, S2, S3, S4, S5, S5X und S6 bis "Leipzig, Markt";72;1;Imbiss und Getränke
750;Zentrum;Haus G 06;Mathias Straube;Grimmaische Straße;04109 Leipzig;28.11.23;23.12.23;Mathias Straube;10:00-21:00;;https://www.leipzig.de/freizeit-kultur-und-tourismus/veranstaltungen-und-termine/eventsingle/event/leipziger-weihnachtsmarkt-2023;;51.33980518813527;12.377049817679628;Mathias Straube;;1;10:00-21:00;10:00-21:00;10:00-21:00;10:00-21:00;10:00-22:00;10:00-22:00;10:00-21:00;0;;01.12.23=10:00-22:00,02.12.23=10:00-22:00,08.12.23=10:00-22:00,09.12.23=10:00-22:00,15.12.23=10:00-22:00,16.12.23=10:00-22:00,22.12.23=10:00-22:00;freitags und samstags bis 22 Uhr;0;;0;0;;;S1, S2, S3, S4, S5, S5X und S6 bis "Leipzig, Markt";72;1;Imbiss und Getränke
568;Zentrum;Haus G 07;Michael Mertel;Grimmaische Straße;04109 Leipzig;28.11.23;23.12.23;Michael Mertel;10:00-21:00;;https://www.leipzig.de/freizeit-kultur-und-tourismus/veranstaltungen-und-termine/eventsingle/event/leipziger-weihnachtsmarkt-2023;;51.33977374965611;12.377041876400611;Michael Mertel;;1;10:00-21:00;10:00-21:00;10:00-21:00;10:00-21:00;10:00-22:00;10:00-22:00;10:00-21:00;0;;01.12.23=10:00-22:00,02.12.23=10:00-22:00,08.12.23=10:00-22:00,09.12.23=10:00-22:00,15.12.23=10:00-22:00,16.12.23=10:00-22:00,22.12.23=10:00-22:00;freitags und samstags bis 22 Uhr;0;;0;0;;;S1, S2, S3, S4, S5, S5X und S6 bis "Leipzig, Markt";72;1;Handel und Handwerk
601;Zentrum;Haus G 08;"LOTUS" - Nadja Kramer;Grimmaische Straße;04109 Leipzig;28.11.23;23.12.23;"LOTUS" - Nadja Kramer;10:00-21:00;;https://www.lotus-bernburg.de/;;51.33977470593248;12.37718689709524;"LOTUS" - Nadja Kramer;;1;10:00-21:00;10:00-21:00;10:00-21:00;10:00-21:00;10:00-22:00;10:00-22:00;10:00-21:00;0;;01.12.23=10:00-22:00,02.12.23=10:00-22:00,08.12.23=10:00-22:00,09.12.23=10:00-22:00,15.12.23=10:00-22:00,16.12.23=10:00-22:00,22.12.23=10:00-22:00;freitags und samstags bis 22 Uhr;0;;0;0;;;S1, S2, S3, S4, S5, S5X und S6 bis "Leipzig, Markt";72;1;Handel und Handwerk
639;Zentrum;Haus G 09;Angelika Belger;Grimmaische Straße;04109 Leipzig;28.11.23;23.12.23;Angelika Belger;10:00-21:00;;https://www.leipzig.de/freizeit-kultur-und-tourismus/veranstaltungen-und-termine/eventsingle/event/leipziger-weihnachtsmarkt-2023;;51.33977046142589;12.37723294471125;Angelika Belger;;1;10:00-21:00;10:00-21:00;10:00-21:00;10:00-21:00;10:00-22:00;10:00-22:00;10:00-21:00;0;;01.12.23=10:00-22:00,02.12.23=10:00-22:00,08.12.23=10:00-22:00,09.12.23=10:00-22:00,15.12.23=10:00-22:00,16.12.23=10:00-22:00,22.12.23=10:00-22:00;freitags und samstags bis 22 Uhr;0;;0;0;;;S1, S2, S3, S4, S5, S5X und S6 bis "Leipzig, Markt";72;1;Bekleidung und Textil
598;Zentrum;Haus G 10;Hase-Dietz-Keramik - Eva Hermann;Grimmaische Straße;04109 Leipzig;28.11.23;23.12.23;Hase-Dietz-Keramik - Eva Hermann;10:00-21:00;;https://www.leipzig.de/freizeit-kultur-und-tourismus/veranstaltungen-und-termine/eventsingle/event/leipziger-weihnachtsmarkt-2023;;51.3397601041485;12.377361456788833;Hase-Dietz-Keramik - Eva Hermann;;1;10:00-21:00;10:00-21:00;10:00-21:00;10:00-21:00;10:00-22:00;10:00-22:00;10:00-21:00;0;;01.12.23=10:00-22:00,02.12.23=10:00-22:00,08.12.23=10:00-22:00,09.12.23=10:00-22:00,15.12.23=10:00-22:00,16.12.23=10:00-22:00,22.12.23=10:00-22:00;freitags und samstags bis 22 Uhr;0;;0;0;;;S1, S2, S3, S4, S5, S5X und S6 bis "Leipzig, Markt";72;1;Handel und Handwerk
600;Zentrum;Haus G 11;Kunststück - Sandra Alt;Grimmaische Straße;04109 Leipzig;28.11.23;23.12.23;Kunststück - Sandra Alt;10:00-21:00;;https://www.leipzig.de/freizeit-kultur-und-tourismus/veranstaltungen-und-termine/eventsingle/event/leipziger-weihnachtsmarkt-2023;;51.3397557456981;12.377412698794311;Kunststück - Sandra Alt;;1;10:00-21:00;10:00-21:00;10:00-21:00;10:00-21:00;10:00-22:00;10:00-22:00;10:00-21:00;0;;01.12.23=10:00-22:00,02.12.23=10:00-22:00,08.12.23=10:00-22:00,09.12.23=10:00-22:00,15.12.23=10:00-22:00,16.12.23=10:00-22:00,22.12.23=10:00-22:00;freitags und samstags bis 22 Uhr;0;;0;0;;;S1, S2, S3, S4, S5, S5X und S6 bis "Leipzig, Markt";72;1;Handel und Handwerk
786;Zentrum;Haus G 12;Bäckerei u. Konditorei Gerd Nestler;Grimmaische Straße;04109 Leipzig;28.11.23;23.12.23;Bäckerei u. Konditorei Gerd Nestler;10:00-21:00;;https://baeckerei-nestler.de/;;51.339746393193955;12.37751878263816;Bäckerei u. Konditorei Gerd Nestler;;1;10:00-21:00;10:00-21:00;10:00-21:00;10:00-21:00;10:00-22:00;10:00-22:00;10:00-21:00;0;;01.12.23=10:00-22:00,02.12.23=10:00-22:00,08.12.23=10:00-22:00,09.12.23=10:00-22:00,15.12.23=10:00-22:00,16.12.23=10:00-22:00,22.12.23=10:00-22:00;freitags und samstags bis 22 Uhr;0;;0;0;;;S1, S2, S3, S4, S5, S5X und S6 bis "Leipzig, Markt";72;1;Nahrung und Genuss
585;Zentrum;Haus G 13;Kaubes Sternenladen - Daniel Kaube;Grimmaische Straße;04109 Leipzig;28.11.23;23.12.23;Kaubes Sternenladen - Daniel Kaube;10:00-21:00;;https://www.advents-weihnachtssterne.de/;;51.33974244396786;12.37756808615219;Kaubes Sternenladen - Daniel Kaube;;1;10:00-21:00;10:00-21:00;10:00-21:00;10:00-21:00;10:00-22:00;10:00-22:00;10:00-21:00;0;;01.12.23=10:00-22:00,02.12.23=10:00-22:00,08.12.23=10:00-22:00,09.12.23=10:00-22:00,15.12.23=10:00-22:00,16.12.23=10:00-22:00,22.12.23=10:00-22:00;freitags und samstags bis 22 Uhr;0;;0;0;;;S1, S2, S3, S4, S5, S5X und S6 bis "Leipzig, Markt";72;1;Weihnachtliches
739;Zentrum;Haus G 14;Eberhard Wiedenmann e. K.;Grimmaische Straße;04109 Leipzig;28.11.23;23.12.23;Eberhard Wiedenmann e. K.;10:00-21:00;;https://sanremo-leipzig.de/;;51.339730788060535;12.37772927159959;Eberhard Wiedenmann e. K.;;1;10:00-21:00;10:00-21:00;10:00-21:00;10:00-21:00;10:00-22:00;10:00-22:00;10:00-21:00;0;;01.12.23=10:00-22:00,02.12.23=10:00-22:00,08.12.23=10:00-22:00,09.12.23=10:00-22:00,15.12.23=10:00-22:00,16.12.23=10:00-22:00,22.12.23=10:00-22:00;freitags und samstags bis 22 Uhr;0;;0;0;;;S1, S2, S3, S4, S5, S5X und S6 bis "Leipzig, Markt";72;1;Imbiss und Getränke
637;Zentrum;Haus G 15;Leder Jo - Marco Oroz;Grimmaische Straße;04109 Leipzig;28.11.23;23.12.23;Leder Jo - Marco Oroz;10:00-21:00;;https://thejoriginal.com/;;51.339683142989884;12.378051014191163;Leder Jo - Marco Oroz;;1;10:00-21:00;10:00-21:00;10:00-21:00;10:00-21:00;10:00-22:00;10:00-22:00;10:00-21:00;0;;01.12.23=10:00-22:00,02.12.23=10:00-22:00,08.12.23=10:00-22:00,09.12.23=10:00-22:00,15.12.23=10:00-22:00,16.12.23=10:00-22:00,22.12.23=10:00-22:00;freitags und samstags bis 22 Uhr;0;;0;0;;;S1, S2, S3, S4, S5, S5X und S6 bis "Leipzig, Markt";72;1;Handel und Handwerk
566;Zentrum;Haus G 16;Hiller Fournituren GbR;Grimmaische Straße;04109 Leipzig;28.11.23;23.12.23;Hiller Fournituren GbR;10:00-21:00;;https://www.leipzig.de/freizeit-kultur-und-tourismus/veranstaltungen-und-termine/eventsingle/event/leipziger-weihnachtsmarkt-2023;;51.33966854816005;12.378153708353596;Hiller Fournituren GbR;;1;10:00-21:00;10:00-21:00;10:00-21:00;10:00-21:00;10:00-22:00;10:00-22:00;10:00-21:00;0;;01.12.23=10:00-22:00,02.12.23=10:00-22:00,08.12.23=10:00-22:00,09.12.23=10:00-22:00,15.12.23=10:00-22:00,16.12.23=10:00-22:00,22.12.23=10:00-22:00;freitags und samstags bis 22 Uhr;0;;0;0;;;S1, S2, S3, S4, S5, S5X und S6 bis "Leipzig, Markt";72;1;Weihnachtliches
683;Zentrum;Haus G 17;Seyko Handelskontor;Grimmaische Straße;04109 Leipzig;28.11.23;23.12.23;Seyko Handelskontor;10:00-21:00;;https://www.seyko-geschenke.de/;;51.33965706130237;12.37824902184867;Seyko Handelskontor;;1;10:00-21:00;10:00-21:00;10:00-21:00;10:00-21:00;10:00-22:00;10:00-22:00;10:00-21:00;0;;01.12.23=10:00-22:00,02.12.23=10:00-22:00,08.12.23=10:00-22:00,09.12.23=10:00-22:00,15.12.23=10:00-22:00,16.12.23=10:00-22:00,22.12.23=10:00-22:00;freitags und samstags bis 22 Uhr;0;;0;0;;;S1, S2, S3, S4, S5, S5X und S6 bis "Leipzig, Markt";72;1;Handel und Handwerk
565;Zentrum;Haus G 18;Schaustellerbetrieb Ingo Westenberg;Grimmaische Straße;04109 Leipzig;28.11.23;23.12.23;Schaustellerbetrieb Ingo Westenberg;10:00-21:00;;https://www.leipzig.de/freizeit-kultur-und-tourismus/veranstaltungen-und-termine/eventsingle/event/leipziger-weihnachtsmarkt-2023;;51.33963900209377;12.378348114822474;Schaustellerbetrieb Ingo Westenberg;;1;10:00-21:00;10:00-21:00;10:00-21:00;10:00-21:00;10:00-22:00;10:00-22:00;10:00-21:00;0;;01.12.23=10:00-22:00,02.12.23=10:00-22:00,08.12.23=10:00-22:00,09.12.23=10:00-22:00,15.12.23=10:00-22:00,16.12.23=10:00-22:00,22.12.23=10:00-22:00;freitags und samstags bis 22 Uhr;0;;0;0;;;S1, S2, S3, S4, S5, S5X und S6 bis "Leipzig, Markt";72;1;Süßwaren
681;Zentrum;Haus G 19;Rasenballsport Leipzig GmbH;Grimmaische Straße;04109 Leipzig;28.11.23;23.12.23;Rasenballsport Leipzig GmbH;10:00-21:00;;https://www.redbullshop.com/de-int/rb-leipzig/;;51.33962382933368;12.378468066479517;Rasenballsport Leipzig GmbH;;1;10:00-21:00;10:00-21:00;10:00-21:00;10:00-21:00;10:00-22:00;10:00-22:00;10:00-21:00;0;;01.12.23=10:00-22:00,02.12.23=10:00-22:00,08.12.23=10:00-22:00,09.12.23=10:00-22:00,15.12.23=10:00-22:00,16.12.23=10:00-22:00,22.12.23=10:00-22:00;freitags und samstags bis 22 Uhr;0;;0;0;;;S1, S2, S3, S4, S5, S5X und S6 bis "Leipzig, Markt";72;1;Handel und Handwerk
773;Zentrum;Haus G 20;Schaustellerbetrieb Mario Schmökel;Grimmaische Straße;04109 Leipzig;28.11.23;23.12.23;Schaustellerbetrieb Mario Schmökel;10:00-21:00;;https://www.leipzig.de/freizeit-kultur-und-tourismus/veranstaltungen-und-termine/eventsingle/event/leipziger-weihnachtsmarkt-2023;;51.339611750880415;12.378563929946342;Schaustellerbetrieb Mario Schmökel;;1;10:00-21:00;10:00-21:00;10:00-21:00;10:00-21:00;10:00-22:00;10:00-22:00;10:00-21:00;0;;01.12.23=10:00-22:00,02.12.23=10:00-22:00,08.12.23=10:00-22:00,09.12.23=10:00-22:00,15.12.23=10:00-22:00,16.12.23=10:00-22:00,22.12.23=10:00-22:00;freitags und samstags bis 22 Uhr;0;;0;0;;;S1, S2, S3, S4, S5, S5X und S6 bis "Leipzig, Markt";72;1;Imbiss und Getränke
617;Zentrum;Haus G 21;Raum- und Tafelschmuck Gabriele Günther;Grimmaische Straße;04109 Leipzig;28.11.23;23.12.23;Raum- und Tafelschmuck Gabriele Günther;10:00-21:00;;https://rauta.de/;;51.33959510054641;12.378661025605421;Raum- und Tafelschmuck Gabriele Günther;;1;10:00-21:00;10:00-21:00;10:00-21:00;10:00-21:00;10:00-22:00;10:00-22:00;10:00-21:00;0;;01.12.23=10:00-22:00,02.12.23=10:00-22:00,08.12.23=10:00-22:00,09.12.23=10:00-22:00,15.12.23=10:00-22:00,16.12.23=10:00-22:00,22.12.23=10:00-22:00;freitags und samstags bis 22 Uhr;0;;0;0;;;S1, S2, S3, S4, S5, S5X und S6 bis "Leipzig, Markt";72;1;Weihnachtliches
506;Zentrum;Haus G 22;Almgourmet - Dirk Esters;Grimmaische Straße;04109 Leipzig;28.11.23;23.12.23;Almgourmet - Dirk Esters;10:00-21:00;;https://www.almgourmet.de/;;51.33958184641078;12.378753959453572;Almgourmet - Dirk Esters;;1;10:00-21:00;10:00-21:00;10:00-21:00;10:00-21:00;10:00-22:00;10:00-22:00;10:00-21:00;0;;01.12.23=10:00-22:00,02.12.23=10:00-22:00,08.12.23=10:00-22:00,09.12.23=10:00-22:00,15.12.23=10:00-22:00,16.12.23=10:00-22:00,22.12.23=10:00-22:00;freitags und samstags bis 22 Uhr;0;;0;0;;;S1, S2, S3, S4, S5, S5X und S6 bis "Leipzig, Markt";72;1;Nahrung und Genuss
593;Zentrum;Haus G 23;Bäckerei Wendl GmbH - Käse-Alm;Grimmaische Straße;04109 Leipzig;28.11.23;23.12.23;Bäckerei Wendl GmbH - Käse-Alm;10:00-21:00;;https://www.brotagonist.de/;;51.339568166522675;12.378841790811038;Bäckerei Wendl GmbH - Käse-Alm;;1;10:00-21:00;10:00-21:00;10:00-21:00;10:00-21:00;10:00-22:00;10:00-22:00;10:00-21:00;0;;01.12.23=10:00-22:00,02.12.23=10:00-22:00,08.12.23=10:00-22:00,09.12.23=10:00-22:00,15.12.23=10:00-22:00,16.12.23=10:00-22:00,22.12.23=10:00-22:00;freitags und samstags bis 22 Uhr;0;;0;0;;;S1, S2, S3, S4, S5, S5X und S6 bis "Leipzig, Markt";72;1;Imbiss und Getränke
567;Zentrum;Haus G 24;Schaustellerbetrieb Jürgen Seiferth;Grimmaische Straße;04109 Leipzig;28.11.23;23.12.23;Schaustellerbetrieb Jürgen Seiferth;10:00-21:00;;https://www.leipzig.de/freizeit-kultur-und-tourismus/veranstaltungen-und-termine/eventsingle/event/leipziger-weihnachtsmarkt-2023;;51.33957960538961;12.379041696945901;Schaustellerbetrieb Jürgen Seiferth;;1;10:00-21:00;10:00-21:00;10:00-21:00;10:00-21:00;10:00-22:00;10:00-22:00;10:00-21:00;0;;01.12.23=10:00-22:00,02.12.23=10:00-22:00,08.12.23=10:00-22:00,09.12.23=10:00-22:00,15.12.23=10:00-22:00,16.12.23=10:00-22:00,22.12.23=10:00-22:00;freitags und samstags bis 22 Uhr;0;;0;0;;;S1, S2, S3, S4, S5, S5X und S6 bis "Leipzig, Markt";72;1;Süßwaren
623;Zentrum;Haus G 25;K&K Dresdner Handels GmbH;Grimmaische Straße;04109 Leipzig;28.11.23;23.12.23;K&K Dresdner Handels GmbH;10:00-21:00;;https://www.leipzig.de/freizeit-kultur-und-tourismus/veranstaltungen-und-termine/eventsingle/event/leipziger-weihnachtsmarkt-2023;;51.339564699307154;12.379135852973723;K&K Dresdner Handels GmbH;;1;10:00-21:00;10:00-21:00;10:00-21:00;10:00-21:00;10:00-22:00;10:00-22:00;10:00-21:00;0;;01.12.23=10:00-22:00,02.12.23=10:00-22:00,08.12.23=10:00-22:00,09.12.23=10:00-22:00,15.12.23=10:00-22:00,16.12.23=10:00-22:00,22.12.23=10:00-22:00;freitags und samstags bis 22 Uhr;0;;0;0;;;S1, S2, S3, S4, S5, S5X und S6 bis "Leipzig, Markt";72;1;Weihnachtliches
562;Zentrum;Haus G 26;Kerstin Teich;Grimmaische Straße;04109 Leipzig;28.11.23;23.12.23;Kerstin Teich;10:00-21:00;;https://www.baby-kinder-treff.de/;;51.33955110422268;12.379214074809346;Kerstin Teich;;1;10:00-21:00;10:00-21:00;10:00-21:00;10:00-21:00;10:00-22:00;10:00-22:00;10:00-21:00;0;;01.12.23=10:00-22:00,02.12.23=10:00-22:00,08.12.23=10:00-22:00,09.12.23=10:00-22:00,15.12.23=10:00-22:00,16.12.23=10:00-22:00,22.12.23=10:00-22:00;freitags und samstags bis 22 Uhr;0;;0;0;;;S1, S2, S3, S4, S5, S5X und S6 bis "Leipzig, Markt";72;1;Bekleidung und Textil
599;Zentrum;Haus G 27;Illgro GmbH - H. Zink;Grimmaische Straße;04109 Leipzig;28.11.23;23.12.23;Illgro GmbH - H. Zink;10:00-21:00;;https://www.ilggro.de/;;51.33953605027173;12.379301676770897;Illgro GmbH - H. Zink;;1;10:00-21:00;10:00-21:00;10:00-21:00;10:00-21:00;10:00-22:00;10:00-22:00;10:00-21:00;0;;01.12.23=10:00-22:00,02.12.23=10:00-22:00,08.12.23=10:00-22:00,09.12.23=10:00-22:00,15.12.23=10:00-22:00,16.12.23=10:00-22:00,22.12.23=10:00-22:00;freitags und samstags bis 22 Uhr;0;;0;0;;;S1, S2, S3, S4, S5, S5X und S6 bis "Leipzig, Markt";72;1;Handel und Handwerk
694;Zentrum;Haus G 28;"Die Schaubackstube" - Siegel & Rößler GbR;Grimmaische Straße;04109 Leipzig;28.11.23;23.12.23;"Die Schaubackstube" - Siegel & Rößler GbR;10:00-21:00;;https://www.schaubacken.de/;;51.33952014376639;12.37938396624379;"Die Schaubackstube" - Siegel & Rößler GbR;;1;10:00-21:00;10:00-21:00;10:00-21:00;10:00-21:00;10:00-22:00;10:00-22:00;10:00-21:00;0;;01.12.23=10:00-22:00,02.12.23=10:00-22:00,08.12.23=10:00-22:00,09.12.23=10:00-22:00,15.12.23=10:00-22:00,16.12.23=10:00-22:00,22.12.23=10:00-22:00;freitags und samstags bis 22 Uhr;0;;0;0;;;S1, S2, S3, S4, S5, S5X und S6 bis "Leipzig, Markt";72;1;Imbiss und Getränke
553;Zentrum;Haus G 29;Kerstin Naumann;Grimmaische Straße;04109 Leipzig;28.11.23;23.12.23;Kerstin Naumann;10:00-21:00;;https://www.leipzig.de/freizeit-kultur-und-tourismus/veranstaltungen-und-termine/eventsingle/event/leipziger-weihnachtsmarkt-2023;;51.3394666056235;12.379620697002592;Kerstin Naumann;;1;10:00-21:00;10:00-21:00;10:00-21:00;10:00-21:00;10:00-22:00;10:00-22:00;10:00-21:00;0;;01.12.23=10:00-22:00,02.12.23=10:00-22:00,08.12.23=10:00-22:00,09.12.23=10:00-22:00,15.12.23=10:00-22:00,16.12.23=10:00-22:00,22.12.23=10:00-22:00;freitags und samstags bis 22 Uhr;0;;0;0;;;S1, S2, S3, S4, S5, S5X und S6 bis "Leipzig, Markt";72;1;Süßwaren
607;Zentrum;Haus G 30;Xmas GmbH - Marko Fritzsche;Grimmaische Straße;04109 Leipzig;28.11.23;23.12.23;Xmas GmbH - Marko Fritzsche;10:00-21:00;;https://www.leipzig.de/freizeit-kultur-und-tourismus/veranstaltungen-und-termine/eventsingle/event/leipziger-weihnachtsmarkt-2023;;51.33945312070627;12.379692877023816;Xmas GmbH - Marko Fritzsche;;1;10:00-21:00;10:00-21:00;10:00-21:00;10:00-21:00;10:00-22:00;10:00-22:00;10:00-21:00;0;;01.12.23=10:00-22:00,02.12.23=10:00-22:00,08.12.23=10:00-22:00,09.12.23=10:00-22:00,15.12.23=10:00-22:00,16.12.23=10:00-22:00,22.12.23=10:00-22:00;freitags und samstags bis 22 Uhr;0;;0;0;;;S1, S2, S3, S4, S5, S5X und S6 bis "Leipzig, Markt";72;1;Handel und Handwerk
693;Zentrum;Haus G 31;EWU - Thüring. Wurst- und Spezialitäten GmbH;Grimmaische Straße;04109 Leipzig;28.11.23;23.12.23;EWU - Thüring. Wurst- und Spezialitäten GmbH;10:00-21:00;;http://www.ewu-thueringer.de;;51.33943911606452;12.379785999708897;EWU - Thüring. Wurst- und Spezialitäten GmbH;;1;10:00-21:00;10:00-21:00;10:00-21:00;10:00-21:00;10:00-22:00;10:00-22:00;10:00-21:00;0;;01.12.23=10:00-22:00,02.12.23=10:00-22:00,08.12.23=10:00-22:00,09.12.23=10:00-22:00,15.12.23=10:00-22:00,16.12.23=10:00-22:00,22.12.23=10:00-22:00;freitags und samstags bis 22 Uhr;0;;0;0;;;S1, S2, S3, S4, S5, S5X und S6 bis "Leipzig, Markt";72;1;Imbiss und Getränke
687;Zentrum;Haus M 01/01;Duftholz Team - Annette Vogt;Markt;04109 Leipzig;28.11.23;23.12.23;Duftholz Team - Annette Vogt;10:00-21:00;;https://www.leipzig.de/freizeit-kultur-und-tourismus/veranstaltungen-und-termine/eventsingle/event/leipziger-weihnachtsmarkt-2023;;51.34110422746927;12.3743836056922;Duftholz Team - Annette Vogt;;1;10:00-21:00;10:00-21:00;10:00-21:00;10:00-21:00;10:00-22:00;10:00-22:00;10:00-21:00;0;;01.12.23=10:00-22:00,02.12.23=10:00-22:00,08.12.23=10:00-22:00,09.12.23=10:00-22:00,15.12.23=10:00-22:00,16.12.23=10:00-22:00,22.12.23=10:00-22:00;freitags und samstags bis 22 Uhr;0;;0;0;;;S1, S2, S3, S4, S5, S5X und S6 bis "Leipzig, Markt";72;1;Handel und Handwerk
592;Zentrum;Haus M 01/02;Very Good;Markt;04109 Leipzig;28.11.23;23.12.23;Very Good;10:00-21:00;;https://www.leipzig.de/freizeit-kultur-und-tourismus/veranstaltungen-und-termine/eventsingle/event/leipziger-weihnachtsmarkt-2023;;51.34110548310051;12.374425798654071;Very Good;;1;10:00-21:00;10:00-21:00;10:00-21:00;10:00-21:00;10:00-22:00;10:00-22:00;10:00-21:00;0;;01.12.23=10:00-22:00,02.12.23=10:00-22:00,08.12.23=10:00-22:00,09.12.23=10:00-22:00,15.12.23=10:00-22:00,16.12.23=10:00-22:00,22.12.23=10:00-22:00;freitags und samstags bis 22 Uhr;0;;0;0;;;S1, S2, S3, S4, S5, S5X und S6 bis "Leipzig, Markt";72;1;Handel und Handwerk
678;Zentrum;Haus M 01/03;Heiko Wild;Markt;04109 Leipzig;28.11.23;23.12.23;Heiko Wild;10:00-21:00;;https://heikowild.de/;;51.34110945680313;12.374510658495353;Heiko Wild;;1;10:00-21:00;10:00-21:00;10:00-21:00;10:00-21:00;10:00-22:00;10:00-22:00;10:00-21:00;0;;01.12.23=10:00-22:00,02.12.23=10:00-22:00,08.12.23=10:00-22:00,09.12.23=10:00-22:00,15.12.23=10:00-22:00,16.12.23=10:00-22:00,22.12.23=10:00-22:00;freitags und samstags bis 22 Uhr;0;;0;0;;;S1, S2, S3, S4, S5, S5X und S6 bis "Leipzig, Markt";72;1;Handel und Handwerk
521;Zentrum;Haus M 01/04;Mila Putnins;Markt;04109 Leipzig;28.11.23;23.12.23;Mila Putnins;10:00-21:00;;https://www.putnins-gastronomie.de/;;51.34111192350904;12.374615233568218;Mila Putnins;;1;10:00-21:00;10:00-21:00;10:00-21:00;10:00-21:00;10:00-22:00;10:00-22:00;10:00-21:00;0;;01.12.23=10:00-22:00,02.12.23=10:00-22:00,08.12.23=10:00-22:00,09.12.23=10:00-22:00,15.12.23=10:00-22:00,16.12.23=10:00-22:00,22.12.23=10:00-22:00;freitags und samstags bis 22 Uhr;0;;0;0;;;S1, S2, S3, S4, S5, S5X und S6 bis "Leipzig, Markt";72;1;Süßwaren
713;Zentrum;Haus M 01/05;Globus System Gastronomie Riebeckstraße GmbH;Markt;04109 Leipzig;28.11.23;23.12.23;Globus System Gastronomie Riebeckstraße GmbH;10:00-21:00;;https://www.globusdoener.de/;;51.341094781921626;12.374705196761349;Globus System Gastronomie Riebeckstraße GmbH;;1;10:00-21:00;10:00-21:00;10:00-21:00;10:00-21:00;10:00-22:00;10:00-22:00;10:00-21:00;0;;01.12.23=10:00-22:00,02.12.23=10:00-22:00,08.12.23=10:00-22:00,09.12.23=10:00-22:00,15.12.23=10:00-22:00,16.12.23=10:00-22:00,22.12.23=10:00-22:00;freitags und samstags bis 22 Uhr;0;;0;0;;;S1, S2, S3, S4, S5, S5X und S6 bis "Leipzig, Markt";72;1;Imbiss und Getränke
732;Zentrum;Haus M 01/06;Wendl GmbH Konditorei & Bäckerei;Markt;04109 Leipzig;28.11.23;23.12.23;Wendl GmbH Konditorei & Bäckerei;10:00-21:00;;https://www.brotagonist.de/;;51.34100617531518;12.374708584129657;Wendl GmbH Konditorei & Bäckerei;;1;10:00-21:00;10:00-21:00;10:00-21:00;10:00-21:00;10:00-22:00;10:00-22:00;10:00-21:00;0;;01.12.23=10:00-22:00,02.12.23=10:00-22:00,08.12.23=10:00-22:00,09.12.23=10:00-22:00,15.12.23=10:00-22:00,16.12.23=10:00-22:00,22.12.23=10:00-22:00;freitags und samstags bis 22 Uhr;0;;0;0;;;S1, S2, S3, S4, S5, S5X und S6 bis "Leipzig, Markt";72;1;Imbiss und Getränke
706;Zentrum;Haus M 01/07;Gesellschaft der Freunde Lions e.V.;Markt;04109 Leipzig;28.11.23;23.12.23;Gesellschaft der Freunde Lions e.V.;10:00-21:00;;https://www.leipzig.de/freizeit-kultur-und-tourismus/veranstaltungen-und-termine/eventsingle/event/leipziger-weihnachtsmarkt-2023;;51.34094949069587;12.37462782742909;Gesellschaft der Freunde Lions e.V.;;1;10:00-21:00;10:00-21:00;10:00-21:00;10:00-21:00;10:00-22:00;10:00-22:00;10:00-21:00;0;;01.12.23=10:00-22:00,02.12.23=10:00-22:00,08.12.23=10:00-22:00,09.12.23=10:00-22:00,15.12.23=10:00-22:00,16.12.23=10:00-22:00,22.12.23=10:00-22:00;freitags und samstags bis 22 Uhr;0;;0;0;;;S1, S2, S3, S4, S5, S5X und S6 bis "Leipzig, Markt";72;1;Imbiss und Getränke
590;Zentrum;Haus M 01/08;Candyman - Bernhard Wachinger;Markt;04109 Leipzig;28.11.23;23.12.23;Candyman - Bernhard Wachinger;10:00-21:00;;https://www.leipzig.de/freizeit-kultur-und-tourismus/veranstaltungen-und-termine/eventsingle/event/leipziger-weihnachtsmarkt-2023;;51.34094512782248;12.37452767414851;Candyman - Bernhard Wachinger;;1;10:00-21:00;10:00-21:00;10:00-21:00;10:00-21:00;10:00-22:00;10:00-22:00;10:00-21:00;0;;01.12.23=10:00-22:00,02.12.23=10:00-22:00,08.12.23=10:00-22:00,09.12.23=10:00-22:00,15.12.23=10:00-22:00,16.12.23=10:00-22:00,22.12.23=10:00-22:00;freitags und samstags bis 22 Uhr;0;;0;0;;;S1, S2, S3, S4, S5, S5X und S6 bis "Leipzig, Markt";72;1;Süßwaren
765;Zentrum;Haus M 01/09;Tobias Kleinhenz;Markt;04109 Leipzig;28.11.23;23.12.23;Tobias Kleinhenz;10:00-21:00;;https://spatzendealer.de/;;51.340934817447035;12.374413198679934;Tobias Kleinhenz;;1;10:00-21:00;10:00-21:00;10:00-21:00;10:00-21:00;10:00-22:00;10:00-22:00;10:00-21:00;0;;01.12.23=10:00-22:00,02.12.23=10:00-22:00,08.12.23=10:00-22:00,09.12.23=10:00-22:00,15.12.23=10:00-22:00,16.12.23=10:00-22:00,22.12.23=10:00-22:00;freitags und samstags bis 22 Uhr;0;;0;0;;;S1, S2, S3, S4, S5, S5X und S6 bis "Leipzig, Markt";72;1;Imbiss und Getränke
502;Zentrum;Haus M 01/10;M. Winkelmann und H. Wolf GbR;Markt;04109 Leipzig;28.11.23;23.12.23;M. Winkelmann und H. Wolf GbR;10:00-21:00;;https://caracol.de/;;51.3409604856116;12.374331214813914;M. Winkelmann und H. Wolf GbR;;1;10:00-21:00;10:00-21:00;10:00-21:00;10:00-21:00;10:00-22:00;10:00-22:00;10:00-21:00;0;;01.12.23=10:00-22:00,02.12.23=10:00-22:00,08.12.23=10:00-22:00,09.12.23=10:00-22:00,15.12.23=10:00-22:00,16.12.23=10:00-22:00,22.12.23=10:00-22:00;freitags und samstags bis 22 Uhr;0;;0;0;;;S1, S2, S3, S4, S5, S5X und S6 bis "Leipzig, Markt";72;1;Weihnachtliches
701;Zentrum;Haus M 02/01;Wein- und Sektgut Matthias Keth;Markt;04109 Leipzig;28.11.23;23.12.23;Wein- und Sektgut Matthias Keth;10:00-21:00;;https://www.weingut-keth.de/;;51.34104309539264;12.375018182303593;Wein- und Sektgut Matthias Keth;;1;10:00-21:00;10:00-21:00;10:00-21:00;10:00-21:00;10:00-22:00;10:00-22:00;10:00-21:00;0;;01.12.23=10:00-22:00,02.12.23=10:00-22:00,08.12.23=10:00-22:00,09.12.23=10:00-22:00,15.12.23=10:00-22:00,16.12.23=10:00-22:00,22.12.23=10:00-22:00;freitags und samstags bis 22 Uhr;0;;0;0;;;S1, S2, S3, S4, S5, S5X und S6 bis "Leipzig, Markt";72;1;Imbiss und Getränke
512;Zentrum;Haus M 02/02;Handbrotzeit GmbH - A. Gust;Markt;04109 Leipzig;28.11.23;23.12.23;Handbrotzeit GmbH - A. Gust;10:00-21:00;;https://handbrotzeit-festival.de/;;51.340971563682736;12.375006577028019;Handbrotzeit GmbH - A. Gust;;1;10:00-21:00;10:00-21:00;10:00-21:00;10:00-21:00;10:00-22:00;10:00-22:00;10:00-21:00;0;;01.12.23=10:00-22:00,02.12.23=10:00-22:00,08.12.23=10:00-22:00,09.12.23=10:00-22:00,15.12.23=10:00-22:00,16.12.23=10:00-22:00,22.12.23=10:00-22:00;freitags und samstags bis 22 Uhr;0;;0;0;;;S1, S2, S3, S4, S5, S5X und S6 bis "Leipzig, Markt";72;1;Imbiss und Getränke
572;Zentrum;Haus M 02/03;Harisch & Schneller GbR;Markt;04109 Leipzig;28.11.23;23.12.23;Harisch & Schneller GbR;10:00-21:00;;https://www.leipzig.de/freizeit-kultur-und-tourismus/veranstaltungen-und-termine/eventsingle/event/leipziger-weihnachtsmarkt-2023;;51.34092628431296;12.374915205496052;Harisch & Schneller GbR;;1;10:00-21:00;10:00-21:00;10:00-21:00;10:00-21:00;10:00-22:00;10:00-22:00;10:00-21:00;0;;01.12.23=10:00-22:00,02.12.23=10:00-22:00,08.12.23=10:00-22:00,09.12.23=10:00-22:00,15.12.23=10:00-22:00,16.12.23=10:00-22:00,22.12.23=10:00-22:00;freitags und samstags bis 22 Uhr;0;;0;0;;;S1, S2, S3, S4, S5, S5X und S6 bis "Leipzig, Markt";72;1;Süßwaren
716;Zentrum;Haus M 02/04;Ratskeller der Stadt Leipzig;Markt;04109 Leipzig;28.11.23;23.12.23;Ratskeller der Stadt Leipzig;10:00-21:00;;https://www.ratskeller-leipzig.de/;;51.34097684415067;12.374883422777588;Ratskeller der Stadt Leipzig;;1;10:00-21:00;10:00-21:00;10:00-21:00;10:00-21:00;10:00-22:00;10:00-22:00;10:00-21:00;0;;01.12.23=10:00-22:00,02.12.23=10:00-22:00,08.12.23=10:00-22:00,09.12.23=10:00-22:00,15.12.23=10:00-22:00,16.12.23=10:00-22:00,22.12.23=10:00-22:00;freitags und samstags bis 22 Uhr;0;;0;0;;;S1, S2, S3, S4, S5, S5X und S6 bis "Leipzig, Markt";72;1;Imbiss und Getränke
767;Zentrum;Haus M 02/05;Obstland Dürrweitschen AG;Markt;04109 Leipzig;28.11.23;23.12.23;Obstland Dürrweitschen AG;10:00-21:00;;https://www.sachsenobst.de/;;51.34103666011332;12.37490849949599;Obstland Dürrweitschen AG;;1;10:00-21:00;10:00-21:00;10:00-21:00;10:00-21:00;10:00-22:00;10:00-22:00;10:00-21:00;0;;01.12.23=10:00-22:00,02.12.23=10:00-22:00,08.12.23=10:00-22:00,09.12.23=10:00-22:00,15.12.23=10:00-22:00,16.12.23=10:00-22:00,22.12.23=10:00-22:00;freitags und samstags bis 22 Uhr;0;;0;0;;;S1, S2, S3, S4, S5, S5X und S6 bis "Leipzig, Markt";72;1;Imbiss und Getränke
548;Zentrum;Haus M 02/06;Delacher und Richter GbR;Markt;04109 Leipzig;28.11.23;23.12.23;Delacher und Richter GbR;10:00-21:00;;https://www.leipzig.de/freizeit-kultur-und-tourismus/veranstaltungen-und-termine/eventsingle/event/leipziger-weihnachtsmarkt-2023;;51.34109652710756;12.374935852293106;Delacher und Richter GbR;;1;10:00-21:00;10:00-21:00;10:00-21:00;10:00-21:00;10:00-22:00;10:00-22:00;10:00-21:00;0;;01.12.23=10:00-22:00,02.12.23=10:00-22:00,08.12.23=10:00-22:00,09.12.23=10:00-22:00,15.12.23=10:00-22:00,16.12.23=10:00-22:00,22.12.23=10:00-22:00;freitags und samstags bis 22 Uhr;0;;0;0;;;S1, S2, S3, S4, S5, S5X und S6 bis "Leipzig, Markt";72;1;Imbiss und Getränke
707;Zentrum;Haus M 02/07;Gemeinnützige Vereine - im Wechsel;Markt;04109 Leipzig;28.11.23;23.12.23;Gemeinnützige Vereine - im Wechsel;10:00-21:00;;https://www.leipzig.de/freizeit-kultur-und-tourismus/veranstaltungen-und-termine/eventsingle/event/leipziger-weihnachtsmarkt-2023;;51.341111919361836;12.374997154167426;Gemeinnützige Vereine - im Wechsel;;1;10:00-21:00;10:00-21:00;10:00-21:00;10:00-21:00;10:00-22:00;10:00-22:00;10:00-21:00;0;;01.12.23=10:00-22:00,02.12.23=10:00-22:00,08.12.23=10:00-22:00,09.12.23=10:00-22:00,15.12.23=10:00-22:00,16.12.23=10:00-22:00,22.12.23=10:00-22:00;freitags und samstags bis 22 Uhr;0;;0;0;;;S1, S2, S3, S4, S5, S5X und S6 bis "Leipzig, Markt";72;1;Imbiss und Getränke
719;Zentrum;Haus M 03/01;Axel Thier e.K.;Markt;04109 Leipzig;28.11.23;23.12.23;Axel Thier e.K.;10:00-21:00;;https://www.leipzig.de/freizeit-kultur-und-tourismus/veranstaltungen-und-termine/eventsingle/event/leipziger-weihnachtsmarkt-2023;;51.340828662665736;12.374339858152265;Axel Thier e.K.;;1;10:00-21:00;10:00-21:00;10:00-21:00;10:00-21:00;10:00-22:00;10:00-22:00;10:00-21:00;0;;01.12.23=10:00-22:00,02.12.23=10:00-22:00,08.12.23=10:00-22:00,09.12.23=10:00-22:00,15.12.23=10:00-22:00,16.12.23=10:00-22:00,22.12.23=10:00-22:00;freitags und samstags bis 22 Uhr;0;;0;0;;;S1, S2, S3, S4, S5, S5X und S6 bis "Leipzig, Markt";72;1;Imbiss und Getränke
720;Zentrum;Haus M 03/02;Naschkatze - Gerd Helmchen;Markt;04109 Leipzig;28.11.23;23.12.23;Naschkatze - Gerd Helmchen;10:00-21:00;;https://www.leipzig.de/freizeit-kultur-und-tourismus/veranstaltungen-und-termine/eventsingle/event/leipziger-weihnachtsmarkt-2023;;51.34075731463007;12.37436980893316;Naschkatze - Gerd Helmchen;;1;10:00-21:00;10:00-21:00;10:00-21:00;10:00-21:00;10:00-22:00;10:00-22:00;10:00-21:00;0;;01.12.23=10:00-22:00,02.12.23=10:00-22:00,08.12.23=10:00-22:00,09.12.23=10:00-22:00,15.12.23=10:00-22:00,16.12.23=10:00-22:00,22.12.23=10:00-22:00;freitags und samstags bis 22 Uhr;0;;0;0;;;S1, S2, S3, S4, S5, S5X und S6 bis "Leipzig, Markt";72;1;Imbiss und Getränke
620;Zentrum;Haus M 03/03;Nadezda Reinhardt;Markt;04109 Leipzig;28.11.23;23.12.23;Nadezda Reinhardt;10:00-21:00;;https://www.leipzig.de/freizeit-kultur-und-tourismus/veranstaltungen-und-termine/eventsingle/event/leipziger-weihnachtsmarkt-2023;;51.34072499706024;12.37437184618789;Nadezda Reinhardt;;1;10:00-21:00;10:00-21:00;10:00-21:00;10:00-21:00;10:00-22:00;10:00-22:00;10:00-21:00;0;;01.12.23=10:00-22:00,02.12.23=10:00-22:00,08.12.23=10:00-22:00,09.12.23=10:00-22:00,15.12.23=10:00-22:00,16.12.23=10:00-22:00,22.12.23=10:00-22:00;freitags und samstags bis 22 Uhr;0;;0;0;;;S1, S2, S3, S4, S5, S5X und S6 bis "Leipzig, Markt";72;1;Handel und Handwerk
621;Zentrum;Haus M 03/04;Puppenwerkstattung und Trachtenartikel;Markt;04109 Leipzig;28.11.23;23.12.23;Puppenwerkstattung und Trachtenartikel;10:00-21:00;;https://www.leipzig.de/freizeit-kultur-und-tourismus/veranstaltungen-und-termine/eventsingle/event/leipziger-weihnachtsmarkt-2023;;51.34068701724456;12.374376106979874;Puppenwerkstattung und Trachtenartikel;;1;10:00-21:00;10:00-21:00;10:00-21:00;10:00-21:00;10:00-22:00;10:00-22:00;10:00-21:00;0;;01.12.23=10:00-22:00,02.12.23=10:00-22:00,08.12.23=10:00-22:00,09.12.23=10:00-22:00,15.12.23=10:00-22:00,16.12.23=10:00-22:00,22.12.23=10:00-22:00;freitags und samstags bis 22 Uhr;0;;0;0;;;S1, S2, S3, S4, S5, S5X und S6 bis "Leipzig, Markt";72;1;Handel und Handwerk
505;Zentrum;Haus M 03/05;Gaumenschmeicheley - A. M. Teubert;Markt;04109 Leipzig;28.11.23;23.12.23;Gaumenschmeicheley - A. M. Teubert;10:00-21:00;;https://www.leipzig.de/freizeit-kultur-und-tourismus/veranstaltungen-und-termine/eventsingle/event/leipziger-weihnachtsmarkt-2023;;51.34064572262214;12.374381127367664;Gaumenschmeicheley - A. M. Teubert;;1;10:00-21:00;10:00-21:00;10:00-21:00;10:00-21:00;10:00-22:00;10:00-22:00;10:00-21:00;0;;01.12.23=10:00-22:00,02.12.23=10:00-22:00,08.12.23=10:00-22:00,09.12.23=10:00-22:00,15.12.23=10:00-22:00,16.12.23=10:00-22:00,22.12.23=10:00-22:00;freitags und samstags bis 22 Uhr;0;;0;0;;;S1, S2, S3, S4, S5, S5X und S6 bis "Leipzig, Markt";72;1;Süßwaren
770;Zentrum;Haus M 03/06;Bäckerei Krätzer GmbH;Markt;04109 Leipzig;28.11.23;23.12.23;Bäckerei Krätzer GmbH;10:00-21:00;;https://www.baeckerei-kraetzer.de/;;51.34060859812648;12.374386289863695;Bäckerei Krätzer GmbH;;1;10:00-21:00;10:00-21:00;10:00-21:00;10:00-21:00;10:00-22:00;10:00-22:00;10:00-21:00;0;;01.12.23=10:00-22:00,02.12.23=10:00-22:00,08.12.23=10:00-22:00,09.12.23=10:00-22:00,15.12.23=10:00-22:00,16.12.23=10:00-22:00,22.12.23=10:00-22:00;freitags und samstags bis 22 Uhr;0;;0;0;;;S1, S2, S3, S4, S5, S5X und S6 bis "Leipzig, Markt";72;1;Nahrung und Genuss
564;Zentrum;Haus M 03/07;Der süße Regenbogen;Markt;04109 Leipzig;28.11.23;23.12.23;Der süße Regenbogen;10:00-21:00;;https://dersuesseregenbogen.de/;;51.340567030496665;12.374391618837905;Der süße Regenbogen;;1;10:00-21:00;10:00-21:00;10:00-21:00;10:00-21:00;10:00-22:00;10:00-22:00;10:00-21:00;0;;01.12.23=10:00-22:00,02.12.23=10:00-22:00,08.12.23=10:00-22:00,09.12.23=10:00-22:00,15.12.23=10:00-22:00,16.12.23=10:00-22:00,22.12.23=10:00-22:00;freitags und samstags bis 22 Uhr;0;;0;0;;;S1, S2, S3, S4, S5, S5X und S6 bis "Leipzig, Markt";72;1;Süßwaren
714;Zentrum;Haus M 03/08;Markus Harich GmbH;Markt;04109 Leipzig;28.11.23;23.12.23;Markus Harich GmbH;10:00-21:00;;https://www.markus-harich.de/;;51.340486150302716;12.374382349771555;Markus Harich GmbH;;1;10:00-21:00;10:00-21:00;10:00-21:00;10:00-21:00;10:00-22:00;10:00-22:00;10:00-21:00;0;;01.12.23=10:00-22:00,02.12.23=10:00-22:00,08.12.23=10:00-22:00,09.12.23=10:00-22:00,15.12.23=10:00-22:00,16.12.23=10:00-22:00,22.12.23=10:00-22:00;freitags und samstags bis 22 Uhr;0;;0;0;;;S1, S2, S3, S4, S5, S5X und S6 bis "Leipzig, Markt";72;1;Imbiss und Getränke
602;Zentrum;Haus M 03/09;Sterne vom Himmel GmbH & Co. KG;Markt;04109 Leipzig;28.11.23;23.12.23;Sterne vom Himmel GmbH & Co. KG;10:00-21:00;;https://www.sternevomhimmel.de/;;51.340535713575285;12.374351513113181;Sterne vom Himmel GmbH & Co. KG;;1;10:00-21:00;10:00-21:00;10:00-21:00;10:00-21:00;10:00-22:00;10:00-22:00;10:00-21:00;0;;01.12.23=10:00-22:00,02.12.23=10:00-22:00,08.12.23=10:00-22:00,09.12.23=10:00-22:00,15.12.23=10:00-22:00,16.12.23=10:00-22:00,22.12.23=10:00-22:00;freitags und samstags bis 22 Uhr;0;;0;0;;;S1, S2, S3, S4, S5, S5X und S6 bis "Leipzig, Markt";72;1;Handel und Handwerk
541;Zentrum;Haus M 03/10;melt4felt - Mario Schuster;Markt;04109 Leipzig;28.11.23;23.12.23;melt4felt - Mario Schuster;10:00-21:00;;https://www.melt4felt.com;;51.34057753973764;12.374344711371537;melt4felt - Mario Schuster;;1;10:00-21:00;10:00-21:00;10:00-21:00;10:00-21:00;10:00-22:00;10:00-22:00;10:00-21:00;0;;01.12.23=10:00-22:00,02.12.23=10:00-22:00,08.12.23=10:00-22:00,09.12.23=10:00-22:00,15.12.23=10:00-22:00,16.12.23=10:00-22:00,22.12.23=10:00-22:00;freitags und samstags bis 22 Uhr;0;;0;0;;;S1, S2, S3, S4, S5, S5X und S6 bis "Leipzig, Markt";72;1;Bekleidung und Textil
591;Zentrum;Haus M 03/11;Reinhard Krause;Markt;04109 Leipzig;28.11.23;23.12.23;Reinhard Krause;10:00-21:00;;https://www.leipzig.de/freizeit-kultur-und-tourismus/veranstaltungen-und-termine/eventsingle/event/leipziger-weihnachtsmarkt-2023;;51.340639272031545;12.3743341070492;Reinhard Krause;;1;10:00-21:00;10:00-21:00;10:00-21:00;10:00-21:00;10:00-22:00;10:00-22:00;10:00-21:00;0;;01.12.23=10:00-22:00,02.12.23=10:00-22:00,08.12.23=10:00-22:00,09.12.23=10:00-22:00,15.12.23=10:00-22:00,16.12.23=10:00-22:00,22.12.23=10:00-22:00;freitags und samstags bis 22 Uhr;0;;0;0;;;S1, S2, S3, S4, S5, S5X und S6 bis "Leipzig, Markt";72;1;Bekleidung und Textil
501;Zentrum;Haus M 03/12;Annaberger Backwaren;Markt;04109 Leipzig;28.11.23;23.12.23;Annaberger Backwaren;10:00-21:00;;https://www.annaberger-backwaren.de;;51.34068989513186;12.374329400625678;Annaberger Backwaren;;1;10:00-21:00;10:00-21:00;10:00-21:00;10:00-21:00;10:00-22:00;10:00-22:00;10:00-21:00;0;;01.12.23=10:00-22:00,02.12.23=10:00-22:00,08.12.23=10:00-22:00,09.12.23=10:00-22:00,15.12.23=10:00-22:00,16.12.23=10:00-22:00,22.12.23=10:00-22:00;freitags und samstags bis 22 Uhr;0;;0;0;;;S1, S2, S3, S4, S5, S5X und S6 bis "Leipzig, Markt";72;1;Nahrung und Genuss
801;Zentrum;Haus M 03/13;Der DDR Laden GmbH Ostalgie & mehr;Markt;04109 Leipzig;28.11.23;23.12.23;Der DDR Laden GmbH Ostalgie & mehr;10:00-21:00;;https://www.leipzig.de/freizeit-kultur-und-tourismus/veranstaltungen-und-termine/eventsingle/event/leipziger-weihnachtsmarkt-2023;;51.34071892953264;12.374326128352523;Der DDR Laden GmbH Ostalgie & mehr;;1;10:00-21:00;10:00-21:00;10:00-21:00;10:00-21:00;10:00-22:00;10:00-22:00;10:00-21:00;0;;01.12.23=10:00-22:00,02.12.23=10:00-22:00,08.12.23=10:00-22:00,09.12.23=10:00-22:00,15.12.23=10:00-22:00,16.12.23=10:00-22:00,22.12.23=10:00-22:00;freitags und samstags bis 22 Uhr;0;;0;0;;;S1, S2, S3, S4, S5, S5X und S6 bis "Leipzig, Markt";72;1;Handel und Handwerk
622;Zentrum;Haus M 03/14;Blindenhilfswerk Dresden e.V.;Markt;04109 Leipzig;28.11.23;23.12.23;Blindenhilfswerk Dresden e.V.;10:00-21:00;;https://www.blindenhilfswerk-dresden.de/;;51.34076163754248;12.374320461069745;Blindenhilfswerk Dresden e.V.;;1;10:00-21:00;10:00-21:00;10:00-21:00;10:00-21:00;10:00-22:00;10:00-22:00;10:00-21:00;0;;01.12.23=10:00-22:00,02.12.23=10:00-22:00,08.12.23=10:00-22:00,09.12.23=10:00-22:00,15.12.23=10:00-22:00,16.12.23=10:00-22:00,22.12.23=10:00-22:00;freitags und samstags bis 22 Uhr;0;;0;0;;;S1, S2, S3, S4, S5, S5X und S6 bis "Leipzig, Markt";72;1;Handel und Handwerk
536;Zentrum;Haus M 04/01;Käthe Wohlfahrt KG;Markt;04109 Leipzig;28.11.23;23.12.23;Käthe Wohlfahrt KG;10:00-21:00;;https://www.kaethe-wohlfahrt.com/;;51.34076597655558;12.374482043274389;Käthe Wohlfahrt KG;;1;10:00-21:00;10:00-21:00;10:00-21:00;10:00-21:00;10:00-22:00;10:00-22:00;10:00-21:00;0;;01.12.23=10:00-22:00,02.12.23=10:00-22:00,08.12.23=10:00-22:00,09.12.23=10:00-22:00,15.12.23=10:00-22:00,16.12.23=10:00-22:00,22.12.23=10:00-22:00;freitags und samstags bis 22 Uhr;0;;0;0;;;S1, S2, S3, S4, S5, S5X und S6 bis "Leipzig, Markt";72;1;Imbiss und Getränke
662;Zentrum;Haus M 04/02;Traumrauch - Karin Uhlig;Markt;04109 Leipzig;28.11.23;23.12.23;Traumrauch - Karin Uhlig;10:00-21:00;;https://www.traumrauch.de/;;51.34070479134862;12.37451452241055;Traumrauch - Karin Uhlig;;1;10:00-21:00;10:00-21:00;10:00-21:00;10:00-21:00;10:00-22:00;10:00-22:00;10:00-21:00;0;;01.12.23=10:00-22:00,02.12.23=10:00-22:00,08.12.23=10:00-22:00,09.12.23=10:00-22:00,15.12.23=10:00-22:00,16.12.23=10:00-22:00,22.12.23=10:00-22:00;freitags und samstags bis 22 Uhr;0;;0;0;;;S1, S2, S3, S4, S5, S5X und S6 bis "Leipzig, Markt";72;1;Handel und Handwerk
595;Zentrum;Haus M 04/03;AMADEUS TREND SRL;Markt;04109 Leipzig;28.11.23;23.12.23;AMADEUS TREND SRL;10:00-21:00;;https://www.leipzig.de/freizeit-kultur-und-tourismus/veranstaltungen-und-termine/eventsingle/event/leipziger-weihnachtsmarkt-2023;;51.34063949572384;12.374521102553203;AMADEUS TREND SRL;;1;10:00-21:00;10:00-21:00;10:00-21:00;10:00-21:00;10:00-22:00;10:00-22:00;10:00-21:00;0;;01.12.23=10:00-22:00,02.12.23=10:00-22:00,08.12.23=10:00-22:00,09.12.23=10:00-22:00,15.12.23=10:00-22:00,16.12.23=10:00-22:00,22.12.23=10:00-22:00;freitags und samstags bis 22 Uhr;0;;0;0;;;S1, S2, S3, S4, S5, S5X und S6 bis "Leipzig, Markt";72;1;Bekleidung und Textil
625;Zentrum;Haus M 04/04;Schatztruhe Jens Hug;Markt;04109 Leipzig;28.11.23;23.12.23;Schatztruhe Jens Hug;10:00-21:00;;https://www.leipzig.de/freizeit-kultur-und-tourismus/veranstaltungen-und-termine/eventsingle/event/leipziger-weihnachtsmarkt-2023;;51.34057382225909;12.374526569154924;Schatztruhe Jens Hug;;1;10:00-21:00;10:00-21:00;10:00-21:00;10:00-21:00;10:00-22:00;10:00-22:00;10:00-21:00;0;;01.12.23=10:00-22:00,02.12.23=10:00-22:00,08.12.23=10:00-22:00,09.12.23=10:00-22:00,15.12.23=10:00-22:00,16.12.23=10:00-22:00,22.12.23=10:00-22:00;freitags und samstags bis 22 Uhr;0;;0;0;;;S1, S2, S3, S4, S5, S5X und S6 bis "Leipzig, Markt";72;1;Handel und Handwerk
727;Zentrum;Haus M 04/05;fairgourmet GmbH;Markt;04109 Leipzig;28.11.23;23.12.23;fairgourmet GmbH;10:00-21:00;;https://www.fairgourmet.de/;;51.34053924735193;12.374500402232771;fairgourmet GmbH;;1;10:00-21:00;10:00-21:00;10:00-21:00;10:00-21:00;10:00-22:00;10:00-22:00;10:00-21:00;0;;01.12.23=10:00-22:00,02.12.23=10:00-22:00,08.12.23=10:00-22:00,09.12.23=10:00-22:00,15.12.23=10:00-22:00,16.12.23=10:00-22:00,22.12.23=10:00-22:00;freitags und samstags bis 22 Uhr;0;;0;0;;;S1, S2, S3, S4, S5, S5X und S6 bis "Leipzig, Markt";72;1;Imbiss und Getränke
597;Zentrum;Haus M 04/06;Garten-Peter - Robert Both;Markt;04109 Leipzig;28.11.23;23.12.23;Garten-Peter - Robert Both;10:00-21:00;;https://www.garten-peter.de/;;51.34059657921817;12.374476451589521;Garten-Peter - Robert Both;;1;10:00-21:00;10:00-21:00;10:00-21:00;10:00-21:00;10:00-22:00;10:00-22:00;10:00-21:00;0;;01.12.23=10:00-22:00,02.12.23=10:00-22:00,08.12.23=10:00-22:00,09.12.23=10:00-22:00,15.12.23=10:00-22:00,16.12.23=10:00-22:00,22.12.23=10:00-22:00;freitags und samstags bis 22 Uhr;0;;0;0;;;S1, S2, S3, S4, S5, S5X und S6 bis "Leipzig, Markt";72;1;Handel und Handwerk
589;Zentrum;Haus M 04/07;Oberweisbacher Glaskunst - Home Styles;Markt;04109 Leipzig;28.11.23;23.12.23;Oberweisbacher Glaskunst - Home Styles;10:00-21:00;;https://oberweissbacher-glaskunst.de/;;51.340644697227376;12.37447179388889;Oberweisbacher Glaskunst - Home Styles;;1;10:00-21:00;10:00-21:00;10:00-21:00;10:00-21:00;10:00-22:00;10:00-22:00;10:00-21:00;0;;01.12.23=10:00-22:00,02.12.23=10:00-22:00,08.12.23=10:00-22:00,09.12.23=10:00-22:00,15.12.23=10:00-22:00,16.12.23=10:00-22:00,22.12.23=10:00-22:00;freitags und samstags bis 22 Uhr;0;;0;0;;;S1, S2, S3, S4, S5, S5X und S6 bis "Leipzig, Markt";72;1;Weihnachtliches
626;Zentrum;Haus M 04/08;Oliver Schrader;Markt;04109 Leipzig;28.11.23;23.12.23;Oliver Schrader;10:00-21:00;;https://www.leipzig.de/freizeit-kultur-und-tourismus/veranstaltungen-und-termine/eventsingle/event/leipziger-weihnachtsmarkt-2023;;51.34070911347738;12.374463172777512;Oliver Schrader;;1;10:00-21:00;10:00-21:00;10:00-21:00;10:00-21:00;10:00-22:00;10:00-22:00;10:00-21:00;0;;01.12.23=10:00-22:00,02.12.23=10:00-22:00,08.12.23=10:00-22:00,09.12.23=10:00-22:00,15.12.23=10:00-22:00,16.12.23=10:00-22:00,22.12.23=10:00-22:00;freitags und samstags bis 22 Uhr;0;;0;0;;;S1, S2, S3, S4, S5, S5X und S6 bis "Leipzig, Markt";72;1;Handel und Handwerk
729;Zentrum;Haus M 05/01;Gerlinde Huber GmbH;Markt;04109 Leipzig;28.11.23;23.12.23;Gerlinde Huber GmbH;10:00-21:00;;https://www.leipzig.de/freizeit-kultur-und-tourismus/veranstaltungen-und-termine/eventsingle/event/leipziger-weihnachtsmarkt-2023;;51.34083196841786;12.374757658157604;Gerlinde Huber GmbH;;1;10:00-21:00;10:00-21:00;10:00-21:00;10:00-21:00;10:00-22:00;10:00-22:00;10:00-21:00;0;;01.12.23=10:00-22:00,02.12.23=10:00-22:00,08.12.23=10:00-22:00,09.12.23=10:00-22:00,15.12.23=10:00-22:00,16.12.23=10:00-22:00,22.12.23=10:00-22:00;freitags und samstags bis 22 Uhr;0;;0;0;;;S1, S2, S3, S4, S5, S5X und S6 bis "Leipzig, Markt";72;1;Imbiss und Getränke
628;Zentrum;Haus M 05/02;Gerhard Bauer;Markt;04109 Leipzig;28.11.23;23.12.23;Gerhard Bauer;10:00-21:00;;https://www.leipzig.de/freizeit-kultur-und-tourismus/veranstaltungen-und-termine/eventsingle/event/leipziger-weihnachtsmarkt-2023;;51.34078486109334;12.374789596904353;Gerhard Bauer;;1;10:00-21:00;10:00-21:00;10:00-21:00;10:00-21:00;10:00-22:00;10:00-22:00;10:00-21:00;0;;01.12.23=10:00-22:00,02.12.23=10:00-22:00,08.12.23=10:00-22:00,09.12.23=10:00-22:00,15.12.23=10:00-22:00,16.12.23=10:00-22:00,22.12.23=10:00-22:00;freitags und samstags bis 22 Uhr;0;;0;0;;;S1, S2, S3, S4, S5, S5X und S6 bis "Leipzig, Markt";72;1;Handel und Handwerk
777;Zentrum;Haus M 05/03;Gewürz- und Teehandel - Franziska Schwarz;Markt;04109 Leipzig;28.11.23;23.12.23;Gewürz- und Teehandel - Franziska Schwarz;10:00-21:00;;http://www.gewuerzhandel-teehandel-leipzig.de;;51.34075361811541;12.37479050262425;Gewürz- und Teehandel - Franziska Schwarz;;1;10:00-21:00;10:00-21:00;10:00-21:00;10:00-21:00;10:00-22:00;10:00-22:00;10:00-21:00;0;;01.12.23=10:00-22:00,02.12.23=10:00-22:00,08.12.23=10:00-22:00,09.12.23=10:00-22:00,15.12.23=10:00-22:00,16.12.23=10:00-22:00,22.12.23=10:00-22:00;freitags und samstags bis 22 Uhr;0;;0;0;;;S1, S2, S3, S4, S5, S5X und S6 bis "Leipzig, Markt";72;1;Nahrung und Genuss
769;Zentrum;Haus M 05/04;Liebelei - Jürgen Lange;Markt;04109 Leipzig;28.11.23;23.12.23;Liebelei - Jürgen Lange;10:00-21:00;;https://www.leipzig.de/freizeit-kultur-und-tourismus/veranstaltungen-und-termine/eventsingle/event/leipziger-weihnachtsmarkt-2023;;51.34074405146322;12.374726566370208;Liebelei - Jürgen Lange;;1;10:00-21:00;10:00-21:00;10:00-21:00;10:00-21:00;10:00-22:00;10:00-22:00;10:00-21:00;0;;01.12.23=10:00-22:00,02.12.23=10:00-22:00,08.12.23=10:00-22:00,09.12.23=10:00-22:00,15.12.23=10:00-22:00,16.12.23=10:00-22:00,22.12.23=10:00-22:00;freitags und samstags bis 22 Uhr;0;;0;0;;;S1, S2, S3, S4, S5, S5X und S6 bis "Leipzig, Markt";72;1;Nahrung und Genuss
784;Zentrum;Haus M 05/05;Elsass Gastro;Markt;04109 Leipzig;28.11.23;23.12.23;Elsass Gastro;10:00-21:00;;https://www.leipzig.de/freizeit-kultur-und-tourismus/veranstaltungen-und-termine/eventsingle/event/leipziger-weihnachtsmarkt-2023;;51.340742274903576;12.374661403624982;Elsass Gastro;;1;10:00-21:00;10:00-21:00;10:00-21:00;10:00-21:00;10:00-22:00;10:00-22:00;10:00-21:00;0;;01.12.23=10:00-22:00,02.12.23=10:00-22:00,08.12.23=10:00-22:00,09.12.23=10:00-22:00,15.12.23=10:00-22:00,16.12.23=10:00-22:00,22.12.23=10:00-22:00;freitags und samstags bis 22 Uhr;0;;0;0;;;S1, S2, S3, S4, S5, S5X und S6 bis "Leipzig, Markt";72;1;Nahrung und Genuss
792;Zentrum;Haus M 05/06;O´donnell Moonshine GmbH;Markt;04109 Leipzig;28.11.23;23.12.23;O´donnell Moonshine GmbH;10:00-21:00;;https://odonnell.de/;;51.340739028741034;12.374601557646828;O´donnell Moonshine GmbH;;1;10:00-21:00;10:00-21:00;10:00-21:00;10:00-21:00;10:00-22:00;10:00-22:00;10:00-21:00;0;;01.12.23=10:00-22:00,02.12.23=10:00-22:00,08.12.23=10:00-22:00,09.12.23=10:00-22:00,15.12.23=10:00-22:00,16.12.23=10:00-22:00,22.12.23=10:00-22:00;freitags und samstags bis 22 Uhr;0;;0;0;;;S1, S2, S3, S4, S5, S5X und S6 bis "Leipzig, Markt";72;1;Nahrung und Genuss
667;Zentrum;Haus M 05/07;Carbon Clouds GmbH - Marko Dietz;Markt;04109 Leipzig;28.11.23;23.12.23;Carbon Clouds GmbH - Marko Dietz;10:00-21:00;;https://evergrate.de/;;51.340791643623284;12.374597294679745;Carbon Clouds GmbH - Marko Dietz;;1;10:00-21:00;10:00-21:00;10:00-21:00;10:00-21:00;10:00-22:00;10:00-22:00;10:00-21:00;0;;01.12.23=10:00-22:00,02.12.23=10:00-22:00,08.12.23=10:00-22:00,09.12.23=10:00-22:00,15.12.23=10:00-22:00,16.12.23=10:00-22:00,22.12.23=10:00-22:00;freitags und samstags bis 22 Uhr;0;;0;0;;;S1, S2, S3, S4, S5, S5X und S6 bis "Leipzig, Markt";72;1;Handel und Handwerk
771;Zentrum;Haus M 05/08;Gerd Bayer;Markt;04109 Leipzig;28.11.23;23.12.23;Gerd Bayer;10:00-21:00;;https://www.leipzig.de/freizeit-kultur-und-tourismus/veranstaltungen-und-termine/eventsingle/event/leipziger-weihnachtsmarkt-2023;;51.34083364410427;12.374621643245803;Gerd Bayer;;1;10:00-21:00;10:00-21:00;10:00-21:00;10:00-21:00;10:00-22:00;10:00-22:00;10:00-21:00;0;;01.12.23=10:00-22:00,02.12.23=10:00-22:00,08.12.23=10:00-22:00,09.12.23=10:00-22:00,15.12.23=10:00-22:00,16.12.23=10:00-22:00,22.12.23=10:00-22:00;freitags und samstags bis 22 Uhr;0;;0;0;;;S1, S2, S3, S4, S5, S5X und S6 bis "Leipzig, Markt";72;1;Imbiss und Getränke
803;Zentrum;Haus M 06/01;Brotgefühle GmbH;Markt;04109 Leipzig;28.11.23;23.12.23;Brotgefühle GmbH;10:00-21:00;;https://www.leipzig.de/freizeit-kultur-und-tourismus/veranstaltungen-und-termine/eventsingle/event/leipziger-weihnachtsmarkt-2023;;51.34069547230999;12.374752912298993;Brotgefühle GmbH;;1;10:00-21:00;10:00-21:00;10:00-21:00;10:00-21:00;10:00-22:00;10:00-22:00;10:00-21:00;0;;01.12.23=10:00-22:00,02.12.23=10:00-22:00,08.12.23=10:00-22:00,09.12.23=10:00-22:00,15.12.23=10:00-22:00,16.12.23=10:00-22:00,22.12.23=10:00-22:00;freitags und samstags bis 22 Uhr;0;;0;0;;;S1, S2, S3, S4, S5, S5X und S6 bis "Leipzig, Markt";72;1;Nahrung und Genuss
782;Zentrum;Haus M 06/02;Südtiroler Weinstand - WITO GmbH;Markt;04109 Leipzig;28.11.23;23.12.23;Südtiroler Weinstand - WITO GmbH;10:00-21:00;;https://www.leipzig.de/freizeit-kultur-und-tourismus/veranstaltungen-und-termine/eventsingle/event/leipziger-weihnachtsmarkt-2023;;51.34069624670033;12.374798674624264;Südtiroler Weinstand - WITO GmbH;;1;10:00-21:00;10:00-21:00;10:00-21:00;10:00-21:00;10:00-22:00;10:00-22:00;10:00-21:00;0;;01.12.23=10:00-22:00,02.12.23=10:00-22:00,08.12.23=10:00-22:00,09.12.23=10:00-22:00,15.12.23=10:00-22:00,16.12.23=10:00-22:00,22.12.23=10:00-22:00;freitags und samstags bis 22 Uhr;0;;0;0;;;S1, S2, S3, S4, S5, S5X und S6 bis "Leipzig, Markt";72;1;Nahrung und Genuss
627;Zentrum;Haus M 06/03;Mahlschatz Thüringer Schmuck - Karin Stiefel;Markt;04109 Leipzig;28.11.23;23.12.23;Mahlschatz Thüringer Schmuck - Karin Stiefel;10:00-21:00;;https://www.leipzig.de/freizeit-kultur-und-tourismus/veranstaltungen-und-termine/eventsingle/event/leipziger-weihnachtsmarkt-2023;;51.34064637123106;12.374801104952201;Mahlschatz Thüringer Schmuck - Karin Stiefel;;1;10:00-21:00;10:00-21:00;10:00-21:00;10:00-21:00;10:00-22:00;10:00-22:00;10:00-21:00;0;;01.12.23=10:00-22:00,02.12.23=10:00-22:00,08.12.23=10:00-22:00,09.12.23=10:00-22:00,15.12.23=10:00-22:00,16.12.23=10:00-22:00,22.12.23=10:00-22:00;freitags und samstags bis 22 Uhr;0;;0;0;;;S1, S2, S3, S4, S5, S5X und S6 bis "Leipzig, Markt";72;1;Handel und Handwerk
606;Zentrum;Haus M 06/04;Alexander Weiß;Markt;04109 Leipzig;28.11.23;23.12.23;Alexander Weiß;10:00-21:00;;https://www.leipzig.de/freizeit-kultur-und-tourismus/veranstaltungen-und-termine/eventsingle/event/leipziger-weihnachtsmarkt-2023;;51.34057236924371;12.374804096639023;Alexander Weiß;;1;10:00-21:00;10:00-21:00;10:00-21:00;10:00-21:00;10:00-22:00;10:00-22:00;10:00-21:00;0;;01.12.23=10:00-22:00,02.12.23=10:00-22:00,08.12.23=10:00-22:00,09.12.23=10:00-22:00,15.12.23=10:00-22:00,16.12.23=10:00-22:00,22.12.23=10:00-22:00;freitags und samstags bis 22 Uhr;0;;0;0;;;S1, S2, S3, S4, S5, S5X und S6 bis "Leipzig, Markt";72;1;Süßwaren
604;Zentrum;Haus M 06/05;Käthe Wohlfahrt KG;Markt;04109 Leipzig;28.11.23;23.12.23;Käthe Wohlfahrt KG;10:00-21:00;;https://www.kaethe-wohlfahrt.com/;;51.34056866856653;12.374715638303169;Käthe Wohlfahrt KG;;1;10:00-21:00;10:00-21:00;10:00-21:00;10:00-21:00;10:00-22:00;10:00-22:00;10:00-21:00;0;;01.12.23=10:00-22:00,02.12.23=10:00-22:00,08.12.23=10:00-22:00,09.12.23=10:00-22:00,15.12.23=10:00-22:00,16.12.23=10:00-22:00,22.12.23=10:00-22:00;freitags und samstags bis 22 Uhr;0;;0;0;;;S1, S2, S3, S4, S5, S5X und S6 bis "Leipzig, Markt";72;1;Weihnachtliches
778;Zentrum;Haus M 06/06;Heidrun Mittag;Markt;04109 Leipzig;28.11.23;23.12.23;Heidrun Mittag;10:00-21:00;;https://www.leipzig.de/freizeit-kultur-und-tourismus/veranstaltungen-und-termine/eventsingle/event/leipziger-weihnachtsmarkt-2023;;51.340537984411625;12.374629768667006;Heidrun Mittag;;1;10:00-21:00;10:00-21:00;10:00-21:00;10:00-21:00;10:00-22:00;10:00-22:00;10:00-21:00;0;;01.12.23=10:00-22:00,02.12.23=10:00-22:00,08.12.23=10:00-22:00,09.12.23=10:00-22:00,15.12.23=10:00-22:00,16.12.23=10:00-22:00,22.12.23=10:00-22:00;freitags und samstags bis 22 Uhr;0;;0;0;;;S1, S2, S3, S4, S5, S5X und S6 bis "Leipzig, Markt";72;1;Nahrung und Genuss
532;Zentrum;Haus M 06/07;Lederwaren Lochmann des Josef Lochmann & Co. KG;Markt;04109 Leipzig;28.11.23;23.12.23;Lederwaren Lochmann des Josef Lochmann & Co. KG;10:00-21:00;;https://www.leipzig.de/freizeit-kultur-und-tourismus/veranstaltungen-und-termine/eventsingle/event/leipziger-weihnachtsmarkt-2023;;51.34057998834476;12.374624593088509;Lederwaren Lochmann des Josef Lochmann & Co. KG;;1;10:00-21:00;10:00-21:00;10:00-21:00;10:00-21:00;10:00-22:00;10:00-22:00;10:00-21:00;0;;01.12.23=10:00-22:00,02.12.23=10:00-22:00,08.12.23=10:00-22:00,09.12.23=10:00-22:00,15.12.23=10:00-22:00,16.12.23=10:00-22:00,22.12.23=10:00-22:00;freitags und samstags bis 22 Uhr;0;;0;0;;;S1, S2, S3, S4, S5, S5X und S6 bis "Leipzig, Markt";72;1;Handel und Handwerk
688;Zentrum;Haus M 06/08;Alpidee KG;Markt;04109 Leipzig;28.11.23;23.12.23;Alpidee KG;10:00-21:00;;https://www.alpidee.com/;;51.34064105575564;12.374617138687853;Alpidee KG;;1;10:00-21:00;10:00-21:00;10:00-21:00;10:00-21:00;10:00-22:00;10:00-22:00;10:00-21:00;0;;01.12.23=10:00-22:00,02.12.23=10:00-22:00,08.12.23=10:00-22:00,09.12.23=10:00-22:00,15.12.23=10:00-22:00,16.12.23=10:00-22:00,22.12.23=10:00-22:00;freitags und samstags bis 22 Uhr;0;;0;0;;;S1, S2, S3, S4, S5, S5X und S6 bis "Leipzig, Markt";72;1;Handel und Handwerk
542;Zentrum;Haus M 06/09;Keramikwerkstatt Reglindis Schütze;Markt;04109 Leipzig;28.11.23;23.12.23;Keramikwerkstatt Reglindis Schütze;10:00-21:00;;https://www.leipzig.de/freizeit-kultur-und-tourismus/veranstaltungen-und-termine/eventsingle/event/leipziger-weihnachtsmarkt-2023;;51.34068213951615;12.374611458527403;Keramikwerkstatt Reglindis Schütze;;1;10:00-21:00;10:00-21:00;10:00-21:00;10:00-21:00;10:00-22:00;10:00-22:00;10:00-21:00;0;;01.12.23=10:00-22:00,02.12.23=10:00-22:00,08.12.23=10:00-22:00,09.12.23=10:00-22:00,15.12.23=10:00-22:00,16.12.23=10:00-22:00,22.12.23=10:00-22:00;freitags und samstags bis 22 Uhr;0;;0;0;;;S1, S2, S3, S4, S5, S5X und S6 bis "Leipzig, Markt";72;1;Handel und Handwerk
538;Zentrum;Haus M 06/10;Daniel Seidler;Markt;04109 Leipzig;28.11.23;23.12.23;Daniel Seidler;10:00-21:00;;https://www.leipzig.de/freizeit-kultur-und-tourismus/veranstaltungen-und-termine/eventsingle/event/leipziger-weihnachtsmarkt-2023;;51.340694150414556;12.374677001826003;Daniel Seidler;;1;10:00-21:00;10:00-21:00;10:00-21:00;10:00-21:00;10:00-22:00;10:00-22:00;10:00-21:00;0;;01.12.23=10:00-22:00,02.12.23=10:00-22:00,08.12.23=10:00-22:00,09.12.23=10:00-22:00,15.12.23=10:00-22:00,16.12.23=10:00-22:00,22.12.23=10:00-22:00;freitags und samstags bis 22 Uhr;0;;0;0;;;S1, S2, S3, S4, S5, S5X und S6 bis "Leipzig, Markt";72;1;Süßwaren
573;Zentrum;Haus M 07/01;Birgit Schweizer;Markt;04109 Leipzig;28.11.23;23.12.23;Birgit Schweizer;10:00-21:00;;https://www.leipzig.de/freizeit-kultur-und-tourismus/veranstaltungen-und-termine/eventsingle/event/leipziger-weihnachtsmarkt-2023;;51.34082188439211;12.375033350371083;Birgit Schweizer;;1;10:00-21:00;10:00-21:00;10:00-21:00;10:00-21:00;10:00-22:00;10:00-22:00;10:00-21:00;0;;01.12.23=10:00-22:00,02.12.23=10:00-22:00,08.12.23=10:00-22:00,09.12.23=10:00-22:00,15.12.23=10:00-22:00,16.12.23=10:00-22:00,22.12.23=10:00-22:00;freitags und samstags bis 22 Uhr;0;;0;0;;;S1, S2, S3, S4, S5, S5X und S6 bis "Leipzig, Markt";72;1;Süßwaren
712;Zentrum;Haus M 07/02;Georg Schweizer & Sohn;Markt;04109 Leipzig;28.11.23;23.12.23;Georg Schweizer & Sohn;10:00-21:00;;https://langos-schorsch.de/;;51.340789506552504;12.374965499622329;Georg Schweizer & Sohn;;1;10:00-21:00;10:00-21:00;10:00-21:00;10:00-21:00;10:00-22:00;10:00-22:00;10:00-21:00;0;;01.12.23=10:00-22:00,02.12.23=10:00-22:00,08.12.23=10:00-22:00,09.12.23=10:00-22:00,15.12.23=10:00-22:00,16.12.23=10:00-22:00,22.12.23=10:00-22:00;freitags und samstags bis 22 Uhr;0;;0;0;;;S1, S2, S3, S4, S5, S5X und S6 bis "Leipzig, Markt";72;1;Imbiss und Getränke
708;Zentrum;Haus M 07/03;Andria Pastore GmbH;Markt;04109 Leipzig;28.11.23;23.12.23;Andria Pastore GmbH;10:00-21:00;;http://www.andria-leipzig.de;;51.34072586380158;12.374933626329751;Andria Pastore GmbH;;1;10:00-21:00;10:00-21:00;10:00-21:00;10:00-21:00;10:00-22:00;10:00-22:00;10:00-21:00;0;;01.12.23=10:00-22:00,02.12.23=10:00-22:00,08.12.23=10:00-22:00,09.12.23=10:00-22:00,15.12.23=10:00-22:00,16.12.23=10:00-22:00,22.12.23=10:00-22:00;freitags und samstags bis 22 Uhr;0;;0;0;;;S1, S2, S3, S4, S5, S5X und S6 bis "Leipzig, Markt";72;1;Imbiss und Getränke
709;Zentrum;Haus M 07/04;Lothar Schneider;Markt;04109 Leipzig;28.11.23;23.12.23;Lothar Schneider;10:00-21:00;;https://www.leipzig.de/freizeit-kultur-und-tourismus/veranstaltungen-und-termine/eventsingle/event/leipziger-weihnachtsmarkt-2023;;51.340618431917356;12.37502099346763;Lothar Schneider;;1;10:00-21:00;10:00-21:00;10:00-21:00;10:00-21:00;10:00-22:00;10:00-22:00;10:00-21:00;0;;01.12.23=10:00-22:00,02.12.23=10:00-22:00,08.12.23=10:00-22:00,09.12.23=10:00-22:00,15.12.23=10:00-22:00,16.12.23=10:00-22:00,22.12.23=10:00-22:00;freitags und samstags bis 22 Uhr;0;;0;0;;;S1, S2, S3, S4, S5, S5X und S6 bis "Leipzig, Markt";72;1;Imbiss und Getränke
530;Zentrum;Haus M 07/05;Käthe Wohlfahrt KG;Markt;04109 Leipzig;28.11.23;23.12.23;Käthe Wohlfahrt KG;10:00-21:00;;https://www.kaethe-wohlfahrt.com/;;51.34057598809697;12.374992713850608;Käthe Wohlfahrt KG;;1;10:00-21:00;10:00-21:00;10:00-21:00;10:00-21:00;10:00-22:00;10:00-22:00;10:00-21:00;0;;01.12.23=10:00-22:00,02.12.23=10:00-22:00,08.12.23=10:00-22:00,09.12.23=10:00-22:00,15.12.23=10:00-22:00,16.12.23=10:00-22:00,22.12.23=10:00-22:00;freitags und samstags bis 22 Uhr;0;;0;0;;;S1, S2, S3, S4, S5, S5X und S6 bis "Leipzig, Markt";72;1;Imbiss und Getränke
710;Zentrum;Haus M 07/06;L.E. gendaire Crepes - Daniel Seiferth;Markt;04109 Leipzig;28.11.23;23.12.23;L.E. gendaire Crepes - Daniel Seiferth;10:00-21:00;;https://www.leipzig.de/freizeit-kultur-und-tourismus/veranstaltungen-und-termine/eventsingle/event/leipziger-weihnachtsmarkt-2023;;51.34065456950119;12.374895047432474;L.E. gendaire Crepes - Daniel Seiferth;;1;10:00-21:00;10:00-21:00;10:00-21:00;10:00-21:00;10:00-22:00;10:00-22:00;10:00-21:00;0;;01.12.23=10:00-22:00,02.12.23=10:00-22:00,08.12.23=10:00-22:00,09.12.23=10:00-22:00,15.12.23=10:00-22:00,16.12.23=10:00-22:00,22.12.23=10:00-22:00;freitags und samstags bis 22 Uhr;0;;0;0;;;S1, S2, S3, S4, S5, S5X und S6 bis "Leipzig, Markt";72;1;Imbiss und Getränke
594;Zentrum;Haus M 07/07;Blaull Seifenmanufaktur;Markt;04109 Leipzig;28.11.23;23.12.23;Blaull Seifenmanufaktur;10:00-21:00;;https://www.blaull.de/;;51.34069278289124;12.374886462168616;Blaull Seifenmanufaktur;;1;10:00-21:00;10:00-21:00;10:00-21:00;10:00-21:00;10:00-22:00;10:00-22:00;10:00-21:00;0;;01.12.23=10:00-22:00,02.12.23=10:00-22:00,08.12.23=10:00-22:00,09.12.23=10:00-22:00,15.12.23=10:00-22:00,16.12.23=10:00-22:00,22.12.23=10:00-22:00;freitags und samstags bis 22 Uhr;0;;0;0;;;S1, S2, S3, S4, S5, S5X und S6 bis "Leipzig, Markt";72;1;Handel und Handwerk
772;Zentrum;Haus M 07/08;Timo Mittag;Markt;04109 Leipzig;28.11.23;23.12.23;Timo Mittag;10:00-21:00;;https://www.leipzig.de/freizeit-kultur-und-tourismus/veranstaltungen-und-termine/eventsingle/event/leipziger-weihnachtsmarkt-2023;;51.340728043181386;12.37488421829499;Timo Mittag;;1;10:00-21:00;10:00-21:00;10:00-21:00;10:00-21:00;10:00-22:00;10:00-22:00;10:00-21:00;0;;01.12.23=10:00-22:00,02.12.23=10:00-22:00,08.12.23=10:00-22:00,09.12.23=10:00-22:00,15.12.23=10:00-22:00,16.12.23=10:00-22:00,22.12.23=10:00-22:00;freitags und samstags bis 22 Uhr;0;;0;0;;;S1, S2, S3, S4, S5, S5X und S6 bis "Leipzig, Markt";72;1;Nahrung und Genuss
632;Zentrum;Haus M 07/09;Karl Louis Lehmann GmbH;Markt;04109 Leipzig;28.11.23;23.12.23;Karl Louis Lehmann GmbH;10:00-21:00;;https://www.toepferei-lehmann.de/;;51.34076591104688;12.374880298904015;Karl Louis Lehmann GmbH;;1;10:00-21:00;10:00-21:00;10:00-21:00;10:00-21:00;10:00-22:00;10:00-22:00;10:00-21:00;0;;01.12.23=10:00-22:00,02.12.23=10:00-22:00,08.12.23=10:00-22:00,09.12.23=10:00-22:00,15.12.23=10:00-22:00,16.12.23=10:00-22:00,22.12.23=10:00-22:00;freitags und samstags bis 22 Uhr;0;;0;0;;;S1, S2, S3, S4, S5, S5X und S6 bis "Leipzig, Markt";72;1;Handel und Handwerk
689;Zentrum;Haus M 07/10;Markthandel Frank Merkwirth;Markt;04109 Leipzig;28.11.23;23.12.23;Markthandel Frank Merkwirth;10:00-21:00;;https://www.leipzig.de/freizeit-kultur-und-tourismus/veranstaltungen-und-termine/eventsingle/event/leipziger-weihnachtsmarkt-2023;;51.34080419285906;12.374878916216478;Markthandel Frank Merkwirth;;1;10:00-21:00;10:00-21:00;10:00-21:00;10:00-21:00;10:00-22:00;10:00-22:00;10:00-21:00;0;;01.12.23=10:00-22:00,02.12.23=10:00-22:00,08.12.23=10:00-22:00,09.12.23=10:00-22:00,15.12.23=10:00-22:00,16.12.23=10:00-22:00,22.12.23=10:00-22:00;freitags und samstags bis 22 Uhr;0;;0;0;;;S1, S2, S3, S4, S5, S5X und S6 bis "Leipzig, Markt";72;1;Handel und Handwerk
529;Zentrum;Haus M 07/11;Karl-Heinz Hartnagel;Markt;04109 Leipzig;28.11.23;23.12.23;Karl-Heinz Hartnagel;10:00-21:00;;https://www.leipzig.de/freizeit-kultur-und-tourismus/veranstaltungen-und-termine/eventsingle/event/leipziger-weihnachtsmarkt-2023;;51.34084019431284;12.374953255030512;Karl-Heinz Hartnagel;;1;10:00-21:00;10:00-21:00;10:00-21:00;10:00-21:00;10:00-22:00;10:00-22:00;10:00-21:00;0;;01.12.23=10:00-22:00,02.12.23=10:00-22:00,08.12.23=10:00-22:00,09.12.23=10:00-22:00,15.12.23=10:00-22:00,16.12.23=10:00-22:00,22.12.23=10:00-22:00;freitags und samstags bis 22 Uhr;0;;0;0;;;S1, S2, S3, S4, S5, S5X und S6 bis "Leipzig, Markt";72;1;Imbiss und Getränke
652;Zentrum;Haus M 08/01;Tortissimo GmbH;Markt;04109 Leipzig;28.11.23;23.12.23;Tortissimo GmbH;10:00-21:00;;https://www.tortissimo.de/de;;51.34038671659093;12.374412322064998;Tortissimo GmbH;;1;10:00-21:00;10:00-21:00;10:00-21:00;10:00-21:00;10:00-22:00;10:00-22:00;10:00-21:00;0;;01.12.23=10:00-22:00,02.12.23=10:00-22:00,08.12.23=10:00-22:00,09.12.23=10:00-22:00,15.12.23=10:00-22:00,16.12.23=10:00-22:00,22.12.23=10:00-22:00;freitags und samstags bis 22 Uhr;0;;0;0;;;S1, S2, S3, S4, S5, S5X und S6 bis "Leipzig, Markt";72;1;Handel und Handwerk
643;Zentrum;Haus M 08/02;PLS Events GmbH & Co. KG;Markt;04109 Leipzig;28.11.23;23.12.23;PLS Events GmbH & Co. KG;10:00-21:00;;https://www.pls-events.com/;;51.34034607762964;12.374416580441597;PLS Events GmbH & Co. KG;;1;10:00-21:00;10:00-21:00;10:00-21:00;10:00-21:00;10:00-22:00;10:00-22:00;10:00-21:00;0;;01.12.23=10:00-22:00,02.12.23=10:00-22:00,08.12.23=10:00-22:00,09.12.23=10:00-22:00,15.12.23=10:00-22:00,16.12.23=10:00-22:00,22.12.23=10:00-22:00;freitags und samstags bis 22 Uhr;0;;0;0;;;S1, S2, S3, S4, S5, S5X und S6 bis "Leipzig, Markt";72;1;Handel und Handwerk
646;Zentrum;Haus M 08/03;Seyko Geschenke;Markt;04109 Leipzig;28.11.23;23.12.23;Seyko Geschenke;10:00-21:00;;https://www.seyko-geschenke.de/;;51.34025342346002;12.37442399850041;Seyko Geschenke;;1;10:00-21:00;10:00-21:00;10:00-21:00;10:00-21:00;10:00-22:00;10:00-22:00;10:00-21:00;0;;01.12.23=10:00-22:00,02.12.23=10:00-22:00,08.12.23=10:00-22:00,09.12.23=10:00-22:00,15.12.23=10:00-22:00,16.12.23=10:00-22:00,22.12.23=10:00-22:00;freitags und samstags bis 22 Uhr;0;;0;0;;;S1, S2, S3, S4, S5, S5X und S6 bis "Leipzig, Markt";72;1;Handel und Handwerk
785;Zentrum;Haus M 08/04;Eis Müller - J.&J. Müller;Markt;04109 Leipzig;28.11.23;23.12.23;Eis Müller - J.&J. Müller;10:00-21:00;;http://www.eis-mueller.com;;51.3401721791227;12.374434173254027;Eis Müller - J.&J. Müller;;1;10:00-21:00;10:00-21:00;10:00-21:00;10:00-21:00;10:00-22:00;10:00-22:00;10:00-21:00;0;;01.12.23=10:00-22:00,02.12.23=10:00-22:00,08.12.23=10:00-22:00,09.12.23=10:00-22:00,15.12.23=10:00-22:00,16.12.23=10:00-22:00,22.12.23=10:00-22:00;freitags und samstags bis 22 Uhr;0;;0;0;;;S1, S2, S3, S4, S5, S5X und S6 bis "Leipzig, Markt";72;1;Nahrung und Genuss
640;Zentrum;Haus M 08/05;Perlkönig GmbH;Markt;04109 Leipzig;28.11.23;23.12.23;Perlkönig GmbH;10:00-21:00;;https://www.perlkoenig.de/;;51.34009513949809;12.374441490568351;Perlkönig GmbH;;1;10:00-21:00;10:00-21:00;10:00-21:00;10:00-21:00;10:00-22:00;10:00-22:00;10:00-21:00;0;;01.12.23=10:00-22:00,02.12.23=10:00-22:00,08.12.23=10:00-22:00,09.12.23=10:00-22:00,15.12.23=10:00-22:00,16.12.23=10:00-22:00,22.12.23=10:00-22:00;freitags und samstags bis 22 Uhr;0;;0;0;;;S1, S2, S3, S4, S5, S5X und S6 bis "Leipzig, Markt";72;1;Handel und Handwerk
534;Zentrum;Haus M 08/06;Käthe Wohlfahrt KG;Markt;04109 Leipzig;28.11.23;23.12.23;Käthe Wohlfahrt KG;10:00-21:00;;https://www.kaethe-wohlfahrt.com/;;51.34001832091555;12.374426712872314;Käthe Wohlfahrt KG;;1;10:00-21:00;10:00-21:00;10:00-21:00;10:00-21:00;10:00-22:00;10:00-22:00;10:00-21:00;0;;01.12.23=10:00-22:00,02.12.23=10:00-22:00,08.12.23=10:00-22:00,09.12.23=10:00-22:00,15.12.23=10:00-22:00,16.12.23=10:00-22:00,22.12.23=10:00-22:00;freitags und samstags bis 22 Uhr;0;;0;0;;;S1, S2, S3, S4, S5, S5X und S6 bis "Leipzig, Markt";72;1;Imbiss und Getränke
790;Zentrum;Haus M 08/07;Dudel Gewürze und Kräuter;Markt;04109 Leipzig;28.11.23;23.12.23;Dudel Gewürze und Kräuter;10:00-21:00;;https://dudel.de/;;51.34009110015668;12.374394737252628;Dudel Gewürze und Kräuter;;1;10:00-21:00;10:00-21:00;10:00-21:00;10:00-21:00;10:00-22:00;10:00-22:00;10:00-21:00;0;;01.12.23=10:00-22:00,02.12.23=10:00-22:00,08.12.23=10:00-22:00,09.12.23=10:00-22:00,15.12.23=10:00-22:00,16.12.23=10:00-22:00,22.12.23=10:00-22:00;freitags und samstags bis 22 Uhr;0;;0;0;;;S1, S2, S3, S4, S5, S5X und S6 bis "Leipzig, Markt";72;1;Nahrung und Genuss
552;Zentrum;Haus M 08/08;Starker Alpakas - Angelika Starker;Markt;04109 Leipzig;28.11.23;23.12.23;Starker Alpakas - Angelika Starker;10:00-21:00;;https://www.starkeralpakas.de/;;51.34015533945445;12.37438831869158;Starker Alpakas - Angelika Starker;;1;10:00-21:00;10:00-21:00;10:00-21:00;10:00-21:00;10:00-22:00;10:00-22:00;10:00-21:00;0;;01.12.23=10:00-22:00,02.12.23=10:00-22:00,08.12.23=10:00-22:00,09.12.23=10:00-22:00,15.12.23=10:00-22:00,16.12.23=10:00-22:00,22.12.23=10:00-22:00;freitags und samstags bis 22 Uhr;0;;0;0;;;S1, S2, S3, S4, S5, S5X und S6 bis "Leipzig, Markt";72;1;Bekleidung und Textil
796;Zentrum;Haus M 08/09;Kenya-Shop;Markt;04109 Leipzig;28.11.23;23.12.23;Kenya-Shop;10:00-21:00;;https://www.leipzig.de/freizeit-kultur-und-tourismus/veranstaltungen-und-termine/eventsingle/event/leipziger-weihnachtsmarkt-2023;;51.34019533049047;12.374384468919613;Kenya-Shop;;1;10:00-21:00;10:00-21:00;10:00-21:00;10:00-21:00;10:00-22:00;10:00-22:00;10:00-21:00;0;;01.12.23=10:00-22:00,02.12.23=10:00-22:00,08.12.23=10:00-22:00,09.12.23=10:00-22:00,15.12.23=10:00-22:00,16.12.23=10:00-22:00,22.12.23=10:00-22:00;freitags und samstags bis 22 Uhr;0;;0;0;;;S1, S2, S3, S4, S5, S5X und S6 bis "Leipzig, Markt";72;1;Handel und Handwerk
764;Zentrum;Haus M 08/10;Crêpes Seifert;Markt;04109 Leipzig;28.11.23;23.12.23;Crêpes Seifert;10:00-21:00;;https://www.leipzig.de/freizeit-kultur-und-tourismus/veranstaltungen-und-termine/eventsingle/event/leipziger-weihnachtsmarkt-2023;;51.3402590289654;12.374376827955595;Crêpes Seifert;;1;10:00-21:00;10:00-21:00;10:00-21:00;10:00-21:00;10:00-22:00;10:00-22:00;10:00-21:00;0;;01.12.23=10:00-22:00,02.12.23=10:00-22:00,08.12.23=10:00-22:00,09.12.23=10:00-22:00,15.12.23=10:00-22:00,16.12.23=10:00-22:00,22.12.23=10:00-22:00;freitags und samstags bis 22 Uhr;0;;0;0;;;S1, S2, S3, S4, S5, S5X und S6 bis "Leipzig, Markt";72;1;Imbiss und Getränke
742;Zentrum;Haus M 08/11;Old Tablers 203 Leipzig;Markt;04109 Leipzig;28.11.23;23.12.23;Old Tablers 203 Leipzig;10:00-21:00;;https://www.leipzig.de/freizeit-kultur-und-tourismus/veranstaltungen-und-termine/eventsingle/event/leipziger-weihnachtsmarkt-2023;;51.34031292188436;12.374372113470281;Old Tablers 203 Leipzig;;1;10:00-21:00;10:00-21:00;10:00-21:00;10:00-21:00;10:00-22:00;10:00-22:00;10:00-21:00;0;;01.12.23=10:00-22:00,02.12.23=10:00-22:00,08.12.23=10:00-22:00,09.12.23=10:00-22:00,15.12.23=10:00-22:00,16.12.23=10:00-22:00,22.12.23=10:00-22:00;freitags und samstags bis 22 Uhr;0;;0;0;;;S1, S2, S3, S4, S5, S5X und S6 bis "Leipzig, Markt";72;1;Imbiss und Getränke
798;Zentrum;Haus M 08/12;Franz Wild GbR;Markt;04109 Leipzig;28.11.23;23.12.23;Franz Wild GbR;10:00-21:00;;https://www.leipzig.de/freizeit-kultur-und-tourismus/veranstaltungen-und-termine/eventsingle/event/leipziger-weihnachtsmarkt-2023;;51.34037143583821;12.37437002084786;Franz Wild GbR;;1;10:00-21:00;10:00-21:00;10:00-21:00;10:00-21:00;10:00-22:00;10:00-22:00;10:00-21:00;0;;01.12.23=10:00-22:00,02.12.23=10:00-22:00,08.12.23=10:00-22:00,09.12.23=10:00-22:00,15.12.23=10:00-22:00,16.12.23=10:00-22:00,22.12.23=10:00-22:00;freitags und samstags bis 22 Uhr;0;;0;0;;;S1, S2, S3, S4, S5, S5X und S6 bis "Leipzig, Markt";72;1;Nahrung und Genuss
531;Zentrum;Haus M 09/01;Käthe Wohlfahrt KG;Markt;04109 Leipzig;28.11.23;23.12.23;Käthe Wohlfahrt KG;10:00-21:00;;https://www.kaethe-wohlfahrt.com/;;51.34037665350745;12.3745228796958;Käthe Wohlfahrt KG;;1;10:00-21:00;10:00-21:00;10:00-21:00;10:00-21:00;10:00-22:00;10:00-22:00;10:00-21:00;0;;01.12.23=10:00-22:00,02.12.23=10:00-22:00,08.12.23=10:00-22:00,09.12.23=10:00-22:00,15.12.23=10:00-22:00,16.12.23=10:00-22:00,22.12.23=10:00-22:00;freitags und samstags bis 22 Uhr;0;;0;0;;;S1, S2, S3, S4, S5, S5X und S6 bis "Leipzig, Markt";72;1;Imbiss und Getränke
549;Zentrum;Haus M 09/02;Der Lindwurm HGmbH;Markt;04109 Leipzig;28.11.23;23.12.23;Der Lindwurm HGmbH;10:00-21:00;;https://www.derlindwurm.com/;;51.340318209673185;12.374553915126357;Der Lindwurm HGmbH;;1;10:00-21:00;10:00-21:00;10:00-21:00;10:00-21:00;10:00-22:00;10:00-22:00;10:00-21:00;0;;01.12.23=10:00-22:00,02.12.23=10:00-22:00,08.12.23=10:00-22:00,09.12.23=10:00-22:00,15.12.23=10:00-22:00,16.12.23=10:00-22:00,22.12.23=10:00-22:00;freitags und samstags bis 22 Uhr;0;;0;0;;;S1, S2, S3, S4, S5, S5X und S6 bis "Leipzig, Markt";72;1;Handel und Handwerk
596;Zentrum;Haus M 09/03;Angelika Belger;Markt;04109 Leipzig;28.11.23;23.12.23;Angelika Belger;10:00-21:00;;https://www.leipzig.de/freizeit-kultur-und-tourismus/veranstaltungen-und-termine/eventsingle/event/leipziger-weihnachtsmarkt-2023;;51.340253298898844;12.37456272368099;Angelika Belger;;1;10:00-21:00;10:00-21:00;10:00-21:00;10:00-21:00;10:00-22:00;10:00-22:00;10:00-21:00;0;;01.12.23=10:00-22:00,02.12.23=10:00-22:00,08.12.23=10:00-22:00,09.12.23=10:00-22:00,15.12.23=10:00-22:00,16.12.23=10:00-22:00,22.12.23=10:00-22:00;freitags und samstags bis 22 Uhr;0;;0;0;;;S1, S2, S3, S4, S5, S5X und S6 bis "Leipzig, Markt";72;1;Bekleidung und Textil
802;Zentrum;Haus M 09/04;Käthe Wohlfahrt KG;Markt;04109 Leipzig;28.11.23;23.12.23;Käthe Wohlfahrt KG;10:00-21:00;;https://www.kaethe-wohlfahrt.com/;;51.34019852208083;12.374548830273831;Käthe Wohlfahrt KG;;1;10:00-21:00;10:00-21:00;10:00-21:00;10:00-21:00;10:00-22:00;10:00-22:00;10:00-21:00;0;;01.12.23=10:00-22:00,02.12.23=10:00-22:00,08.12.23=10:00-22:00,09.12.23=10:00-22:00,15.12.23=10:00-22:00,16.12.23=10:00-22:00,22.12.23=10:00-22:00;freitags und samstags bis 22 Uhr;0;;0;0;;;S1, S2, S3, S4, S5, S5X und S6 bis "Leipzig, Markt";72;1;Weihnachtliches
575;Zentrum;Haus M 09/05;Raebel OHG;Markt;04109 Leipzig;28.11.23;23.12.23;Raebel OHG;10:00-21:00;;https://www.raebel.de/;;51.34025978411117;12.374514314896993;Raebel OHG;;1;10:00-21:00;10:00-21:00;10:00-21:00;10:00-21:00;10:00-22:00;10:00-22:00;10:00-21:00;0;;01.12.23=10:00-22:00,02.12.23=10:00-22:00,08.12.23=10:00-22:00,09.12.23=10:00-22:00,15.12.23=10:00-22:00,16.12.23=10:00-22:00,22.12.23=10:00-22:00;freitags und samstags bis 22 Uhr;0;;0;0;;;S1, S2, S3, S4, S5, S5X und S6 bis "Leipzig, Markt";72;1;Bekleidung und Textil
800;Zentrum;Haus M 09/06;Isabel Liebs;Markt;04109 Leipzig;28.11.23;23.12.23;Isabel Liebs;10:00-21:00;;https://www.leipzig.de/freizeit-kultur-und-tourismus/veranstaltungen-und-termine/eventsingle/event/leipziger-weihnachtsmarkt-2023;;51.34031440949236;12.374509692494913;Isabel Liebs;;1;10:00-21:00;10:00-21:00;10:00-21:00;10:00-21:00;10:00-22:00;10:00-22:00;10:00-21:00;0;;01.12.23=10:00-22:00,02.12.23=10:00-22:00,08.12.23=10:00-22:00,09.12.23=10:00-22:00,15.12.23=10:00-22:00,16.12.23=10:00-22:00,22.12.23=10:00-22:00;freitags und samstags bis 22 Uhr;0;;0;0;;;S1, S2, S3, S4, S5, S5X und S6 bis "Leipzig, Markt";72;1;Handel und Handwerk
561;Zentrum;Haus M 10/01;Herrnhuter Sterne GmbH;Markt;04109 Leipzig;28.11.23;23.12.23;Herrnhuter Sterne GmbH;10:00-21:00;;https://www.herrnhuter-sterne.de/de/;;51.34034063318796;12.374757990882065;Herrnhuter Sterne GmbH;;1;10:00-21:00;10:00-21:00;10:00-21:00;10:00-21:00;10:00-22:00;10:00-22:00;10:00-21:00;0;;01.12.23=10:00-22:00,02.12.23=10:00-22:00,08.12.23=10:00-22:00,09.12.23=10:00-22:00,15.12.23=10:00-22:00,16.12.23=10:00-22:00,22.12.23=10:00-22:00;freitags und samstags bis 22 Uhr;0;;0;0;;;S1, S2, S3, S4, S5, S5X und S6 bis "Leipzig, Markt";72;1;Weihnachtliches
797;Zentrum;Haus M 10/02;ZIP-ME;Markt;04109 Leipzig;28.11.23;23.12.23;ZIP-ME;10:00-21:00;;https://www.leipzig.de/freizeit-kultur-und-tourismus/veranstaltungen-und-termine/eventsingle/event/leipziger-weihnachtsmarkt-2023;;51.340299490043236;12.37476338993218;ZIP-ME;;1;10:00-21:00;10:00-21:00;10:00-21:00;10:00-21:00;10:00-22:00;10:00-22:00;10:00-21:00;0;;01.12.23=10:00-22:00,02.12.23=10:00-22:00,08.12.23=10:00-22:00,09.12.23=10:00-22:00,15.12.23=10:00-22:00,16.12.23=10:00-22:00,22.12.23=10:00-22:00;freitags und samstags bis 22 Uhr;0;;0;0;;;S1, S2, S3, S4, S5, S5X und S6 bis "Leipzig, Markt";72;1;Handel und Handwerk
672;Zentrum;Haus M 10/03;TON Galeria - Olena Herold;Markt;04109 Leipzig;28.11.23;23.12.23;TON Galeria - Olena Herold;10:00-21:00;;https://www.leipzig.de/freizeit-kultur-und-tourismus/veranstaltungen-und-termine/eventsingle/event/leipziger-weihnachtsmarkt-2023;;51.34026480531973;12.374768121461418;TON Galeria - Olena Herold;;1;10:00-21:00;10:00-21:00;10:00-21:00;10:00-21:00;10:00-22:00;10:00-22:00;10:00-21:00;0;;01.12.23=10:00-22:00,02.12.23=10:00-22:00,08.12.23=10:00-22:00,09.12.23=10:00-22:00,15.12.23=10:00-22:00,16.12.23=10:00-22:00,22.12.23=10:00-22:00;freitags und samstags bis 22 Uhr;0;;0;0;;;S1, S2, S3, S4, S5, S5X und S6 bis "Leipzig, Markt";72;1;Handel und Handwerk
510;Zentrum;Haus M 10/04;Crepes Keller - Joachim Keller;Markt;04109 Leipzig;28.11.23;23.12.23;Crepes Keller - Joachim Keller;10:00-21:00;;https://www.leipzig.de/freizeit-kultur-und-tourismus/veranstaltungen-und-termine/eventsingle/event/leipziger-weihnachtsmarkt-2023;;51.34023045269669;12.374771519115148;Crepes Keller - Joachim Keller;;1;10:00-21:00;10:00-21:00;10:00-21:00;10:00-21:00;10:00-22:00;10:00-22:00;10:00-21:00;0;;01.12.23=10:00-22:00,02.12.23=10:00-22:00,08.12.23=10:00-22:00,09.12.23=10:00-22:00,15.12.23=10:00-22:00,16.12.23=10:00-22:00,22.12.23=10:00-22:00;freitags und samstags bis 22 Uhr;0;;0;0;;;S1, S2, S3, S4, S5, S5X und S6 bis "Leipzig, Markt";72;1;Imbiss und Getränke
543;Zentrum;Haus M 10/05;Zoo Leipzig GmbH;Markt;04109 Leipzig;28.11.23;23.12.23;Zoo Leipzig GmbH;10:00-21:00;;https://www.zoo-leipzig.de/;;51.340201262738546;12.374743387216306;Zoo Leipzig GmbH;;1;10:00-21:00;10:00-21:00;10:00-21:00;10:00-21:00;10:00-22:00;10:00-22:00;10:00-21:00;0;;01.12.23=10:00-22:00,02.12.23=10:00-22:00,08.12.23=10:00-22:00,09.12.23=10:00-22:00,15.12.23=10:00-22:00,16.12.23=10:00-22:00,22.12.23=10:00-22:00;freitags und samstags bis 22 Uhr;0;;0;0;;;S1, S2, S3, S4, S5, S5X und S6 bis "Leipzig, Markt";72;1;Handel und Handwerk
648;Zentrum;Haus M 10/06;Der bunte Planet der Perlsacktiere - Falk Prüfer;Markt;04109 Leipzig;28.11.23;23.12.23;Der bunte Planet der Perlsacktiere - Falk Prüfer;10:00-21:00;;https://perlsacktiere.de/;;51.34019993281673;12.374672713574038;Der bunte Planet der Perlsacktiere - Falk Prüfer;;1;10:00-21:00;10:00-21:00;10:00-21:00;10:00-21:00;10:00-22:00;10:00-22:00;10:00-21:00;0;;01.12.23=10:00-22:00,02.12.23=10:00-22:00,08.12.23=10:00-22:00,09.12.23=10:00-22:00,15.12.23=10:00-22:00,16.12.23=10:00-22:00,22.12.23=10:00-22:00;freitags und samstags bis 22 Uhr;0;;0;0;;;S1, S2, S3, S4, S5, S5X und S6 bis "Leipzig, Markt";72;1;Handel und Handwerk
520;Zentrum;Haus M 10/07;Nick Liebold;Markt;04109 Leipzig;28.11.23;23.12.23;Nick Liebold;10:00-21:00;;https://www.leipzig.de/freizeit-kultur-und-tourismus/veranstaltungen-und-termine/eventsingle/event/leipziger-weihnachtsmarkt-2023;;51.34024617492581;12.374648235399626;Nick Liebold;;1;10:00-21:00;10:00-21:00;10:00-21:00;10:00-21:00;10:00-22:00;10:00-22:00;10:00-21:00;0;;01.12.23=10:00-22:00,02.12.23=10:00-22:00,08.12.23=10:00-22:00,09.12.23=10:00-22:00,15.12.23=10:00-22:00,16.12.23=10:00-22:00,22.12.23=10:00-22:00;freitags und samstags bis 22 Uhr;0;;0;0;;;S1, S2, S3, S4, S5, S5X und S6 bis "Leipzig, Markt";72;1;Süßwaren
799;Zentrum;Haus M 10/08;n.h.lifestyle;Markt;04109 Leipzig;28.11.23;23.12.23;n.h.lifestyle;10:00-21:00;;https://www.leipzig.de/freizeit-kultur-und-tourismus/veranstaltungen-und-termine/eventsingle/event/leipziger-weihnachtsmarkt-2023;;51.34028799196308;12.374643228526457;n.h.lifestyle;;1;10:00-21:00;10:00-21:00;10:00-21:00;10:00-21:00;10:00-22:00;10:00-22:00;10:00-21:00;0;;01.12.23=10:00-22:00,02.12.23=10:00-22:00,08.12.23=10:00-22:00,09.12.23=10:00-22:00,15.12.23=10:00-22:00,16.12.23=10:00-22:00,22.12.23=10:00-22:00;freitags und samstags bis 22 Uhr;0;;0;0;;;S1, S2, S3, S4, S5, S5X und S6 bis "Leipzig, Markt";72;1;Handel und Handwerk
649;Zentrum;Haus M 10/09;Freiberger Zinn - Holger Küchenmeister;Markt;04109 Leipzig;28.11.23;23.12.23;Freiberger Zinn - Holger Küchenmeister;10:00-21:00;;https://www.freiberger-zinn.de/;;51.34031968220197;12.374638801628011;Freiberger Zinn - Holger Küchenmeister;;1;10:00-21:00;10:00-21:00;10:00-21:00;10:00-21:00;10:00-22:00;10:00-22:00;10:00-21:00;0;;01.12.23=10:00-22:00,02.12.23=10:00-22:00,08.12.23=10:00-22:00,09.12.23=10:00-22:00,15.12.23=10:00-22:00,16.12.23=10:00-22:00,22.12.23=10:00-22:00;freitags und samstags bis 22 Uhr;0;;0;0;;;S1, S2, S3, S4, S5, S5X und S6 bis "Leipzig, Markt";72;1;Handel und Handwerk
675;Zentrum;Haus M 10/10;Apinima GmbH - Leander Hoyer;Markt;04109 Leipzig;28.11.23;23.12.23;Apinima GmbH - Leander Hoyer;10:00-21:00;;https://nicama.de/;;51.340347298074384;12.374634899871825;Apinima GmbH - Leander Hoyer;;1;10:00-21:00;10:00-21:00;10:00-21:00;10:00-21:00;10:00-22:00;10:00-22:00;10:00-21:00;0;;01.12.23=10:00-22:00,02.12.23=10:00-22:00,08.12.23=10:00-22:00,09.12.23=10:00-22:00,15.12.23=10:00-22:00,16.12.23=10:00-22:00,22.12.23=10:00-22:00;freitags und samstags bis 22 Uhr;0;;0;0;;;S1, S2, S3, S4, S5, S5X und S6 bis "Leipzig, Markt";72;1;Handel und Handwerk
661;Zentrum;Haus M 10/11;Töpferei  Annette Gmyrek;Markt;04109 Leipzig;28.11.23;23.12.23;Töpferei  Annette Gmyrek;10:00-21:00;;https://www.leipzig.de/freizeit-kultur-und-tourismus/veranstaltungen-und-termine/eventsingle/event/leipziger-weihnachtsmarkt-2023;;51.340379379169434;12.374642607610303;Töpferei  Annette Gmyrek;;1;10:00-21:00;10:00-21:00;10:00-21:00;10:00-21:00;10:00-22:00;10:00-22:00;10:00-21:00;0;;01.12.23=10:00-22:00,02.12.23=10:00-22:00,08.12.23=10:00-22:00,09.12.23=10:00-22:00,15.12.23=10:00-22:00,16.12.23=10:00-22:00,22.12.23=10:00-22:00;freitags und samstags bis 22 Uhr;0;;0;0;;;S1, S2, S3, S4, S5, S5X und S6 bis "Leipzig, Markt";72;1;Handel und Handwerk
537;Zentrum;Haus M 10/12;Michael Peetz;Markt;04109 Leipzig;28.11.23;23.12.23;Michael Peetz;10:00-21:00;;https://www.leipzig.de/freizeit-kultur-und-tourismus/veranstaltungen-und-termine/eventsingle/event/leipziger-weihnachtsmarkt-2023;;51.340382015869416;12.374710534115742;Michael Peetz;;1;10:00-21:00;10:00-21:00;10:00-21:00;10:00-21:00;10:00-22:00;10:00-22:00;10:00-21:00;0;;01.12.23=10:00-22:00,02.12.23=10:00-22:00,08.12.23=10:00-22:00,09.12.23=10:00-22:00,15.12.23=10:00-22:00,16.12.23=10:00-22:00,22.12.23=10:00-22:00;freitags und samstags bis 22 Uhr;0;;0;0;;;S1, S2, S3, S4, S5, S5X und S6 bis "Leipzig, Markt";72;1;Handel und Handwerk
723;Zentrum;Haus M 11/01;Schaustellerbetrieb Richard Berger jr.;Markt;04109 Leipzig;28.11.23;23.12.23;Schaustellerbetrieb Richard Berger jr.;10:00-21:00;;https://www.leipzig.de/freizeit-kultur-und-tourismus/veranstaltungen-und-termine/eventsingle/event/leipziger-weihnachtsmarkt-2023;;51.340466377353266;12.374988205670626;Schaustellerbetrieb Richard Berger jr.;;1;10:00-21:00;10:00-21:00;10:00-21:00;10:00-21:00;10:00-22:00;10:00-22:00;10:00-21:00;0;;01.12.23=10:00-22:00,02.12.23=10:00-22:00,08.12.23=10:00-22:00,09.12.23=10:00-22:00,15.12.23=10:00-22:00,16.12.23=10:00-22:00,22.12.23=10:00-22:00;freitags und samstags bis 22 Uhr;0;;0;0;;;S1, S2, S3, S4, S5, S5X und S6 bis "Leipzig, Markt";72;1;Imbiss und Getränke
721;Zentrum;Haus M 11/02;Südtiroler Weinstand (vor dem Alten Rathaus) - WITO GmbH;Markt;04109 Leipzig;28.11.23;23.12.23;Südtiroler Weinstand (vor dem Alten Rathaus) - WITO GmbH;10:00-21:00;;https://www.leipzig.de/freizeit-kultur-und-tourismus/veranstaltungen-und-termine/eventsingle/event/leipziger-weihnachtsmarkt-2023;;51.34041706740089;12.374988440866;Südtiroler Weinstand (vor dem Alten Rathaus) - WITO GmbH;;1;10:00-21:00;10:00-21:00;10:00-21:00;10:00-21:00;10:00-22:00;10:00-22:00;10:00-21:00;0;;01.12.23=10:00-22:00,02.12.23=10:00-22:00,08.12.23=10:00-22:00,09.12.23=10:00-22:00,15.12.23=10:00-22:00,16.12.23=10:00-22:00,22.12.23=10:00-22:00;freitags und samstags bis 22 Uhr;0;;0;0;;;S1, S2, S3, S4, S5, S5X und S6 bis "Leipzig, Markt";72;1;Imbiss und Getränke
728;Zentrum;Haus M 11/03;Fisch Wenning GmbH;Markt;04109 Leipzig;28.11.23;23.12.23;Fisch Wenning GmbH;10:00-21:00;;https://www.fisch-wenning.com/;;51.340335760549344;12.375002667695853;Fisch Wenning GmbH;;1;10:00-21:00;10:00-21:00;10:00-21:00;10:00-21:00;10:00-22:00;10:00-22:00;10:00-21:00;0;;01.12.23=10:00-22:00,02.12.23=10:00-22:00,08.12.23=10:00-22:00,09.12.23=10:00-22:00,15.12.23=10:00-22:00,16.12.23=10:00-22:00,22.12.23=10:00-22:00;freitags und samstags bis 22 Uhr;0;;0;0;;;S1, S2, S3, S4, S5, S5X und S6 bis "Leipzig, Markt";72;1;Imbiss und Getränke
722;Zentrum;Haus M 11/04;Heise Crêpes - Volker Heise;Markt;04109 Leipzig;28.11.23;23.12.23;Heise Crêpes - Volker Heise;10:00-21:00;;https://www.leipzig.de/freizeit-kultur-und-tourismus/veranstaltungen-und-termine/eventsingle/event/leipziger-weihnachtsmarkt-2023;;51.34028140987455;12.375000215645752;Heise Crêpes - Volker Heise;;1;10:00-21:00;10:00-21:00;10:00-21:00;10:00-21:00;10:00-22:00;10:00-22:00;10:00-21:00;0;;01.12.23=10:00-22:00,02.12.23=10:00-22:00,08.12.23=10:00-22:00,09.12.23=10:00-22:00,15.12.23=10:00-22:00,16.12.23=10:00-22:00,22.12.23=10:00-22:00;freitags und samstags bis 22 Uhr;0;;0;0;;;S1, S2, S3, S4, S5, S5X und S6 bis "Leipzig, Markt";72;1;Imbiss und Getränke
731;Zentrum;Haus M 11/05;Weinstube "Zur Höll";Markt;04109 Leipzig;28.11.23;23.12.23;Weinstube "Zur Höll";10:00-21:00;;https://www.hoell-rothenburg.de/;;51.34023181982674;12.374997753181225;Weinstube "Zur Höll";;1;10:00-21:00;10:00-21:00;10:00-21:00;10:00-21:00;10:00-22:00;10:00-22:00;10:00-21:00;0;;01.12.23=10:00-22:00,02.12.23=10:00-22:00,08.12.23=10:00-22:00,09.12.23=10:00-22:00,15.12.23=10:00-22:00,16.12.23=10:00-22:00,22.12.23=10:00-22:00;freitags und samstags bis 22 Uhr;0;;0;0;;;S1, S2, S3, S4, S5, S5X und S6 bis "Leipzig, Markt";72;1;Imbiss und Getränke
787;Zentrum;Haus M 11/06;CORSOELA GmbH;Markt;04109 Leipzig;28.11.23;23.12.23;CORSOELA GmbH;10:00-21:00;;https://corsoela.de/;;51.34018560688591;12.374997075770125;CORSOELA GmbH;;1;10:00-21:00;10:00-21:00;10:00-21:00;10:00-21:00;10:00-22:00;10:00-22:00;10:00-21:00;0;;01.12.23=10:00-22:00,02.12.23=10:00-22:00,08.12.23=10:00-22:00,09.12.23=10:00-22:00,15.12.23=10:00-22:00,16.12.23=10:00-22:00,22.12.23=10:00-22:00;freitags und samstags bis 22 Uhr;0;;0;0;;;S1, S2, S3, S4, S5, S5X und S6 bis "Leipzig, Markt";72;1;Nahrung und Genuss
588;Zentrum;Haus M 11/07;Käthe Wohlfahrt KG;Markt;04109 Leipzig;28.11.23;23.12.23;Käthe Wohlfahrt KG;10:00-21:00;;https://www.kaethe-wohlfahrt.com/;;51.34016729805942;12.374949862109212;Käthe Wohlfahrt KG;;1;10:00-21:00;10:00-21:00;10:00-21:00;10:00-21:00;10:00-22:00;10:00-22:00;10:00-21:00;0;;01.12.23=10:00-22:00,02.12.23=10:00-22:00,08.12.23=10:00-22:00,09.12.23=10:00-22:00,15.12.23=10:00-22:00,16.12.23=10:00-22:00,22.12.23=10:00-22:00;freitags und samstags bis 22 Uhr;0;;0;0;;;S1, S2, S3, S4, S5, S5X und S6 bis "Leipzig, Markt";72;1;Weihnachtliches
615;Zentrum;Haus M 11/08;Scarlett Weiß;Markt;04109 Leipzig;28.11.23;23.12.23;Scarlett Weiß;10:00-21:00;;https://www.leipzig.de/freizeit-kultur-und-tourismus/veranstaltungen-und-termine/eventsingle/event/leipziger-weihnachtsmarkt-2023;;51.34020953442479;12.374877821175078;Scarlett Weiß;;1;10:00-21:00;10:00-21:00;10:00-21:00;10:00-21:00;10:00-22:00;10:00-22:00;10:00-21:00;0;;01.12.23=10:00-22:00,02.12.23=10:00-22:00,08.12.23=10:00-22:00,09.12.23=10:00-22:00,15.12.23=10:00-22:00,16.12.23=10:00-22:00,22.12.23=10:00-22:00;freitags und samstags bis 22 Uhr;0;;0;0;;;S1, S2, S3, S4, S5, S5X und S6 bis "Leipzig, Markt";72;1;Handel und Handwerk
788;Zentrum;Haus M 11/09;Das Bienenhaus - Sabine Kahlenberg;Markt;04109 Leipzig;28.11.23;23.12.23;Das Bienenhaus - Sabine Kahlenberg;10:00-21:00;;https://www.dasbienenhaus.com/;;51.34026097201384;12.374849645055145;Das Bienenhaus - Sabine Kahlenberg;;1;10:00-21:00;10:00-21:00;10:00-21:00;10:00-21:00;10:00-22:00;10:00-22:00;10:00-21:00;0;;01.12.23=10:00-22:00,02.12.23=10:00-22:00,08.12.23=10:00-22:00,09.12.23=10:00-22:00,15.12.23=10:00-22:00,16.12.23=10:00-22:00,22.12.23=10:00-22:00;freitags und samstags bis 22 Uhr;0;;0;0;;;S1, S2, S3, S4, S5, S5X und S6 bis "Leipzig, Markt";72;1;Nahrung und Genuss
550;Zentrum;Haus M 11/10;Holzschnitzerei Josef Bachmann;Markt;04109 Leipzig;28.11.23;23.12.23;Holzschnitzerei Josef Bachmann;10:00-21:00;;https://www.holzschnitzerei-bachmann.com/;;51.340328983940786;12.374838278123482;Holzschnitzerei Josef Bachmann;;1;10:00-21:00;10:00-21:00;10:00-21:00;10:00-21:00;10:00-22:00;10:00-22:00;10:00-21:00;0;;01.12.23=10:00-22:00,02.12.23=10:00-22:00,08.12.23=10:00-22:00,09.12.23=10:00-22:00,15.12.23=10:00-22:00,16.12.23=10:00-22:00,22.12.23=10:00-22:00;freitags und samstags bis 22 Uhr;0;;0;0;;;S1, S2, S3, S4, S5, S5X und S6 bis "Leipzig, Markt";72;1;Weihnachtliches
674;Zentrum;Haus M 11/11;Michael Doss;Markt;04109 Leipzig;28.11.23;23.12.23;Michael Doss;10:00-21:00;;https://www.leipzig.de/freizeit-kultur-und-tourismus/veranstaltungen-und-termine/eventsingle/event/leipziger-weihnachtsmarkt-2023;;51.34047367380573;12.374922126210954;Michael Doss;;1;10:00-21:00;10:00-21:00;10:00-21:00;10:00-21:00;10:00-22:00;10:00-22:00;10:00-21:00;0;;01.12.23=10:00-22:00,02.12.23=10:00-22:00,08.12.23=10:00-22:00,09.12.23=10:00-22:00,15.12.23=10:00-22:00,16.12.23=10:00-22:00,22.12.23=10:00-22:00;freitags und samstags bis 22 Uhr;0;;0;0;;;S1, S2, S3, S4, S5, S5X und S6 bis "Leipzig, Markt";72;1;Handel und Handwerk
631;Zentrum;Haus M 12/01;Foto Rechtnitz;Markt;04109 Leipzig;28.11.23;23.12.23;Foto Rechtnitz;10:00-21:00;;https://www.foto-rechtnitz.de/;;51.34014607891143;12.374804029414758;Foto Rechtnitz;;1;10:00-21:00;10:00-21:00;10:00-21:00;10:00-21:00;10:00-22:00;10:00-22:00;10:00-21:00;0;;01.12.23=10:00-22:00,02.12.23=10:00-22:00,08.12.23=10:00-22:00,09.12.23=10:00-22:00,15.12.23=10:00-22:00,16.12.23=10:00-22:00,22.12.23=10:00-22:00;freitags und samstags bis 22 Uhr;0;;0;0;;;S1, S2, S3, S4, S5, S5X und S6 bis "Leipzig, Markt";72;1;Handel und Handwerk
654;Zentrum;Haus M 12/02;Casa Millefiori Egmont Schoendorf;Markt;04109 Leipzig;28.11.23;23.12.23;Casa Millefiori Egmont Schoendorf;10:00-21:00;;https://www.leipzig.de/freizeit-kultur-und-tourismus/veranstaltungen-und-termine/eventsingle/event/leipziger-weihnachtsmarkt-2023;;51.34012243333575;12.37487696930794;Casa Millefiori Egmont Schoendorf;;1;10:00-21:00;10:00-21:00;10:00-21:00;10:00-21:00;10:00-22:00;10:00-22:00;10:00-21:00;0;;01.12.23=10:00-22:00,02.12.23=10:00-22:00,08.12.23=10:00-22:00,09.12.23=10:00-22:00,15.12.23=10:00-22:00,16.12.23=10:00-22:00,22.12.23=10:00-22:00;freitags und samstags bis 22 Uhr;0;;0;0;;;S1, S2, S3, S4, S5, S5X und S6 bis "Leipzig, Markt";72;1;Handel und Handwerk
535;Zentrum;Haus M 12/03;Käthe Wohlfahrt KG;Markt;04109 Leipzig;28.11.23;23.12.23;Käthe Wohlfahrt KG;10:00-21:00;;https://www.kaethe-wohlfahrt.com/;;51.3400218179989;12.374940953967998;Käthe Wohlfahrt KG;;1;10:00-21:00;10:00-21:00;10:00-21:00;10:00-21:00;10:00-22:00;10:00-22:00;10:00-21:00;0;;01.12.23=10:00-22:00,02.12.23=10:00-22:00,08.12.23=10:00-22:00,09.12.23=10:00-22:00,15.12.23=10:00-22:00,16.12.23=10:00-22:00,22.12.23=10:00-22:00;freitags und samstags bis 22 Uhr;0;;0;0;;;S1, S2, S3, S4, S5, S5X und S6 bis "Leipzig, Markt";72;1;Imbiss und Getränke
793;Zentrum;Haus M 12/04;Wendl GmbH Konditorei & Bäckerei;Markt;04109 Leipzig;28.11.23;23.12.23;Wendl GmbH Konditorei & Bäckerei;10:00-21:00;;https://www.brotagonist.de/;;51.340006401547534;12.374774395695681;Wendl GmbH Konditorei & Bäckerei;;1;10:00-21:00;10:00-21:00;10:00-21:00;10:00-21:00;10:00-22:00;10:00-22:00;10:00-21:00;0;;01.12.23=10:00-22:00,02.12.23=10:00-22:00,08.12.23=10:00-22:00,09.12.23=10:00-22:00,15.12.23=10:00-22:00,16.12.23=10:00-22:00,22.12.23=10:00-22:00;freitags und samstags bis 22 Uhr;0;;0;0;;;S1, S2, S3, S4, S5, S5X und S6 bis "Leipzig, Markt";72;1;Nahrung und Genuss
569;Zentrum;Haus M 12/05;Drechslerei Rolf Zänker;Markt;04109 Leipzig;28.11.23;23.12.23;Drechslerei Rolf Zänker;10:00-21:00;;https://www.original-zaenker.de/;;51.34000489712664;12.374707350246796;Drechslerei Rolf Zänker;;1;10:00-21:00;10:00-21:00;10:00-21:00;10:00-21:00;10:00-22:00;10:00-22:00;10:00-21:00;0;;01.12.23=10:00-22:00,02.12.23=10:00-22:00,08.12.23=10:00-22:00,09.12.23=10:00-22:00,15.12.23=10:00-22:00,16.12.23=10:00-22:00,22.12.23=10:00-22:00;freitags und samstags bis 22 Uhr;0;;0;0;;;S1, S2, S3, S4, S5, S5X und S6 bis "Leipzig, Markt";72;1;Weihnachtliches
641;Zentrum;Haus M 12/06;Müller Filz - Steffen Müller;Markt;04109 Leipzig;28.11.23;23.12.23;Müller Filz - Steffen Müller;10:00-21:00;;https://www.leipzig.de/freizeit-kultur-und-tourismus/veranstaltungen-und-termine/eventsingle/event/leipziger-weihnachtsmarkt-2023;;51.34002082703706;12.37457308421092;Müller Filz - Steffen Müller;;1;10:00-21:00;10:00-21:00;10:00-21:00;10:00-21:00;10:00-22:00;10:00-22:00;10:00-21:00;0;;01.12.23=10:00-22:00,02.12.23=10:00-22:00,08.12.23=10:00-22:00,09.12.23=10:00-22:00,15.12.23=10:00-22:00,16.12.23=10:00-22:00,22.12.23=10:00-22:00;freitags und samstags bis 22 Uhr;0;;0;0;;;S1, S2, S3, S4, S5, S5X und S6 bis "Leipzig, Markt";72;1;Handel und Handwerk
718;Zentrum;Haus M 12/07;Schaustellerbetrieb Silvana Seiferth;Markt;04109 Leipzig;28.11.23;23.12.23;Schaustellerbetrieb Silvana Seiferth;10:00-21:00;;https://www.leipzig.de/freizeit-kultur-und-tourismus/veranstaltungen-und-termine/eventsingle/event/leipziger-weihnachtsmarkt-2023;;51.34008201204063;12.374568186344135;Schaustellerbetrieb Silvana Seiferth;;1;10:00-21:00;10:00-21:00;10:00-21:00;10:00-21:00;10:00-22:00;10:00-22:00;10:00-21:00;0;;01.12.23=10:00-22:00,02.12.23=10:00-22:00,08.12.23=10:00-22:00,09.12.23=10:00-22:00,15.12.23=10:00-22:00,16.12.23=10:00-22:00,22.12.23=10:00-22:00;freitags und samstags bis 22 Uhr;0;;0;0;;;S1, S2, S3, S4, S5, S5X und S6 bis "Leipzig, Markt";72;1;Imbiss und Getränke
682;Zentrum;Haus M 12/08;RBB;Markt;04109 Leipzig;28.11.23;23.12.23;RBB;10:00-21:00;;https://www.rbb-online-shop.de/;;51.34011652274771;12.374591431955094;RBB;;1;10:00-21:00;10:00-21:00;10:00-21:00;10:00-21:00;10:00-22:00;10:00-22:00;10:00-21:00;0;;01.12.23=10:00-22:00,02.12.23=10:00-22:00,08.12.23=10:00-22:00,09.12.23=10:00-22:00,15.12.23=10:00-22:00,16.12.23=10:00-22:00,22.12.23=10:00-22:00;freitags und samstags bis 22 Uhr;0;;0;0;;;S1, S2, S3, S4, S5, S5X und S6 bis "Leipzig, Markt";72;1;Handel und Handwerk
613;Zentrum;Haus M 12/09;Schaustellerbetrieb Bernd Schleinitz;Markt;04109 Leipzig;28.11.23;23.12.23;Schaustellerbetrieb Bernd Schleinitz;10:00-21:00;;https://www.leipzig.de/freizeit-kultur-und-tourismus/veranstaltungen-und-termine/eventsingle/event/leipziger-weihnachtsmarkt-2023;;51.34014015907687;12.374708177141526;Schaustellerbetrieb Bernd Schleinitz;;1;10:00-21:00;10:00-21:00;10:00-21:00;10:00-21:00;10:00-22:00;10:00-22:00;10:00-21:00;0;;01.12.23=10:00-22:00,02.12.23=10:00-22:00,08.12.23=10:00-22:00,09.12.23=10:00-22:00,15.12.23=10:00-22:00,16.12.23=10:00-22:00,22.12.23=10:00-22:00;freitags und samstags bis 22 Uhr;0;;0;0;;;S1, S2, S3, S4, S5, S5X und S6 bis "Leipzig, Markt";72;1;Fahrgeschäft
546;Zentrum;Haus Musikschule;Musikschule Johann-Sebastian-Bach;Petersstraße;04109 Leipzig;28.11.23;23.12.23;Musikschule Johann-Sebastian-Bach;10:00-21:00;;https://www.musikschule-leipzig.de/wp-content/uploads/2022/10/Programm_Adventsmusik_2023_final.pdf;;51.337035770205944;12.375487781156258;Musikschule Johann-Sebastian-Bach;;1;10:00-21:00;10:00-21:00;10:00-21:00;10:00-21:00;10:00-22:00;10:00-22:00;10:00-21:00;0;;01.12.23=10:00-22:00,02.12.23=10:00-22:00,08.12.23=10:00-22:00,09.12.23=10:00-22:00,15.12.23=10:00-22:00,16.12.23=10:00-22:00,22.12.23=10:00-22:00;freitags und samstags bis 22 Uhr;0;;0;0;;;S1, S2, S3, S4, S5, S5X und S6 bis "Leipzig, Markt";72;1;Imbiss und Getränke
587;Zentrum;Haus N 01;Waffelbäckerei Steffen Guse;Nikolaikirchhof;04109 Leipzig;28.11.23;23.12.23;Waffelbäckerei Steffen Guse;10:00-21:00;;https://www.leipzig.de/freizeit-kultur-und-tourismus/veranstaltungen-und-termine/eventsingle/event/leipziger-weihnachtsmarkt-2023;;51.340683447081894;12.378146784466242;Waffelbäckerei Steffen Guse;;1;10:00-21:00;10:00-21:00;10:00-21:00;10:00-21:00;10:00-22:00;10:00-22:00;10:00-21:00;0;;01.12.23=10:00-22:00,02.12.23=10:00-22:00,08.12.23=10:00-22:00,09.12.23=10:00-22:00,15.12.23=10:00-22:00,16.12.23=10:00-22:00,22.12.23=10:00-22:00;freitags und samstags bis 22 Uhr;0;;0;0;;;S1, S2, S3, S4, S5, S5X und S6 bis "Leipzig, Markt";72;1;Süßwaren
699;Zentrum;Haus N 02;Saxonia-Catering GmbH & Co. KG;Nikolaikirchhof;04109 Leipzig;28.11.23;23.12.23;Saxonia-Catering GmbH & Co. KG;10:00-21:00;;https://www.saxonia-catering.de/;;51.34067969820325;12.378386062881113;Saxonia-Catering GmbH & Co. KG;;1;10:00-21:00;10:00-21:00;10:00-21:00;10:00-21:00;10:00-22:00;10:00-22:00;10:00-21:00;0;;01.12.23=10:00-22:00,02.12.23=10:00-22:00,08.12.23=10:00-22:00,09.12.23=10:00-22:00,15.12.23=10:00-22:00,16.12.23=10:00-22:00,22.12.23=10:00-22:00;freitags und samstags bis 22 Uhr;0;;0;0;;;S1, S2, S3, S4, S5, S5X und S6 bis "Leipzig, Markt";72;1;Imbiss und Getränke
630;Zentrum;Haus N 03;Christbaumschmuck Gerald Kraft;Nikolaikirchhof;04109 Leipzig;28.11.23;23.12.23;Christbaumschmuck Gerald Kraft;10:00-21:00;;https://www.leipzig.de/freizeit-kultur-und-tourismus/veranstaltungen-und-termine/eventsingle/event/leipziger-weihnachtsmarkt-2023;;51.34066998420513;12.378550905923671;Christbaumschmuck Gerald Kraft;;1;10:00-21:00;10:00-21:00;10:00-21:00;10:00-21:00;10:00-22:00;10:00-22:00;10:00-21:00;0;;01.12.23=10:00-22:00,02.12.23=10:00-22:00,08.12.23=10:00-22:00,09.12.23=10:00-22:00,15.12.23=10:00-22:00,16.12.23=10:00-22:00,22.12.23=10:00-22:00;freitags und samstags bis 22 Uhr;0;;0;0;;;S1, S2, S3, S4, S5, S5X und S6 bis "Leipzig, Markt";72;1;Weihnachtliches
634;Zentrum;Haus N 04;Kunsthandwerk Silvio Große;Nikolaikirchhof;04109 Leipzig;28.11.23;23.12.23;Kunsthandwerk Silvio Große;10:00-21:00;;https://www.leipzig.de/freizeit-kultur-und-tourismus/veranstaltungen-und-termine/eventsingle/event/leipziger-weihnachtsmarkt-2023;;51.34065990961497;12.378636514922222;Kunsthandwerk Silvio Große;;1;10:00-21:00;10:00-21:00;10:00-21:00;10:00-21:00;10:00-22:00;10:00-22:00;10:00-21:00;0;;01.12.23=10:00-22:00,02.12.23=10:00-22:00,08.12.23=10:00-22:00,09.12.23=10:00-22:00,15.12.23=10:00-22:00,16.12.23=10:00-22:00,22.12.23=10:00-22:00;freitags und samstags bis 22 Uhr;0;;0;0;;;S1, S2, S3, S4, S5, S5X und S6 bis "Leipzig, Markt";72;1;Weihnachtliches
724;Zentrum;Haus N 05;Cynthia Abels;Nikolaikirchhof;04109 Leipzig;28.11.23;23.12.23;Cynthia Abels;10:00-21:00;;https://www.leipzig.de/freizeit-kultur-und-tourismus/veranstaltungen-und-termine/eventsingle/event/leipziger-weihnachtsmarkt-2023;;51.340656272903296;12.378718252046957;Cynthia Abels;;1;10:00-21:00;10:00-21:00;10:00-21:00;10:00-21:00;10:00-22:00;10:00-22:00;10:00-21:00;0;;01.12.23=10:00-22:00,02.12.23=10:00-22:00,08.12.23=10:00-22:00,09.12.23=10:00-22:00,15.12.23=10:00-22:00,16.12.23=10:00-22:00,22.12.23=10:00-22:00;freitags und samstags bis 22 Uhr;0;;0;0;;;S1, S2, S3, S4, S5, S5X und S6 bis "Leipzig, Markt";72;1;Imbiss und Getränke
725;Zentrum;Haus N 06;Santa´s Schmaus - Nancy Scheffler;Nikolaikirchhof;04109 Leipzig;28.11.23;23.12.23;Santa´s Schmaus - Nancy Scheffler;10:00-21:00;;https://www.leipzig.de/freizeit-kultur-und-tourismus/veranstaltungen-und-termine/eventsingle/event/leipziger-weihnachtsmarkt-2023;;51.34065117590436;12.378814141037125;Santa´s Schmaus - Nancy Scheffler;;1;10:00-21:00;10:00-21:00;10:00-21:00;10:00-21:00;10:00-22:00;10:00-22:00;10:00-21:00;0;;01.12.23=10:00-22:00,02.12.23=10:00-22:00,08.12.23=10:00-22:00,09.12.23=10:00-22:00,15.12.23=10:00-22:00,16.12.23=10:00-22:00,22.12.23=10:00-22:00;freitags und samstags bis 22 Uhr;0;;0;0;;;S1, S2, S3, S4, S5, S5X und S6 bis "Leipzig, Markt";72;1;Imbiss und Getränke
691;Zentrum;Haus N 07;Feuerzangenbowle Wolf;Nikolaikirchhof;04109 Leipzig;28.11.23;23.12.23;Feuerzangenbowle Wolf;10:00-21:00;;https://www.leipzig.de/freizeit-kultur-und-tourismus/veranstaltungen-und-termine/eventsingle/event/leipziger-weihnachtsmarkt-2023;;51.34060214348505;12.379123183978257;Feuerzangenbowle Wolf;;1;10:00-21:00;10:00-21:00;10:00-21:00;10:00-21:00;10:00-22:00;10:00-22:00;10:00-21:00;0;;01.12.23=10:00-22:00,02.12.23=10:00-22:00,08.12.23=10:00-22:00,09.12.23=10:00-22:00,15.12.23=10:00-22:00,16.12.23=10:00-22:00,22.12.23=10:00-22:00;freitags und samstags bis 22 Uhr;0;;0;0;;;S1, S2, S3, S4, S5, S5X und S6 bis "Leipzig, Markt";72;1;Imbiss und Getränke
757;Zentrum;Haus N 07A;Feuerzangenbowle Wolf;Nikolaikirchhof;04109 Leipzig;28.11.23;23.12.23;Feuerzangenbowle Wolf;10:00-21:00;;https://www.leipzig.de/freizeit-kultur-und-tourismus/veranstaltungen-und-termine/eventsingle/event/leipziger-weihnachtsmarkt-2023;;51.340539597098335;12.379146139315306;Feuerzangenbowle Wolf;;1;10:00-21:00;10:00-21:00;10:00-21:00;10:00-21:00;10:00-22:00;10:00-22:00;10:00-21:00;0;;01.12.23=10:00-22:00,02.12.23=10:00-22:00,08.12.23=10:00-22:00,09.12.23=10:00-22:00,15.12.23=10:00-22:00,16.12.23=10:00-22:00,22.12.23=10:00-22:00;freitags und samstags bis 22 Uhr;0;;0;0;;;S1, S2, S3, S4, S5, S5X und S6 bis "Leipzig, Markt";72;1;Imbiss und Getränke
692;Zentrum;Haus N 08;Historisches Backhaus Uwe Naumann;Nikolaikirchhof;04109 Leipzig;28.11.23;23.12.23;Historisches Backhaus Uwe Naumann;10:00-21:00;;https://www.leipzig.de/freizeit-kultur-und-tourismus/veranstaltungen-und-termine/eventsingle/event/leipziger-weihnachtsmarkt-2023;;51.34049176986685;12.378864716022754;Historisches Backhaus Uwe Naumann;;1;10:00-21:00;10:00-21:00;10:00-21:00;10:00-21:00;10:00-22:00;10:00-22:00;10:00-21:00;0;;01.12.23=10:00-22:00,02.12.23=10:00-22:00,08.12.23=10:00-22:00,09.12.23=10:00-22:00,15.12.23=10:00-22:00,16.12.23=10:00-22:00,22.12.23=10:00-22:00;freitags und samstags bis 22 Uhr;0;;0;0;;;S1, S2, S3, S4, S5, S5X und S6 bis "Leipzig, Markt";72;1;Imbiss und Getränke
511;Zentrum;Haus N 09;Grillmeister René Krell;Nikolaikirchhof;04109 Leipzig;28.11.23;23.12.23;Grillmeister René Krell;10:00-21:00;;https://www.wurstmeister.com/en/;;51.34050664886628;12.378767951842322;Grillmeister René Krell;;1;10:00-21:00;10:00-21:00;10:00-21:00;10:00-21:00;10:00-22:00;10:00-22:00;10:00-21:00;0;;01.12.23=10:00-22:00,02.12.23=10:00-22:00,08.12.23=10:00-22:00,09.12.23=10:00-22:00,15.12.23=10:00-22:00,16.12.23=10:00-22:00,22.12.23=10:00-22:00;freitags und samstags bis 22 Uhr;0;;0;0;;;S1, S2, S3, S4, S5, S5X und S6 bis "Leipzig, Markt";72;1;Imbiss und Getränke
780;Zentrum;Haus N 10;Craft Circus GmbH;Nikolaikirchhof;04109 Leipzig;28.11.23;23.12.23;Craft Circus GmbH;10:00-21:00;;https://craftcircus.de/;;51.34052861900686;12.378454802467544;Craft Circus GmbH;;1;10:00-21:00;10:00-21:00;10:00-21:00;10:00-21:00;10:00-22:00;10:00-22:00;10:00-21:00;0;;01.12.23=10:00-22:00,02.12.23=10:00-22:00,08.12.23=10:00-22:00,09.12.23=10:00-22:00,15.12.23=10:00-22:00,16.12.23=10:00-22:00,22.12.23=10:00-22:00;freitags und samstags bis 22 Uhr;0;;0;0;;;S1, S2, S3, S4, S5, S5X und S6 bis "Leipzig, Markt";72;1;Nahrung und Genuss
671;Zentrum;Haus N 11;Margarita Degen;Nikolaikirchhof;04109 Leipzig;28.11.23;23.12.23;Margarita Degen;10:00-21:00;;https://www.leipzig.de/freizeit-kultur-und-tourismus/veranstaltungen-und-termine/eventsingle/event/leipziger-weihnachtsmarkt-2023;;51.34053038473992;12.378361982680373;Margarita Degen;;1;10:00-21:00;10:00-21:00;10:00-21:00;10:00-21:00;10:00-22:00;10:00-22:00;10:00-21:00;0;;01.12.23=10:00-22:00,02.12.23=10:00-22:00,08.12.23=10:00-22:00,09.12.23=10:00-22:00,15.12.23=10:00-22:00,16.12.23=10:00-22:00,22.12.23=10:00-22:00;freitags und samstags bis 22 Uhr;0;;0;0;;;S1, S2, S3, S4, S5, S5X und S6 bis "Leipzig, Markt";72;1;Handel und Handwerk
804;Zentrum;Haus N 12;Ralf Lüllmann;Nikolaikirchhof;04109 Leipzig;28.11.23;23.12.23;Ralf Lüllmann;10:00-21:00;;https://www.leipzig.de/freizeit-kultur-und-tourismus/veranstaltungen-und-termine/eventsingle/event/leipziger-weihnachtsmarkt-2023;;51.340533922604635;12.378262867379432;Ralf Lüllmann;;1;10:00-21:00;10:00-21:00;10:00-21:00;10:00-21:00;10:00-22:00;10:00-22:00;10:00-21:00;0;;01.12.23=10:00-22:00,02.12.23=10:00-22:00,08.12.23=10:00-22:00,09.12.23=10:00-22:00,15.12.23=10:00-22:00,16.12.23=10:00-22:00,22.12.23=10:00-22:00;freitags und samstags bis 22 Uhr;0;;0;0;;;S1, S2, S3, S4, S5, S5X und S6 bis "Leipzig, Markt";72;1;Handel und Handwerk
636;Zentrum;Haus N 13;Marzipan- & Nougateria Kleynemeyer;Nikolaikirchhof;04109 Leipzig;28.11.23;23.12.23;Marzipan- & Nougateria Kleynemeyer;10:00-21:00;;https://www.leipzig.de/freizeit-kultur-und-tourismus/veranstaltungen-und-termine/eventsingle/event/leipziger-weihnachtsmarkt-2023;;51.340533580922276;12.37817949012595;Marzipan- & Nougateria Kleynemeyer;;1;10:00-21:00;10:00-21:00;10:00-21:00;10:00-21:00;10:00-22:00;10:00-22:00;10:00-21:00;0;;01.12.23=10:00-22:00,02.12.23=10:00-22:00,08.12.23=10:00-22:00,09.12.23=10:00-22:00,15.12.23=10:00-22:00,16.12.23=10:00-22:00,22.12.23=10:00-22:00;freitags und samstags bis 22 Uhr;0;;0;0;;;S1, S2, S3, S4, S5, S5X und S6 bis "Leipzig, Markt";72;1;Süßwaren
635;Zentrum;Haus N 14;Blank Kunsthandwerk - Uwe Blank;Nikolaikirchhof;04109 Leipzig;28.11.23;23.12.23;Blank Kunsthandwerk - Uwe Blank;10:00-21:00;;https://www.blank-engel.de/;;51.340502106777855;12.378111546989459;Blank Kunsthandwerk - Uwe Blank;;1;10:00-21:00;10:00-21:00;10:00-21:00;10:00-21:00;10:00-22:00;10:00-22:00;10:00-21:00;0;;01.12.23=10:00-22:00,02.12.23=10:00-22:00,08.12.23=10:00-22:00,09.12.23=10:00-22:00,15.12.23=10:00-22:00,16.12.23=10:00-22:00,22.12.23=10:00-22:00;freitags und samstags bis 22 Uhr;0;;0;0;;;S1, S2, S3, S4, S5, S5X und S6 bis "Leipzig, Markt";72;1;Weihnachtliches
513;Zentrum;Haus NM 01;Heureka Gastro GmbH & Co. KG;Naschmarkt;04109 Leipzig;28.11.23;23.12.23;Heureka Gastro GmbH & Co. KG;10:00-21:00;;https://www.heureka-leipzig.de/;;51.33995395749589;12.375628134784362;Heureka Gastro GmbH & Co. KG;;1;10:00-21:00;10:00-21:00;10:00-21:00;10:00-21:00;10:00-22:00;10:00-22:00;10:00-21:00;0;;01.12.23=10:00-22:00,02.12.23=10:00-22:00,08.12.23=10:00-22:00,09.12.23=10:00-22:00,15.12.23=10:00-22:00,16.12.23=10:00-22:00,22.12.23=10:00-22:00;freitags und samstags bis 22 Uhr;0;;0;0;;;S1, S2, S3, S4, S5, S5X und S6 bis "Leipzig, Markt";72;1;Imbiss und Getränke
519;Zentrum;Haus NM 02;Heureka Gastro GmbH & Co. KG;Naschmarkt;04109 Leipzig;28.11.23;23.12.23;Heureka Gastro GmbH & Co. KG;10:00-21:00;;https://www.heureka-leipzig.de/;;51.34003232226003;12.37559781269483;Heureka Gastro GmbH & Co. KG;;1;10:00-21:00;10:00-21:00;10:00-21:00;10:00-21:00;10:00-22:00;10:00-22:00;10:00-21:00;0;;01.12.23=10:00-22:00,02.12.23=10:00-22:00,08.12.23=10:00-22:00,09.12.23=10:00-22:00,15.12.23=10:00-22:00,16.12.23=10:00-22:00,22.12.23=10:00-22:00;freitags und samstags bis 22 Uhr;0;;0;0;;;S1, S2, S3, S4, S5, S5X und S6 bis "Leipzig, Markt";72;1;Imbiss und Getränke
522;Zentrum;Haus NM 03;Heureka Gastro GmbH & Co. KG;Naschmarkt;04109 Leipzig;28.11.23;23.12.23;Heureka Gastro GmbH & Co. KG;10:00-21:00;;https://www.heureka-leipzig.de/;;51.340026067114955;12.375679667027548;Heureka Gastro GmbH & Co. KG;;1;10:00-21:00;10:00-21:00;10:00-21:00;10:00-21:00;10:00-22:00;10:00-22:00;10:00-21:00;0;;01.12.23=10:00-22:00,02.12.23=10:00-22:00,08.12.23=10:00-22:00,09.12.23=10:00-22:00,15.12.23=10:00-22:00,16.12.23=10:00-22:00,22.12.23=10:00-22:00;freitags und samstags bis 22 Uhr;0;;0;0;;;S1, S2, S3, S4, S5, S5X und S6 bis "Leipzig, Markt";72;1;Imbiss und Getränke
514;Zentrum;Haus NM 04;Heureka Gastro GmbH & Co. KG;Naschmarkt;04109 Leipzig;28.11.23;23.12.23;Heureka Gastro GmbH & Co. KG;10:00-21:00;;https://www.heureka-leipzig.de/;;51.3400703497331;12.375622235180808;Heureka Gastro GmbH & Co. KG;;1;10:00-21:00;10:00-21:00;10:00-21:00;10:00-21:00;10:00-22:00;10:00-22:00;10:00-21:00;0;;01.12.23=10:00-22:00,02.12.23=10:00-22:00,08.12.23=10:00-22:00,09.12.23=10:00-22:00,15.12.23=10:00-22:00,16.12.23=10:00-22:00,22.12.23=10:00-22:00;freitags und samstags bis 22 Uhr;0;;0;0;;;S1, S2, S3, S4, S5, S5X und S6 bis "Leipzig, Markt";72;1;Imbiss und Getränke
516;Zentrum;Haus NM 05;Heureka Gastro GmbH & Co. KG;Naschmarkt;04109 Leipzig;28.11.23;23.12.23;Heureka Gastro GmbH & Co. KG;10:00-21:00;;https://www.heureka-leipzig.de/;;51.34006599448024;12.375677385441396;Heureka Gastro GmbH & Co. KG;;1;10:00-21:00;10:00-21:00;10:00-21:00;10:00-21:00;10:00-22:00;10:00-22:00;10:00-21:00;0;;01.12.23=10:00-22:00,02.12.23=10:00-22:00,08.12.23=10:00-22:00,09.12.23=10:00-22:00,15.12.23=10:00-22:00,16.12.23=10:00-22:00,22.12.23=10:00-22:00;freitags und samstags bis 22 Uhr;0;;0;0;;;S1, S2, S3, S4, S5, S5X und S6 bis "Leipzig, Markt";72;1;Imbiss und Getränke
711;Zentrum;Haus NM 06;Fladenbäcker Sprafke, Huke, Guter GbR;Naschmarkt;04109 Leipzig;28.11.23;23.12.23;Fladenbäcker Sprafke, Huke, Guter GbR;10:00-21:00;;https://www.leipzig.de/freizeit-kultur-und-tourismus/veranstaltungen-und-termine/eventsingle/event/leipziger-weihnachtsmarkt-2023;;51.34014372322233;12.375720775929102;Fladenbäcker Sprafke, Huke, Guter GbR;;1;10:00-21:00;10:00-21:00;10:00-21:00;10:00-21:00;10:00-22:00;10:00-22:00;10:00-21:00;0;;01.12.23=10:00-22:00,02.12.23=10:00-22:00,08.12.23=10:00-22:00,09.12.23=10:00-22:00,15.12.23=10:00-22:00,16.12.23=10:00-22:00,22.12.23=10:00-22:00;freitags und samstags bis 22 Uhr;0;;0;0;;;S1, S2, S3, S4, S5, S5X und S6 bis "Leipzig, Markt";72;1;Imbiss und Getränke
610;Zentrum;Haus NM 07;Dörthe Siefken;Naschmarkt;04109 Leipzig;28.11.23;23.12.23;Dörthe Siefken;10:00-21:00;;https://www.leipzig.de/freizeit-kultur-und-tourismus/veranstaltungen-und-termine/eventsingle/event/leipziger-weihnachtsmarkt-2023;;51.340137672849345;12.375657862846998;Dörthe Siefken;;1;10:00-21:00;10:00-21:00;10:00-21:00;10:00-21:00;10:00-22:00;10:00-22:00;10:00-21:00;0;;01.12.23=10:00-22:00,02.12.23=10:00-22:00,08.12.23=10:00-22:00,09.12.23=10:00-22:00,15.12.23=10:00-22:00,16.12.23=10:00-22:00,22.12.23=10:00-22:00;freitags und samstags bis 22 Uhr;0;;0;0;;;S1, S2, S3, S4, S5, S5X und S6 bis "Leipzig, Markt";72;1;Handel und Handwerk
612;Zentrum;Haus NM 08;Töpfer Thomas Böhme;Naschmarkt;04109 Leipzig;28.11.23;23.12.23;Töpfer Thomas Böhme;10:00-21:00;;https://www.leipzig.de/freizeit-kultur-und-tourismus/veranstaltungen-und-termine/eventsingle/event/leipziger-weihnachtsmarkt-2023;;51.340162606144034;12.375665245587708;Töpfer Thomas Böhme;;1;10:00-21:00;10:00-21:00;10:00-21:00;10:00-21:00;10:00-22:00;10:00-22:00;10:00-21:00;0;;01.12.23=10:00-22:00,02.12.23=10:00-22:00,08.12.23=10:00-22:00,09.12.23=10:00-22:00,15.12.23=10:00-22:00,16.12.23=10:00-22:00,22.12.23=10:00-22:00;freitags und samstags bis 22 Uhr;0;;0;0;;;S1, S2, S3, S4, S5, S5X und S6 bis "Leipzig, Markt";72;1;Handel und Handwerk
508;Zentrum;Haus NM 09;Süßigkeiten Magdalena Teubert;Naschmarkt;04109 Leipzig;28.11.23;23.12.23;Süßigkeiten Magdalena Teubert;10:00-21:00;;https://www.leipzig.de/freizeit-kultur-und-tourismus/veranstaltungen-und-termine/eventsingle/event/leipziger-weihnachtsmarkt-2023;;51.34015141484155;12.375602176090856;Süßigkeiten Magdalena Teubert;;1;10:00-21:00;10:00-21:00;10:00-21:00;10:00-21:00;10:00-22:00;10:00-22:00;10:00-21:00;0;;01.12.23=10:00-22:00,02.12.23=10:00-22:00,08.12.23=10:00-22:00,09.12.23=10:00-22:00,15.12.23=10:00-22:00,16.12.23=10:00-22:00,22.12.23=10:00-22:00;freitags und samstags bis 22 Uhr;0;;0;0;;;S1, S2, S3, S4, S5, S5X und S6 bis "Leipzig, Markt";72;1;Süßwaren
611;Zentrum;Haus NM 10;Tischlermeister Robby Winkler;Naschmarkt;04109 Leipzig;28.11.23;23.12.23;Tischlermeister Robby Winkler;10:00-21:00;;https://www.leipzig.de/freizeit-kultur-und-tourismus/veranstaltungen-und-termine/eventsingle/event/leipziger-weihnachtsmarkt-2023;;51.34022584818942;12.375610461485092;Tischlermeister Robby Winkler;;1;10:00-21:00;10:00-21:00;10:00-21:00;10:00-21:00;10:00-22:00;10:00-22:00;10:00-21:00;0;;01.12.23=10:00-22:00,02.12.23=10:00-22:00,08.12.23=10:00-22:00,09.12.23=10:00-22:00,15.12.23=10:00-22:00,16.12.23=10:00-22:00,22.12.23=10:00-22:00;freitags und samstags bis 22 Uhr;0;;0;0;;;S1, S2, S3, S4, S5, S5X und S6 bis "Leipzig, Markt";72;1;Handel und Handwerk
518;Zentrum;Haus NM 11;Heureka Gastro GmbH & Co. KG;Naschmarkt;04109 Leipzig;28.11.23;23.12.23;Heureka Gastro GmbH & Co. KG;10:00-21:00;;https://www.heureka-leipzig.de/;;51.34026763404846;12.375625023879651;Heureka Gastro GmbH & Co. KG;;1;10:00-21:00;10:00-21:00;10:00-21:00;10:00-21:00;10:00-22:00;10:00-22:00;10:00-21:00;0;;01.12.23=10:00-22:00,02.12.23=10:00-22:00,08.12.23=10:00-22:00,09.12.23=10:00-22:00,15.12.23=10:00-22:00,16.12.23=10:00-22:00,22.12.23=10:00-22:00;freitags und samstags bis 22 Uhr;0;;0;0;;;S1, S2, S3, S4, S5, S5X und S6 bis "Leipzig, Markt";72;1;Imbiss und Getränke
517;Zentrum;Haus NM 12;Heureka Gastro GmbH & Co. KG;Naschmarkt;04109 Leipzig;28.11.23;23.12.23;Heureka Gastro GmbH & Co. KG;10:00-21:00;;https://www.heureka-leipzig.de/;;51.3402482681662;12.37574067674882;Heureka Gastro GmbH & Co. KG;;1;10:00-21:00;10:00-21:00;10:00-21:00;10:00-21:00;10:00-22:00;10:00-22:00;10:00-21:00;0;;01.12.23=10:00-22:00,02.12.23=10:00-22:00,08.12.23=10:00-22:00,09.12.23=10:00-22:00,15.12.23=10:00-22:00,16.12.23=10:00-22:00,22.12.23=10:00-22:00;freitags und samstags bis 22 Uhr;0;;0;0;;;S1, S2, S3, S4, S5, S5X und S6 bis "Leipzig, Markt";72;1;Imbiss und Getränke
515;Zentrum;Haus NM 13;Heureka Gastro GmbH & Co. KG;Naschmarkt;04109 Leipzig;28.11.23;23.12.23;Heureka Gastro GmbH & Co. KG;10:00-21:00;;https://www.heureka-leipzig.de/;;51.34032538538714;12.375686803123454;Heureka Gastro GmbH & Co. KG;;1;10:00-21:00;10:00-21:00;10:00-21:00;10:00-21:00;10:00-22:00;10:00-22:00;10:00-21:00;0;;01.12.23=10:00-22:00,02.12.23=10:00-22:00,08.12.23=10:00-22:00,09.12.23=10:00-22:00,15.12.23=10:00-22:00,16.12.23=10:00-22:00,22.12.23=10:00-22:00;freitags und samstags bis 22 Uhr;0;;0;0;;;S1, S2, S3, S4, S5, S5X und S6 bis "Leipzig, Markt";72;1;Imbiss und Getränke
614;Zentrum;Haus NM 14;Räucherwarenbasar Matthias Kellner;Naschmarkt;04109 Leipzig;28.11.23;23.12.23;Räucherwarenbasar Matthias Kellner;10:00-21:00;;https://www.leipzig.de/freizeit-kultur-und-tourismus/veranstaltungen-und-termine/eventsingle/event/leipziger-weihnachtsmarkt-2023;;51.340388798033125;12.375615529153416;Räucherwarenbasar Matthias Kellner;;1;10:00-21:00;10:00-21:00;10:00-21:00;10:00-21:00;10:00-22:00;10:00-22:00;10:00-21:00;0;;01.12.23=10:00-22:00,02.12.23=10:00-22:00,08.12.23=10:00-22:00,09.12.23=10:00-22:00,15.12.23=10:00-22:00,16.12.23=10:00-22:00,22.12.23=10:00-22:00;freitags und samstags bis 22 Uhr;0;;0;0;;;S1, S2, S3, S4, S5, S5X und S6 bis "Leipzig, Markt";72;1;Handel und Handwerk
605;Zentrum;Haus NM 15;Küchenmesser Raphael Burkhardt;Naschmarkt;04109 Leipzig;28.11.23;23.12.23;Küchenmesser Raphael Burkhardt;10:00-21:00;;https://www.leipzig.de/freizeit-kultur-und-tourismus/veranstaltungen-und-termine/eventsingle/event/leipziger-weihnachtsmarkt-2023;;51.340381451238045;12.375776091807495;Küchenmesser Raphael Burkhardt;;1;10:00-21:00;10:00-21:00;10:00-21:00;10:00-21:00;10:00-22:00;10:00-22:00;10:00-21:00;0;;01.12.23=10:00-22:00,02.12.23=10:00-22:00,08.12.23=10:00-22:00,09.12.23=10:00-22:00,15.12.23=10:00-22:00,16.12.23=10:00-22:00,22.12.23=10:00-22:00;freitags und samstags bis 22 Uhr;0;;0;0;;;S1, S2, S3, S4, S5, S5X und S6 bis "Leipzig, Markt";72;1;Handel und Handwerk
616;Zentrum;Haus NM 16;Bilder & Miniaturen Mario Knauber;Naschmarkt;04109 Leipzig;28.11.23;23.12.23;Bilder & Miniaturen Mario Knauber;10:00-21:00;;https://www.leipzig.de/freizeit-kultur-und-tourismus/veranstaltungen-und-termine/eventsingle/event/leipziger-weihnachtsmarkt-2023;;51.340481702913635;12.375630508827284;Bilder & Miniaturen Mario Knauber;;1;10:00-21:00;10:00-21:00;10:00-21:00;10:00-21:00;10:00-22:00;10:00-22:00;10:00-21:00;0;;01.12.23=10:00-22:00,02.12.23=10:00-22:00,08.12.23=10:00-22:00,09.12.23=10:00-22:00,15.12.23=10:00-22:00,16.12.23=10:00-22:00,22.12.23=10:00-22:00;freitags und samstags bis 22 Uhr;0;;0;0;;;S1, S2, S3, S4, S5, S5X und S6 bis "Leipzig, Markt";72;1;Handel und Handwerk
618;Zentrum;Haus NM 17;Filzerei Kathleen Dahl;Naschmarkt;04109 Leipzig;28.11.23;23.12.23;Filzerei Kathleen Dahl;10:00-21:00;;https://www.leipzig.de/freizeit-kultur-und-tourismus/veranstaltungen-und-termine/eventsingle/event/leipziger-weihnachtsmarkt-2023;;51.34047712383254;12.375691561354094;Filzerei Kathleen Dahl;;1;10:00-21:00;10:00-21:00;10:00-21:00;10:00-21:00;10:00-22:00;10:00-22:00;10:00-21:00;0;;01.12.23=10:00-22:00,02.12.23=10:00-22:00,08.12.23=10:00-22:00,09.12.23=10:00-22:00,15.12.23=10:00-22:00,16.12.23=10:00-22:00,22.12.23=10:00-22:00;freitags und samstags bis 22 Uhr;0;;0;0;;;S1, S2, S3, S4, S5, S5X und S6 bis "Leipzig, Markt";72;1;Handel und Handwerk
619;Zentrum;Haus NM 18;Lederwaren Peer Carstens;Naschmarkt;04109 Leipzig;28.11.23;23.12.23;Lederwaren Peer Carstens;10:00-21:00;;https://www.peraperis.com/;;51.3404748001707;12.375752483529922;Lederwaren Peer Carstens;;1;10:00-21:00;10:00-21:00;10:00-21:00;10:00-21:00;10:00-22:00;10:00-22:00;10:00-21:00;0;;01.12.23=10:00-22:00,02.12.23=10:00-22:00,08.12.23=10:00-22:00,09.12.23=10:00-22:00,15.12.23=10:00-22:00,16.12.23=10:00-22:00,22.12.23=10:00-22:00;freitags und samstags bis 22 Uhr;0;;0;0;;;S1, S2, S3, S4, S5, S5X und S6 bis "Leipzig, Markt";72;1;Handel und Handwerk
523;Zentrum;Haus NM 19;Hieronymus-Lotter-Gesellschaft;Naschmarkt;04109 Leipzig;28.11.23;23.12.23;Hieronymus-Lotter-Gesellschaft;10:00-21:00;;https://www.lotter-gesellschaft.de/;;51.3405116348767;12.375718321429174;Hieronymus-Lotter-Gesellschaft;;1;10:00-21:00;10:00-21:00;10:00-21:00;10:00-21:00;10:00-22:00;10:00-22:00;10:00-21:00;0;;01.12.23=10:00-22:00,02.12.23=10:00-22:00,08.12.23=10:00-22:00,09.12.23=10:00-22:00,15.12.23=10:00-22:00,16.12.23=10:00-22:00,22.12.23=10:00-22:00;freitags und samstags bis 22 Uhr;0;;0;0;;;S1, S2, S3, S4, S5, S5X und S6 bis "Leipzig, Markt";72;1;Imbiss und Getränke
576;Zentrum;Haus P 01;Die Nüssemacher - K. + S. Neumüller;Petersstraße;04109 Leipzig;28.11.23;23.12.23;Die Nüssemacher - K. + S. Neumüller;10:00-21:00;;https://www.leipzig.de/freizeit-kultur-und-tourismus/veranstaltungen-und-termine/eventsingle/event/leipziger-weihnachtsmarkt-2023;;51.33983432142629;12.374439614450024;Die Nüssemacher - K. + S. Neumüller;;1;10:00-21:00;10:00-21:00;10:00-21:00;10:00-21:00;10:00-22:00;10:00-22:00;10:00-21:00;0;;01.12.23=10:00-22:00,02.12.23=10:00-22:00,08.12.23=10:00-22:00,09.12.23=10:00-22:00,15.12.23=10:00-22:00,16.12.23=10:00-22:00,22.12.23=10:00-22:00;freitags und samstags bis 22 Uhr;0;;0;0;;;S1, S2, S3, S4, S5, S5X und S6 bis "Leipzig, Markt";72;1;Süßwaren
608;Zentrum;Haus P 02;Barbara Kusnik;Petersstraße;04109 Leipzig;28.11.23;23.12.23;Barbara Kusnik;10:00-21:00;;https://www.leipzig.de/freizeit-kultur-und-tourismus/veranstaltungen-und-termine/eventsingle/event/leipziger-weihnachtsmarkt-2023;;51.33978410661146;12.37448091151055;Barbara Kusnik;;1;10:00-21:00;10:00-21:00;10:00-21:00;10:00-21:00;10:00-22:00;10:00-22:00;10:00-21:00;0;;01.12.23=10:00-22:00,02.12.23=10:00-22:00,08.12.23=10:00-22:00,09.12.23=10:00-22:00,15.12.23=10:00-22:00,16.12.23=10:00-22:00,22.12.23=10:00-22:00;freitags und samstags bis 22 Uhr;0;;0;0;;;S1, S2, S3, S4, S5, S5X und S6 bis "Leipzig, Markt";72;1;Handel und Handwerk
756;Zentrum;Haus P 03;Brezialisten - Nancy Enzian;Petersstraße;04109 Leipzig;28.11.23;23.12.23;Brezialisten - Nancy Enzian;10:00-21:00;;https://www.leipzig.de/freizeit-kultur-und-tourismus/veranstaltungen-und-termine/eventsingle/event/leipziger-weihnachtsmarkt-2023;;51.33973680370163;12.374497676333768;Brezialisten - Nancy Enzian;;1;10:00-21:00;10:00-21:00;10:00-21:00;10:00-21:00;10:00-22:00;10:00-22:00;10:00-21:00;0;;01.12.23=10:00-22:00,02.12.23=10:00-22:00,08.12.23=10:00-22:00,09.12.23=10:00-22:00,15.12.23=10:00-22:00,16.12.23=10:00-22:00,22.12.23=10:00-22:00;freitags und samstags bis 22 Uhr;0;;0;0;;;S1, S2, S3, S4, S5, S5X und S6 bis "Leipzig, Markt";72;1;Imbiss und Getränke
574;Zentrum;Haus P 04;Klaus Adam e.K.;Petersstraße;04109 Leipzig;28.11.23;23.12.23;Klaus Adam e.K.;10:00-21:00;;https://www.world-of-christmas.de/;;51.3396872112497;12.374468458101875;Klaus Adam e.K.;;1;10:00-21:00;10:00-21:00;10:00-21:00;10:00-21:00;10:00-22:00;10:00-22:00;10:00-21:00;0;;01.12.23=10:00-22:00,02.12.23=10:00-22:00,08.12.23=10:00-22:00,09.12.23=10:00-22:00,15.12.23=10:00-22:00,16.12.23=10:00-22:00,22.12.23=10:00-22:00;freitags und samstags bis 22 Uhr;0;;0;0;;;S1, S2, S3, S4, S5, S5X und S6 bis "Leipzig, Markt";72;1;Weihnachtliches
609;Zentrum;Haus P 05;Heinz-Bodo Schmidt;Petersstraße;04109 Leipzig;28.11.23;23.12.23;Heinz-Bodo Schmidt;10:00-21:00;;https://www.leipzig.de/freizeit-kultur-und-tourismus/veranstaltungen-und-termine/eventsingle/event/leipziger-weihnachtsmarkt-2023;;51.339627555740776;12.374481169865138;Heinz-Bodo Schmidt;;1;10:00-21:00;10:00-21:00;10:00-21:00;10:00-21:00;10:00-22:00;10:00-22:00;10:00-21:00;0;;01.12.23=10:00-22:00,02.12.23=10:00-22:00,08.12.23=10:00-22:00,09.12.23=10:00-22:00,15.12.23=10:00-22:00,16.12.23=10:00-22:00,22.12.23=10:00-22:00;freitags und samstags bis 22 Uhr;0;;0;0;;;S1, S2, S3, S4, S5, S5X und S6 bis "Leipzig, Markt";72;1;Handel und Handwerk
577;Zentrum;Haus P 06;StiVoTex - Stichservice Vogel;Petersstraße;04109 Leipzig;28.11.23;23.12.23;StiVoTex - Stichservice Vogel;10:00-21:00;;http://www.stickerei-vogel.de;;51.339566818740856;12.374518593414107;StiVoTex - Stichservice Vogel;;1;10:00-21:00;10:00-21:00;10:00-21:00;10:00-21:00;10:00-22:00;10:00-22:00;10:00-21:00;0;;01.12.23=10:00-22:00,02.12.23=10:00-22:00,08.12.23=10:00-22:00,09.12.23=10:00-22:00,15.12.23=10:00-22:00,16.12.23=10:00-22:00,22.12.23=10:00-22:00;freitags und samstags bis 22 Uhr;0;;0;0;;;S1, S2, S3, S4, S5, S5X und S6 bis "Leipzig, Markt";72;1;Weihnachtliches
805;Zentrum;Haus P 07;Katrin Weiß-Hantsche;Petersstraße;04109 Leipzig;28.11.23;23.12.23;Katrin Weiß-Hantsche;10:00-21:00;;https://www.leipzig.de/freizeit-kultur-und-tourismus/veranstaltungen-und-termine/eventsingle/event/leipziger-weihnachtsmarkt-2023;;51.339516361702636;12.374520879132847;Katrin Weiß-Hantsche;;1;10:00-21:00;10:00-21:00;10:00-21:00;10:00-21:00;10:00-22:00;10:00-22:00;10:00-21:00;0;;01.12.23=10:00-22:00,02.12.23=10:00-22:00,08.12.23=10:00-22:00,09.12.23=10:00-22:00,15.12.23=10:00-22:00,16.12.23=10:00-22:00,22.12.23=10:00-22:00;freitags und samstags bis 22 Uhr;0;;0;0;;;S1, S2, S3, S4, S5, S5X und S6 bis "Leipzig, Markt";72;1;Nahrung und Genuss
700;Zentrum;Haus P 08;Schaustellerbetrieb Birgit Sehning;Petersstraße;04109 Leipzig;28.11.23;23.12.23;Schaustellerbetrieb Birgit Sehning;10:00-21:00;;https://www.matti-unternehmensgruppe.de/;;51.33945829790244;12.374491407608117;Schaustellerbetrieb Birgit Sehning;;1;10:00-21:00;10:00-21:00;10:00-21:00;10:00-21:00;10:00-22:00;10:00-22:00;10:00-21:00;0;;01.12.23=10:00-22:00,02.12.23=10:00-22:00,08.12.23=10:00-22:00,09.12.23=10:00-22:00,15.12.23=10:00-22:00,16.12.23=10:00-22:00,22.12.23=10:00-22:00;freitags und samstags bis 22 Uhr;0;;0;0;;;S1, S2, S3, S4, S5, S5X und S6 bis "Leipzig, Markt";72;1;Imbiss und Getränke
762;Zentrum;Haus P 08A;Schaustellerbetrieb Birgit Sehning;Petersstraße;04109 Leipzig;28.11.23;23.12.23;Schaustellerbetrieb Birgit Sehning;10:00-21:00;;https://www.matti-unternehmensgruppe.de/;;51.339496101737815;12.37446888705811;Schaustellerbetrieb Birgit Sehning;;1;10:00-21:00;10:00-21:00;10:00-21:00;10:00-21:00;10:00-22:00;10:00-22:00;10:00-21:00;0;;01.12.23=10:00-22:00,02.12.23=10:00-22:00,08.12.23=10:00-22:00,09.12.23=10:00-22:00,15.12.23=10:00-22:00,16.12.23=10:00-22:00,22.12.23=10:00-22:00;freitags und samstags bis 22 Uhr;0;;0;0;;;S1, S2, S3, S4, S5, S5X und S6 bis "Leipzig, Markt";72;1;Imbiss und Getränke
579;Zentrum;Haus P 09;Schmalzbäckerei Andreas Fischer;Petersstraße;04109 Leipzig;28.11.23;23.12.23;Schmalzbäckerei Andreas Fischer;10:00-21:00;;https://www.leipzig.de/freizeit-kultur-und-tourismus/veranstaltungen-und-termine/eventsingle/event/leipziger-weihnachtsmarkt-2023;;51.33936723267409;12.374513554461721;Schmalzbäckerei Andreas Fischer;;1;10:00-21:00;10:00-21:00;10:00-21:00;10:00-21:00;10:00-22:00;10:00-22:00;10:00-21:00;0;;01.12.23=10:00-22:00,02.12.23=10:00-22:00,08.12.23=10:00-22:00,09.12.23=10:00-22:00,15.12.23=10:00-22:00,16.12.23=10:00-22:00,22.12.23=10:00-22:00;freitags und samstags bis 22 Uhr;0;;0;0;;;S1, S2, S3, S4, S5, S5X und S6 bis "Leipzig, Markt";72;1;Süßwaren
533;Zentrum;Haus P 10;Huss Räucherkerzenherstellung;Petersstraße;04109 Leipzig;28.11.23;23.12.23;Huss Räucherkerzenherstellung;10:00-21:00;;https://juergen-huss.de/;;51.33933442585055;12.374509979855965;Huss Räucherkerzenherstellung;;1;10:00-21:00;10:00-21:00;10:00-21:00;10:00-21:00;10:00-22:00;10:00-22:00;10:00-21:00;0;;01.12.23=10:00-22:00,02.12.23=10:00-22:00,08.12.23=10:00-22:00,09.12.23=10:00-22:00,15.12.23=10:00-22:00,16.12.23=10:00-22:00,22.12.23=10:00-22:00;freitags und samstags bis 22 Uhr;0;;0;0;;;S1, S2, S3, S4, S5, S5X und S6 bis "Leipzig, Markt";72;1;Weihnachtliches
696;Zentrum;Haus P 11;Kelterei Manufaktur Michael D. Oese;Petersstraße;04109 Leipzig;28.11.23;23.12.23;Kelterei Manufaktur Michael D. Oese;10:00-21:00;;https://www.kelterei-oese.de/start/;;51.33917123930157;12.374531615451039;Kelterei Manufaktur Michael D. Oese;;1;10:00-21:00;10:00-21:00;10:00-21:00;10:00-21:00;10:00-22:00;10:00-22:00;10:00-21:00;0;;01.12.23=10:00-22:00,02.12.23=10:00-22:00,08.12.23=10:00-22:00,09.12.23=10:00-22:00,15.12.23=10:00-22:00,16.12.23=10:00-22:00,22.12.23=10:00-22:00;freitags und samstags bis 22 Uhr;0;;0;0;;;S1, S2, S3, S4, S5, S5X und S6 bis "Leipzig, Markt";72;1;Imbiss und Getränke
752;Zentrum;Haus P 11A;Kelterei Manufaktur Michael D. Oese;Petersstraße;04109 Leipzig;28.11.23;23.12.23;Kelterei Manufaktur Michael D. Oese;10:00-21:00;;https://www.kelterei-oese.de/start/;;51.33945178075424;12.374283676890427;Kelterei Manufaktur Michael D. Oese;;1;10:00-21:00;10:00-21:00;10:00-21:00;10:00-21:00;10:00-22:00;10:00-22:00;10:00-21:00;0;;01.12.23=10:00-22:00,02.12.23=10:00-22:00,08.12.23=10:00-22:00,09.12.23=10:00-22:00,15.12.23=10:00-22:00,16.12.23=10:00-22:00,22.12.23=10:00-22:00;freitags und samstags bis 22 Uhr;0;;0;0;;;S1, S2, S3, S4, S5, S5X und S6 bis "Leipzig, Markt";72;1;Imbiss und Getränke
761;Zentrum;Haus P 11A;Kelterei Manufaktur Michael D. Oese;Petersstraße;04109 Leipzig;28.11.23;23.12.23;Kelterei Manufaktur Michael D. Oese;10:00-21:00;;https://www.kelterei-oese.de/start/;;51.33944628121211;12.374220765861695;Kelterei Manufaktur Michael D. Oese;;1;10:00-21:00;10:00-21:00;10:00-21:00;10:00-21:00;10:00-22:00;10:00-22:00;10:00-21:00;0;;01.12.23=10:00-22:00,02.12.23=10:00-22:00,08.12.23=10:00-22:00,09.12.23=10:00-22:00,15.12.23=10:00-22:00,16.12.23=10:00-22:00,22.12.23=10:00-22:00;freitags und samstags bis 22 Uhr;0;;0;0;;;S1, S2, S3, S4, S5, S5X und S6 bis "Leipzig, Markt";72;1;Imbiss und Getränke
580;Zentrum;Haus P 12;Backzauber GbR;Petersstraße;04109 Leipzig;28.11.23;23.12.23;Backzauber GbR;10:00-21:00;;https://www.leipzig.de/freizeit-kultur-und-tourismus/veranstaltungen-und-termine/eventsingle/event/leipziger-weihnachtsmarkt-2023;;51.33911639230265;12.374601717312817;Backzauber GbR;;1;10:00-21:00;10:00-21:00;10:00-21:00;10:00-21:00;10:00-22:00;10:00-22:00;10:00-21:00;0;;01.12.23=10:00-22:00,02.12.23=10:00-22:00,08.12.23=10:00-22:00,09.12.23=10:00-22:00,15.12.23=10:00-22:00,16.12.23=10:00-22:00,22.12.23=10:00-22:00;freitags und samstags bis 22 Uhr;0;;0;0;;;S1, S2, S3, S4, S5, S5X und S6 bis "Leipzig, Markt";72;1;Süßwaren
768;Zentrum;Haus P 13;Finefoodandmore - Jürgen Kliemann;Petersstraße;04109 Leipzig;28.11.23;23.12.23;Finefoodandmore - Jürgen Kliemann;10:00-21:00;;http://www.finefoodandmore.de;;51.33906720041203;12.374608079718223;Finefoodandmore - Jürgen Kliemann;;1;10:00-21:00;10:00-21:00;10:00-21:00;10:00-21:00;10:00-22:00;10:00-22:00;10:00-21:00;0;;01.12.23=10:00-22:00,02.12.23=10:00-22:00,08.12.23=10:00-22:00,09.12.23=10:00-22:00,15.12.23=10:00-22:00,16.12.23=10:00-22:00,22.12.23=10:00-22:00;freitags und samstags bis 22 Uhr;0;;0;0;;;S1, S2, S3, S4, S5, S5X und S6 bis "Leipzig, Markt";72;1;Nahrung und Genuss
776;Zentrum;Haus P 14;Finefoodandmore - Jürgen Kliemann;Petersstraße;04109 Leipzig;28.11.23;23.12.23;Finefoodandmore - Jürgen Kliemann;10:00-21:00;;http://www.finefoodandmore.de;;51.33900188111564;12.374624972922208;Finefoodandmore - Jürgen Kliemann;;1;10:00-21:00;10:00-21:00;10:00-21:00;10:00-21:00;10:00-22:00;10:00-22:00;10:00-21:00;0;;01.12.23=10:00-22:00,02.12.23=10:00-22:00,08.12.23=10:00-22:00,09.12.23=10:00-22:00,15.12.23=10:00-22:00,16.12.23=10:00-22:00,22.12.23=10:00-22:00;freitags und samstags bis 22 Uhr;0;;0;0;;;S1, S2, S3, S4, S5, S5X und S6 bis "Leipzig, Markt";72;1;Imbiss und Getränke
703;Zentrum;Haus P 15;Schaustellerbetrieb Diana Scheffler-Fietkau;Petersstraße;04109 Leipzig;28.11.23;23.12.23;Schaustellerbetrieb Diana Scheffler-Fietkau;10:00-21:00;;https://www.leipzig.de/freizeit-kultur-und-tourismus/veranstaltungen-und-termine/eventsingle/event/leipziger-weihnachtsmarkt-2023;;51.33890729960998;12.374577402536312;Schaustellerbetrieb Diana Scheffler-Fietkau;;1;10:00-21:00;10:00-21:00;10:00-21:00;10:00-21:00;10:00-22:00;10:00-22:00;10:00-21:00;0;;01.12.23=10:00-22:00,02.12.23=10:00-22:00,08.12.23=10:00-22:00,09.12.23=10:00-22:00,15.12.23=10:00-22:00,16.12.23=10:00-22:00,22.12.23=10:00-22:00;freitags und samstags bis 22 Uhr;0;;0;0;;;S1, S2, S3, S4, S5, S5X und S6 bis "Leipzig, Markt";72;1;Imbiss und Getränke
704;Zentrum;Haus P 16;Langos - Kathrin Naumann;Petersstraße;04109 Leipzig;28.11.23;23.12.23;Langos - Kathrin Naumann;10:00-21:00;;https://www.leipzig.de/freizeit-kultur-und-tourismus/veranstaltungen-und-termine/eventsingle/event/leipziger-weihnachtsmarkt-2023;;51.33900784415027;12.374538161542635;Langos - Kathrin Naumann;;1;10:00-21:00;10:00-21:00;10:00-21:00;10:00-21:00;10:00-22:00;10:00-22:00;10:00-21:00;0;;01.12.23=10:00-22:00,02.12.23=10:00-22:00,08.12.23=10:00-22:00,09.12.23=10:00-22:00,15.12.23=10:00-22:00,16.12.23=10:00-22:00,22.12.23=10:00-22:00;freitags und samstags bis 22 Uhr;0;;0;0;;;S1, S2, S3, S4, S5, S5X und S6 bis "Leipzig, Markt";72;1;Imbiss und Getränke
581;Zentrum;Haus P 17;Thomas Reinhold;Petersstraße;04109 Leipzig;28.11.23;23.12.23;Thomas Reinhold;10:00-21:00;;https://www.leipzig.de/freizeit-kultur-und-tourismus/veranstaltungen-und-termine/eventsingle/event/leipziger-weihnachtsmarkt-2023;;51.33906025452043;12.374534358722093;Thomas Reinhold;;1;10:00-21:00;10:00-21:00;10:00-21:00;10:00-21:00;10:00-22:00;10:00-22:00;10:00-21:00;0;;01.12.23=10:00-22:00,02.12.23=10:00-22:00,08.12.23=10:00-22:00,09.12.23=10:00-22:00,15.12.23=10:00-22:00,16.12.23=10:00-22:00,22.12.23=10:00-22:00;freitags und samstags bis 22 Uhr;0;;0;0;;;S1, S2, S3, S4, S5, S5X und S6 bis "Leipzig, Markt";72;1;Weihnachtliches
571;Zentrum;Haus P 18;Wiener Mandeln - Dietmar Dengler;Petersstraße;04109 Leipzig;28.11.23;23.12.23;Wiener Mandeln - Dietmar Dengler;10:00-21:00;;https://www.leipzig.de/freizeit-kultur-und-tourismus/veranstaltungen-und-termine/eventsingle/event/leipziger-weihnachtsmarkt-2023;;51.339124533954084;12.374525628461996;Wiener Mandeln - Dietmar Dengler;;1;10:00-21:00;10:00-21:00;10:00-21:00;10:00-21:00;10:00-22:00;10:00-22:00;10:00-21:00;0;;01.12.23=10:00-22:00,02.12.23=10:00-22:00,08.12.23=10:00-22:00,09.12.23=10:00-22:00,15.12.23=10:00-22:00,16.12.23=10:00-22:00,22.12.23=10:00-22:00;freitags und samstags bis 22 Uhr;0;;0;0;;;S1, S2, S3, S4, S5, S5X und S6 bis "Leipzig, Markt";72;1;Süßwaren
539;Zentrum;Haus P 19;DWU-Drechselwerkstatt Uhlig;Petersstraße;04109 Leipzig;28.11.23;23.12.23;DWU-Drechselwerkstatt Uhlig;10:00-21:00;;https://www.wichtelstuebl.de/;;51.33953809610884;12.374468473944296;DWU-Drechselwerkstatt Uhlig;;1;10:00-21:00;10:00-21:00;10:00-21:00;10:00-21:00;10:00-22:00;10:00-22:00;10:00-21:00;0;;01.12.23=10:00-22:00,02.12.23=10:00-22:00,08.12.23=10:00-22:00,09.12.23=10:00-22:00,15.12.23=10:00-22:00,16.12.23=10:00-22:00,22.12.23=10:00-22:00;freitags und samstags bis 22 Uhr;0;;0;0;;;S1, S2, S3, S4, S5, S5X und S6 bis "Leipzig, Markt";72;1;Weihnachtliches
791;Zentrum;Haus P 20;Pasiina Oy - Arktischer Honig;Petersstraße;04109 Leipzig;28.11.23;23.12.23;Pasiina Oy - Arktischer Honig;10:00-21:00;;https://www.arktischer-honig.com/de/;;51.339583790891844;12.374462487560018;Pasiina Oy - Arktischer Honig;;1;10:00-21:00;10:00-21:00;10:00-21:00;10:00-21:00;10:00-22:00;10:00-22:00;10:00-21:00;0;;01.12.23=10:00-22:00,02.12.23=10:00-22:00,08.12.23=10:00-22:00,09.12.23=10:00-22:00,15.12.23=10:00-22:00,16.12.23=10:00-22:00,22.12.23=10:00-22:00;freitags und samstags bis 22 Uhr;0;;0;0;;;S1, S2, S3, S4, S5, S5X und S6 bis "Leipzig, Markt";72;1;Nahrung und Genuss
655;Zentrum;Haus P 21;Frank Liebscher;Petersstraße;04109 Leipzig;28.11.23;23.12.23;Frank Liebscher;10:00-21:00;;https://www.leipzig.de/freizeit-kultur-und-tourismus/veranstaltungen-und-termine/eventsingle/event/leipziger-weihnachtsmarkt-2023;;51.33972826186019;12.374439593698078;Frank Liebscher;;1;10:00-21:00;10:00-21:00;10:00-21:00;10:00-21:00;10:00-22:00;10:00-22:00;10:00-21:00;0;;01.12.23=10:00-22:00,02.12.23=10:00-22:00,08.12.23=10:00-22:00,09.12.23=10:00-22:00,15.12.23=10:00-22:00,16.12.23=10:00-22:00,22.12.23=10:00-22:00;freitags und samstags bis 22 Uhr;0;;0;0;;;S1, S2, S3, S4, S5, S5X und S6 bis "Leipzig, Markt";72;1;Handel und Handwerk
783;Zentrum;Haus P 22;Fleischerei Mike Müller;Petersstraße;04109 Leipzig;28.11.23;23.12.23;Fleischerei Mike Müller;10:00-21:00;;https://www.leipzig.de/freizeit-kultur-und-tourismus/veranstaltungen-und-termine/eventsingle/event/leipziger-weihnachtsmarkt-2023;;51.33978683225276;12.374419976526369;Fleischerei Mike Müller;;1;10:00-21:00;10:00-21:00;10:00-21:00;10:00-21:00;10:00-22:00;10:00-22:00;10:00-21:00;0;;01.12.23=10:00-22:00,02.12.23=10:00-22:00,08.12.23=10:00-22:00,09.12.23=10:00-22:00,15.12.23=10:00-22:00,16.12.23=10:00-22:00,22.12.23=10:00-22:00;freitags und samstags bis 22 Uhr;0;;0;0;;;S1, S2, S3, S4, S5, S5X und S6 bis "Leipzig, Markt";72;1;Nahrung und Genuss
705;Zentrum;Haus R 01;Schaustellerbetrieb Silvio Fischer;Reichsstraße;04109 Leipzig;28.11.23;23.12.23;Schaustellerbetrieb Silvio Fischer;10:00-21:00;;https://www.leipzig.de/freizeit-kultur-und-tourismus/veranstaltungen-und-termine/eventsingle/event/leipziger-weihnachtsmarkt-2023;;51.34164901933075;12.3764637801214;Schaustellerbetrieb Silvio Fischer;;1;10:00-21:00;10:00-21:00;10:00-21:00;10:00-21:00;10:00-22:00;10:00-22:00;10:00-21:00;0;;01.12.23=10:00-22:00,02.12.23=10:00-22:00,08.12.23=10:00-22:00,09.12.23=10:00-22:00,15.12.23=10:00-22:00,16.12.23=10:00-22:00,22.12.23=10:00-22:00;freitags und samstags bis 22 Uhr;0;;0;0;;;S1, S2, S3, S4, S5, S5X und S6 bis "Leipzig, Markt";72;1;Imbiss und Getränke
736;Zentrum;Haus R 01A;Schaustellerbetrieb Silvio Fischer;Reichsstraße;04109 Leipzig;28.11.23;23.12.23;Schaustellerbetrieb Silvio Fischer;10:00-21:00;;https://www.leipzig.de/freizeit-kultur-und-tourismus/veranstaltungen-und-termine/eventsingle/event/leipziger-weihnachtsmarkt-2023;;51.34165013678268;12.37637883685835;Schaustellerbetrieb Silvio Fischer;;1;10:00-21:00;10:00-21:00;10:00-21:00;10:00-21:00;10:00-22:00;10:00-22:00;10:00-21:00;0;;01.12.23=10:00-22:00,02.12.23=10:00-22:00,08.12.23=10:00-22:00,09.12.23=10:00-22:00,15.12.23=10:00-22:00,16.12.23=10:00-22:00,22.12.23=10:00-22:00;freitags und samstags bis 22 Uhr;0;;0;0;;;S1, S2, S3, S4, S5, S5X und S6 bis "Leipzig, Markt";72;1;Imbiss und Getränke
759;Zentrum;Haus R 02;Trdelnik Radek Luka;Reichsstraße;04109 Leipzig;28.11.23;23.12.23;Trdelnik Radek Luka;10:00-21:00;;http://www.trdelnik.com;;51.341490805187014;12.376514472109971;Trdelnik Radek Luka;;1;10:00-21:00;10:00-21:00;10:00-21:00;10:00-21:00;10:00-22:00;10:00-22:00;10:00-21:00;0;;01.12.23=10:00-22:00,02.12.23=10:00-22:00,08.12.23=10:00-22:00,09.12.23=10:00-22:00,15.12.23=10:00-22:00,16.12.23=10:00-22:00,22.12.23=10:00-22:00;freitags und samstags bis 22 Uhr;0;;0;0;;;S1, S2, S3, S4, S5, S5X und S6 bis "Leipzig, Markt";72;1;Imbiss und Getränke
509;Zentrum;Haus R 03;Captain Lekkerbek;Reichsstraße;04109 Leipzig;28.11.23;23.12.23;Captain Lekkerbek;10:00-21:00;;https://www.leipzig.de/freizeit-kultur-und-tourismus/veranstaltungen-und-termine/eventsingle/event/leipziger-weihnachtsmarkt-2023;;51.341419528448455;12.376509375467586;Captain Lekkerbek;;1;10:00-21:00;10:00-21:00;10:00-21:00;10:00-21:00;10:00-22:00;10:00-22:00;10:00-21:00;0;;01.12.23=10:00-22:00,02.12.23=10:00-22:00,08.12.23=10:00-22:00,09.12.23=10:00-22:00,15.12.23=10:00-22:00,16.12.23=10:00-22:00,22.12.23=10:00-22:00;freitags und samstags bis 22 Uhr;0;;0;0;;;S1, S2, S3, S4, S5, S5X und S6 bis "Leipzig, Markt";72;1;Imbiss und Getränke
758;Zentrum;Haus R 04;Schaustellerbetrieb Danny Ortelt;Reichsstraße;04109 Leipzig;28.11.23;23.12.23;Schaustellerbetrieb Danny Ortelt;10:00-21:00;;https://www.leipzig.de/freizeit-kultur-und-tourismus/veranstaltungen-und-termine/eventsingle/event/leipziger-weihnachtsmarkt-2023;;51.34135851259393;12.376507275109034;Schaustellerbetrieb Danny Ortelt;;1;10:00-21:00;10:00-21:00;10:00-21:00;10:00-21:00;10:00-22:00;10:00-22:00;10:00-21:00;0;;01.12.23=10:00-22:00,02.12.23=10:00-22:00,08.12.23=10:00-22:00,09.12.23=10:00-22:00,15.12.23=10:00-22:00,16.12.23=10:00-22:00,22.12.23=10:00-22:00;freitags und samstags bis 22 Uhr;0;;0;0;;;S1, S2, S3, S4, S5, S5X und S6 bis "Leipzig, Markt";72;1;Imbiss und Getränke
624;Zentrum;Haus R 05;Schaustellerbetrieb Camillo Franzelius;Reichsstraße;04109 Leipzig;28.11.23;23.12.23;Schaustellerbetrieb Camillo Franzelius;10:00-21:00;;http://www.breakdancer-no1.de;;51.341245048684776;12.376489854034963;Schaustellerbetrieb Camillo Franzelius;;1;10:00-21:00;10:00-21:00;10:00-21:00;10:00-21:00;10:00-22:00;10:00-22:00;10:00-21:00;0;;01.12.23=10:00-22:00,02.12.23=10:00-22:00,08.12.23=10:00-22:00,09.12.23=10:00-22:00,15.12.23=10:00-22:00,16.12.23=10:00-22:00,22.12.23=10:00-22:00;freitags und samstags bis 22 Uhr;0;;0;0;;;S1, S2, S3, S4, S5, S5X und S6 bis "Leipzig, Markt";72;1;Süßwaren
774;Zentrum;Haus R 06;Tiroler Spezialitätenhandel - Michael Esters;Reichsstraße;04109 Leipzig;28.11.23;23.12.23;Tiroler Spezialitätenhandel - Michael Esters;10:00-21:00;;https://www.tiroler-delikatessen.de/;;51.34118553921572;12.376481929374357;Tiroler Spezialitätenhandel - Michael Esters;;1;10:00-21:00;10:00-21:00;10:00-21:00;10:00-21:00;10:00-22:00;10:00-22:00;10:00-21:00;0;;01.12.23=10:00-22:00,02.12.23=10:00-22:00,08.12.23=10:00-22:00,09.12.23=10:00-22:00,15.12.23=10:00-22:00,16.12.23=10:00-22:00,22.12.23=10:00-22:00;freitags und samstags bis 22 Uhr;0;;0;0;;;S1, S2, S3, S4, S5, S5X und S6 bis "Leipzig, Markt";72;1;Nahrung und Genuss
582;Zentrum;Haus R 07;Anett Kirschner;Reichsstraße;04109 Leipzig;28.11.23;23.12.23;Anett Kirschner;10:00-21:00;;https://www.leipzig.de/freizeit-kultur-und-tourismus/veranstaltungen-und-termine/eventsingle/event/leipziger-weihnachtsmarkt-2023;;51.34112797944447;12.376472481089387;Anett Kirschner;;1;10:00-21:00;10:00-21:00;10:00-21:00;10:00-21:00;10:00-22:00;10:00-22:00;10:00-21:00;0;;01.12.23=10:00-22:00,02.12.23=10:00-22:00,08.12.23=10:00-22:00,09.12.23=10:00-22:00,15.12.23=10:00-22:00,16.12.23=10:00-22:00,22.12.23=10:00-22:00;freitags und samstags bis 22 Uhr;0;;0;0;;;S1, S2, S3, S4, S5, S5X und S6 bis "Leipzig, Markt";72;1;Bekleidung und Textil
563;Zentrum;Haus R 08;SIKORA Weihnachtswelt;Reichsstraße;04109 Leipzig;28.11.23;23.12.23;SIKORA Weihnachtswelt;10:00-21:00;;https://www.sikora-weihnachtswelt.de/;;51.341059705754205;12.376465148292988;SIKORA Weihnachtswelt;;1;10:00-21:00;10:00-21:00;10:00-21:00;10:00-21:00;10:00-22:00;10:00-22:00;10:00-21:00;0;;01.12.23=10:00-22:00,02.12.23=10:00-22:00,08.12.23=10:00-22:00,09.12.23=10:00-22:00,15.12.23=10:00-22:00,16.12.23=10:00-22:00,22.12.23=10:00-22:00;freitags und samstags bis 22 Uhr;0;;0;0;;;S1, S2, S3, S4, S5, S5X und S6 bis "Leipzig, Markt";72;1;Weihnachtliches
743;Zentrum;Haus R 09;Schaustellerbetrieb Silvia Felber;Reichsstraße;04109 Leipzig;28.11.23;23.12.23;Schaustellerbetrieb Silvia Felber;10:00-21:00;;https://www.leipzig.de/freizeit-kultur-und-tourismus/veranstaltungen-und-termine/eventsingle/event/leipziger-weihnachtsmarkt-2023;;51.34100078914041;12.376479946069747;Schaustellerbetrieb Silvia Felber;;1;10:00-21:00;10:00-21:00;10:00-21:00;10:00-21:00;10:00-22:00;10:00-22:00;10:00-21:00;0;;01.12.23=10:00-22:00,02.12.23=10:00-22:00,08.12.23=10:00-22:00,09.12.23=10:00-22:00,15.12.23=10:00-22:00,16.12.23=10:00-22:00,22.12.23=10:00-22:00;freitags und samstags bis 22 Uhr;0;;0;0;;;S1, S2, S3, S4, S5, S5X und S6 bis "Leipzig, Markt";72;1;Imbiss und Getränke
583;Zentrum;Haus R 10;Schaustellerbetrieb René Kirchner;Reichsstraße;04109 Leipzig;28.11.23;23.12.23;Schaustellerbetrieb René Kirchner;10:00-21:00;;https://www.leipzig.de/freizeit-kultur-und-tourismus/veranstaltungen-und-termine/eventsingle/event/leipziger-weihnachtsmarkt-2023;;51.341005523002885;12.376571933214246;Schaustellerbetrieb René Kirchner;;1;10:00-21:00;10:00-21:00;10:00-21:00;10:00-21:00;10:00-22:00;10:00-22:00;10:00-21:00;0;;01.12.23=10:00-22:00,02.12.23=10:00-22:00,08.12.23=10:00-22:00,09.12.23=10:00-22:00,15.12.23=10:00-22:00,16.12.23=10:00-22:00,22.12.23=10:00-22:00;freitags und samstags bis 22 Uhr;0;;0;0;;;S1, S2, S3, S4, S5, S5X und S6 bis "Leipzig, Markt";72;1;Süßwaren
726;Zentrum;Haus R 11;Schaustellerbetrieb Carola Kirchner;Reichsstraße;04109 Leipzig;28.11.23;23.12.23;Schaustellerbetrieb Carola Kirchner;10:00-21:00;;https://www.leipzig.de/freizeit-kultur-und-tourismus/veranstaltungen-und-termine/eventsingle/event/leipziger-weihnachtsmarkt-2023;;51.34100774875916;12.376657658146728;Schaustellerbetrieb Carola Kirchner;;1;10:00-21:00;10:00-21:00;10:00-21:00;10:00-21:00;10:00-22:00;10:00-22:00;10:00-21:00;0;;01.12.23=10:00-22:00,02.12.23=10:00-22:00,08.12.23=10:00-22:00,09.12.23=10:00-22:00,15.12.23=10:00-22:00,16.12.23=10:00-22:00,22.12.23=10:00-22:00;freitags und samstags bis 22 Uhr;0;;0;0;;;S1, S2, S3, S4, S5, S5X und S6 bis "Leipzig, Markt";72;1;Imbiss und Getränke
584;Zentrum;Haus R 12;Schaustellerbetrieb Silvia Felber;Reichsstraße;04109 Leipzig;28.11.23;23.12.23;Schaustellerbetrieb Silvia Felber;10:00-21:00;;https://www.leipzig.de/freizeit-kultur-und-tourismus/veranstaltungen-und-termine/eventsingle/event/leipziger-weihnachtsmarkt-2023;;51.34087461599513;12.376540631932647;Schaustellerbetrieb Silvia Felber;;1;10:00-21:00;10:00-21:00;10:00-21:00;10:00-21:00;10:00-22:00;10:00-22:00;10:00-21:00;0;;01.12.23=10:00-22:00,02.12.23=10:00-22:00,08.12.23=10:00-22:00,09.12.23=10:00-22:00,15.12.23=10:00-22:00,16.12.23=10:00-22:00,22.12.23=10:00-22:00;freitags und samstags bis 22 Uhr;0;;0;0;;;S1, S2, S3, S4, S5, S5X und S6 bis "Leipzig, Markt";72;1;Fahrgeschäft
644;Zentrum;Haus R 12A;Schaustellerbetrieb Silvia Felber;Reichsstraße;04109 Leipzig;28.11.23;23.12.23;Schaustellerbetrieb Silvia Felber;10:00-21:00;;https://www.leipzig.de/freizeit-kultur-und-tourismus/veranstaltungen-und-termine/eventsingle/event/leipziger-weihnachtsmarkt-2023;;51.34087449755289;12.376644889003414;Schaustellerbetrieb Silvia Felber;;1;10:00-21:00;10:00-21:00;10:00-21:00;10:00-21:00;10:00-22:00;10:00-22:00;10:00-21:00;0;;01.12.23=10:00-22:00,02.12.23=10:00-22:00,08.12.23=10:00-22:00,09.12.23=10:00-22:00,15.12.23=10:00-22:00,16.12.23=10:00-22:00,22.12.23=10:00-22:00;freitags und samstags bis 22 Uhr;0;;0;0;;;S1, S2, S3, S4, S5, S5X und S6 bis "Leipzig, Markt";72;1;Fahrgeschäft
657;Zentrum;Haus R 13;Ingeborg Neumüller;Reichsstraße;04109 Leipzig;28.11.23;23.12.23;Ingeborg Neumüller;10:00-21:00;;https://www.leipzig.de/freizeit-kultur-und-tourismus/veranstaltungen-und-termine/eventsingle/event/leipziger-weihnachtsmarkt-2023;;51.34104136625474;12.37683570364606;Ingeborg Neumüller;;1;10:00-21:00;10:00-21:00;10:00-21:00;10:00-21:00;10:00-22:00;10:00-22:00;10:00-21:00;0;;01.12.23=10:00-22:00,02.12.23=10:00-22:00,08.12.23=10:00-22:00,09.12.23=10:00-22:00,15.12.23=10:00-22:00,16.12.23=10:00-22:00,22.12.23=10:00-22:00;freitags und samstags bis 22 Uhr;0;;0;0;;;S1, S2, S3, S4, S5, S5X und S6 bis "Leipzig, Markt";72;1;Imbiss und Getränke
717;Zentrum;Haus R 14;Schaustellerbetrieb Karl Hoffmann;Reichsstraße;04109 Leipzig;28.11.23;23.12.23;Schaustellerbetrieb Karl Hoffmann;10:00-21:00;;https://www.leipzig.de/freizeit-kultur-und-tourismus/veranstaltungen-und-termine/eventsingle/event/leipziger-weihnachtsmarkt-2023;;51.3409626182734;12.376845236286677;Schaustellerbetrieb Karl Hoffmann;;1;10:00-21:00;10:00-21:00;10:00-21:00;10:00-21:00;10:00-22:00;10:00-22:00;10:00-21:00;0;;01.12.23=10:00-22:00,02.12.23=10:00-22:00,08.12.23=10:00-22:00,09.12.23=10:00-22:00,15.12.23=10:00-22:00,16.12.23=10:00-22:00,22.12.23=10:00-22:00;freitags und samstags bis 22 Uhr;0;;0;0;;;S1, S2, S3, S4, S5, S5X und S6 bis "Leipzig, Markt";72;1;Imbiss und Getränke
735;Zentrum;Haus R 15;Schmalzbäckerei Heiko Fischer;Reichsstraße;04109 Leipzig;28.11.23;23.12.23;Schmalzbäckerei Heiko Fischer;10:00-21:00;;https://www.leipzig.de/freizeit-kultur-und-tourismus/veranstaltungen-und-termine/eventsingle/event/leipziger-weihnachtsmarkt-2023;;51.340887406126804;12.376835322189363;Schmalzbäckerei Heiko Fischer;;1;10:00-21:00;10:00-21:00;10:00-21:00;10:00-21:00;10:00-22:00;10:00-22:00;10:00-21:00;0;;01.12.23=10:00-22:00,02.12.23=10:00-22:00,08.12.23=10:00-22:00,09.12.23=10:00-22:00,15.12.23=10:00-22:00,16.12.23=10:00-22:00,22.12.23=10:00-22:00;freitags und samstags bis 22 Uhr;0;;0;0;;;S1, S2, S3, S4, S5, S5X und S6 bis "Leipzig, Markt";72;1;Imbiss und Getränke
586;Zentrum;Haus S 01;Schaustellerbetrieb Frank Sawatzke;Salzgäßchen;04109 Leipzig;28.11.23;23.12.23;Schaustellerbetrieb Frank Sawatzke;10:00-21:00;;https://www.kinderkarussell-leipzig.de/;;51.34095431575541;12.37520410826098;Schaustellerbetrieb Frank Sawatzke;;1;10:00-21:00;10:00-21:00;10:00-21:00;10:00-21:00;10:00-22:00;10:00-22:00;10:00-21:00;0;;01.12.23=10:00-22:00,02.12.23=10:00-22:00,08.12.23=10:00-22:00,09.12.23=10:00-22:00,15.12.23=10:00-22:00,16.12.23=10:00-22:00,22.12.23=10:00-22:00;freitags und samstags bis 22 Uhr;0;;0;0;;;S1, S2, S3, S4, S5, S5X und S6 bis "Leipzig, Markt";72;1;Fahrgeschäft
730;Zentrum;Haus S 02;Stein Café;Salzgäßchen;04109 Leipzig;28.11.23;23.12.23;Stein Café;10:00-21:00;;https://stein-cafe.de/;;51.34094506645285;12.375403799270103;Stein Café;;1;10:00-21:00;10:00-21:00;10:00-21:00;10:00-21:00;10:00-22:00;10:00-22:00;10:00-21:00;0;;01.12.23=10:00-22:00,02.12.23=10:00-22:00,08.12.23=10:00-22:00,09.12.23=10:00-22:00,15.12.23=10:00-22:00,16.12.23=10:00-22:00,22.12.23=10:00-22:00;freitags und samstags bis 22 Uhr;0;;0;0;;;S1, S2, S3, S4, S5, S5X und S6 bis "Leipzig, Markt";72;1;Imbiss und Getränke
697;Zentrum;Haus S 03;Nordic Socks;Salzgäßchen;04109 Leipzig;28.11.23;23.12.23;Nordic Socks;10:00-21:00;;https://www.nordicsocks.de/;;51.34094917096723;12.375497965674551;Nordic Socks;;1;10:00-21:00;10:00-21:00;10:00-21:00;10:00-21:00;10:00-22:00;10:00-22:00;10:00-21:00;0;;01.12.23=10:00-22:00,02.12.23=10:00-22:00,08.12.23=10:00-22:00,09.12.23=10:00-22:00,15.12.23=10:00-22:00,16.12.23=10:00-22:00,22.12.23=10:00-22:00;freitags und samstags bis 22 Uhr;0;;0;0;;;S1, S2, S3, S4, S5, S5X und S6 bis "Leipzig, Markt";72;1;Handel und Handwerk
647;Zentrum;Haus S 04;Schaustellerbetrieb Samuel Neumüller;Salzgäßchen;04109 Leipzig;28.11.23;23.12.23;Schaustellerbetrieb Samuel Neumüller;10:00-21:00;;https://www.leipzig.de/freizeit-kultur-und-tourismus/veranstaltungen-und-termine/eventsingle/event/leipziger-weihnachtsmarkt-2023;;51.340951524593535;12.375699109644813;Schaustellerbetrieb Samuel Neumüller;;1;10:00-21:00;10:00-21:00;10:00-21:00;10:00-21:00;10:00-22:00;10:00-22:00;10:00-21:00;0;;01.12.23=10:00-22:00,02.12.23=10:00-22:00,08.12.23=10:00-22:00,09.12.23=10:00-22:00,15.12.23=10:00-22:00,16.12.23=10:00-22:00,22.12.23=10:00-22:00;freitags und samstags bis 22 Uhr;0;;0;0;;;S1, S2, S3, S4, S5, S5X und S6 bis "Leipzig, Markt";72;1;Süßwaren
740;Zentrum;Haus S 05;Franz Wild GbR;Salzgäßchen;04109 Leipzig;28.11.23;23.12.23;Franz Wild GbR;10:00-21:00;;https://wild-brennerei.de/;;51.34095291293461;12.37576064418618;Franz Wild GbR;;1;10:00-21:00;10:00-21:00;10:00-21:00;10:00-21:00;10:00-22:00;10:00-22:00;10:00-21:00;0;;01.12.23=10:00-22:00,02.12.23=10:00-22:00,08.12.23=10:00-22:00,09.12.23=10:00-22:00,15.12.23=10:00-22:00,16.12.23=10:00-22:00,22.12.23=10:00-22:00;freitags und samstags bis 22 Uhr;0;;0;0;;;S1, S2, S3, S4, S5, S5X und S6 bis "Leipzig, Markt";72;1;Imbiss und Getränke
745;Zentrum;Haus S 06;Zonta Leipzig Elster e.V.;Salzgäßchen;04109 Leipzig;28.11.23;23.12.23;Zonta Leipzig Elster e.V.;10:00-21:00;;https://www.zonta-leipzig-elster.de/;;51.3409403160798;12.37591381452071;Zonta Leipzig Elster e.V.;;1;10:00-21:00;10:00-21:00;10:00-21:00;10:00-21:00;10:00-22:00;10:00-22:00;10:00-21:00;0;;01.12.23=10:00-22:00,02.12.23=10:00-22:00,08.12.23=10:00-22:00,09.12.23=10:00-22:00,15.12.23=10:00-22:00,16.12.23=10:00-22:00,22.12.23=10:00-22:00;freitags und samstags bis 22 Uhr;0;;0;0;;;S1, S2, S3, S4, S5, S5X und S6 bis "Leipzig, Markt";72;1;Imbiss und Getränke
554;Zentrum;Haus S 07;Süßwarenhandel Mario Wolf;Salzgäßchen;04109 Leipzig;28.11.23;23.12.23;Süßwarenhandel Mario Wolf;10:00-21:00;;https://www.leipzig.de/freizeit-kultur-und-tourismus/veranstaltungen-und-termine/eventsingle/event/leipziger-weihnachtsmarkt-2023;;51.340937247384026;12.375978579513543;Süßwarenhandel Mario Wolf;;1;10:00-21:00;10:00-21:00;10:00-21:00;10:00-21:00;10:00-22:00;10:00-22:00;10:00-21:00;0;;01.12.23=10:00-22:00,02.12.23=10:00-22:00,08.12.23=10:00-22:00,09.12.23=10:00-22:00,15.12.23=10:00-22:00,16.12.23=10:00-22:00,22.12.23=10:00-22:00;freitags und samstags bis 22 Uhr;0;;0;0;;;S1, S2, S3, S4, S5, S5X und S6 bis "Leipzig, Markt";72;1;Süßwaren
741;Zentrum;Haus S 08;Lions Hilfswerk Leipzig e.V.;Salzgäßchen;04109 Leipzig;28.11.23;23.12.23;Lions Hilfswerk Leipzig e.V.;10:00-21:00;;https://leipzig.lions.de/;;51.3408115446062;12.376327703446528;Lions Hilfswerk Leipzig e.V.;;1;10:00-21:00;10:00-21:00;10:00-21:00;10:00-21:00;10:00-22:00;10:00-22:00;10:00-21:00;0;;01.12.23=10:00-22:00,02.12.23=10:00-22:00,08.12.23=10:00-22:00,09.12.23=10:00-22:00,15.12.23=10:00-22:00,16.12.23=10:00-22:00,22.12.23=10:00-22:00;freitags und samstags bis 22 Uhr;0;;0;0;;;S1, S2, S3, S4, S5, S5X und S6 bis "Leipzig, Markt";72;1;Imbiss und Getränke
642;Zentrum;Haus S 09;Stiftung Friedliche Revolution;Salzgäßchen;04109 Leipzig;28.11.23;23.12.23;Stiftung Friedliche Revolution;10:00-21:00;;https://www.stiftung-fr.de/;;51.340825480232446;12.376252324894882;Stiftung Friedliche Revolution;;1;10:00-21:00;10:00-21:00;10:00-21:00;10:00-21:00;10:00-22:00;10:00-22:00;10:00-21:00;0;;01.12.23=10:00-22:00,02.12.23=10:00-22:00,08.12.23=10:00-22:00,09.12.23=10:00-22:00,15.12.23=10:00-22:00,16.12.23=10:00-22:00,22.12.23=10:00-22:00;freitags und samstags bis 22 Uhr;0;;0;0;;;S1, S2, S3, S4, S5, S5X und S6 bis "Leipzig, Markt";72;1;Imbiss und Getränke
668;Zentrum;Haus S 10;Kunsthandwerk Rainer Müller;Salzgäßchen;04109 Leipzig;28.11.23;23.12.23;Kunsthandwerk Rainer Müller;10:00-21:00;;https://www.leipzig.de/freizeit-kultur-und-tourismus/veranstaltungen-und-termine/eventsingle/event/leipziger-weihnachtsmarkt-2023;;51.34083395659867;12.376180907370054;Kunsthandwerk Rainer Müller;;1;10:00-21:00;10:00-21:00;10:00-21:00;10:00-21:00;10:00-22:00;10:00-22:00;10:00-21:00;0;;01.12.23=10:00-22:00,02.12.23=10:00-22:00,08.12.23=10:00-22:00,09.12.23=10:00-22:00,15.12.23=10:00-22:00,16.12.23=10:00-22:00,22.12.23=10:00-22:00;freitags und samstags bis 22 Uhr;0;;0;0;;;S1, S2, S3, S4, S5, S5X und S6 bis "Leipzig, Markt";72;1;Handel und Handwerk
558;Zentrum;Haus S 11;Corinna Wernicke;Salzgäßchen;04109 Leipzig;28.11.23;23.12.23;Corinna Wernicke;10:00-21:00;;https://www.leipzig.de/freizeit-kultur-und-tourismus/veranstaltungen-und-termine/eventsingle/event/leipziger-weihnachtsmarkt-2023;;51.340838388406105;12.376107893862262;Corinna Wernicke;;1;10:00-21:00;10:00-21:00;10:00-21:00;10:00-21:00;10:00-22:00;10:00-22:00;10:00-21:00;0;;01.12.23=10:00-22:00,02.12.23=10:00-22:00,08.12.23=10:00-22:00,09.12.23=10:00-22:00,15.12.23=10:00-22:00,16.12.23=10:00-22:00,22.12.23=10:00-22:00;freitags und samstags bis 22 Uhr;0;;0;0;;;S1, S2, S3, S4, S5, S5X und S6 bis "Leipzig, Markt";72;1;Bekleidung und Textil
540;Zentrum;Haus S 12;Kamary-Gallery;Salzgäßchen;04109 Leipzig;28.11.23;23.12.23;Kamary-Gallery;10:00-21:00;;https://www.bastelnnachzahlen.de/;;51.340843153753134;12.376033913523042;Kamary-Gallery;;1;10:00-21:00;10:00-21:00;10:00-21:00;10:00-21:00;10:00-22:00;10:00-22:00;10:00-21:00;0;;01.12.23=10:00-22:00,02.12.23=10:00-22:00,08.12.23=10:00-22:00,09.12.23=10:00-22:00,15.12.23=10:00-22:00,16.12.23=10:00-22:00,22.12.23=10:00-22:00;freitags und samstags bis 22 Uhr;0;;0;0;;;S1, S2, S3, S4, S5, S5X und S6 bis "Leipzig, Markt";72;1;Handel und Handwerk
500;Zentrum;Haus S 13;Andreas Raabe;Salzgäßchen;04109 Leipzig;28.11.23;23.12.23;Andreas Raabe;10:00-21:00;;http://www.miniaturenworld.com/;;51.34084423664586;12.375954824666403;Andreas Raabe;;1;10:00-21:00;10:00-21:00;10:00-21:00;10:00-21:00;10:00-22:00;10:00-22:00;10:00-21:00;0;;01.12.23=10:00-22:00,02.12.23=10:00-22:00,08.12.23=10:00-22:00,09.12.23=10:00-22:00,15.12.23=10:00-22:00,16.12.23=10:00-22:00,22.12.23=10:00-22:00;freitags und samstags bis 22 Uhr;0;;0;0;;;S1, S2, S3, S4, S5, S5X und S6 bis "Leipzig, Markt";72;1;Handel und Handwerk
669;Zentrum;Haus S 14;Martina Schüler;Salzgäßchen;04109 Leipzig;28.11.23;23.12.23;Martina Schüler;10:00-21:00;;https://www.leipzig.de/freizeit-kultur-und-tourismus/veranstaltungen-und-termine/eventsingle/event/leipziger-weihnachtsmarkt-2023;;51.34085686968478;12.375811970253052;Martina Schüler;;1;10:00-21:00;10:00-21:00;10:00-21:00;10:00-21:00;10:00-22:00;10:00-22:00;10:00-21:00;0;;01.12.23=10:00-22:00,02.12.23=10:00-22:00,08.12.23=10:00-22:00,09.12.23=10:00-22:00,15.12.23=10:00-22:00,16.12.23=10:00-22:00,22.12.23=10:00-22:00;freitags und samstags bis 22 Uhr;0;;0;0;;;S1, S2, S3, S4, S5, S5X und S6 bis "Leipzig, Markt";72;1;Handel und Handwerk
795;Zentrum;Haus S 15;Andrzej Ostapovicz;Salzgäßchen;04109 Leipzig;28.11.23;23.12.23;Andrzej Ostapovicz;10:00-21:00;;https://www.leipzig.de/freizeit-kultur-und-tourismus/veranstaltungen-und-termine/eventsingle/event/leipziger-weihnachtsmarkt-2023;;51.34085982769195;12.37574203239801;Andrzej Ostapovicz;;1;10:00-21:00;10:00-21:00;10:00-21:00;10:00-21:00;10:00-22:00;10:00-22:00;10:00-21:00;0;;01.12.23=10:00-22:00,02.12.23=10:00-22:00,08.12.23=10:00-22:00,09.12.23=10:00-22:00,15.12.23=10:00-22:00,16.12.23=10:00-22:00,22.12.23=10:00-22:00;freitags und samstags bis 22 Uhr;0;;0;0;;;S1, S2, S3, S4, S5, S5X und S6 bis "Leipzig, Markt";72;1;Nahrung und Genuss
638;Zentrum;Haus S 16;Patrick Putnins;Salzgäßchen;04109 Leipzig;28.11.23;23.12.23;Patrick Putnins;10:00-21:00;;https://www.putnins-gastronomie.de/;;51.34086271726281;12.375674668360613;Patrick Putnins;;1;10:00-21:00;10:00-21:00;10:00-21:00;10:00-21:00;10:00-22:00;10:00-22:00;10:00-21:00;0;;01.12.23=10:00-22:00,02.12.23=10:00-22:00,08.12.23=10:00-22:00,09.12.23=10:00-22:00,15.12.23=10:00-22:00,16.12.23=10:00-22:00,22.12.23=10:00-22:00;freitags und samstags bis 22 Uhr;0;;0;0;;;S1, S2, S3, S4, S5, S5X und S6 bis "Leipzig, Markt";72;1;Süßwaren
629;Zentrum;Haus S 17;Süßwaren Ingolf Grobe;Salzgäßchen;04109 Leipzig;28.11.23;23.12.23;Süßwaren Ingolf Grobe;10:00-21:00;;https://www.leipzig.de/freizeit-kultur-und-tourismus/veranstaltungen-und-termine/eventsingle/event/leipziger-weihnachtsmarkt-2023;;51.34086824578803;12.375500557509477;Süßwaren Ingolf Grobe;;1;10:00-21:00;10:00-21:00;10:00-21:00;10:00-21:00;10:00-22:00;10:00-22:00;10:00-21:00;0;;01.12.23=10:00-22:00,02.12.23=10:00-22:00,08.12.23=10:00-22:00,09.12.23=10:00-22:00,15.12.23=10:00-22:00,16.12.23=10:00-22:00,22.12.23=10:00-22:00;freitags und samstags bis 22 Uhr;0;;0;0;;;S1, S2, S3, S4, S5, S5X und S6 bis "Leipzig, Markt";72;1;Süßwaren
679;Zentrum;Haus S 18;Kork Studio Grobe;Salzgäßchen;04109 Leipzig;28.11.23;23.12.23;Kork Studio Grobe;10:00-21:00;;https://korkie.business.site/;;51.3408711183136;12.375430682700728;Kork Studio Grobe;;1;10:00-21:00;10:00-21:00;10:00-21:00;10:00-21:00;10:00-22:00;10:00-22:00;10:00-21:00;0;;01.12.23=10:00-22:00,02.12.23=10:00-22:00,08.12.23=10:00-22:00,09.12.23=10:00-22:00,15.12.23=10:00-22:00,16.12.23=10:00-22:00,22.12.23=10:00-22:00;freitags und samstags bis 22 Uhr;0;;0;0;;;S1, S2, S3, S4, S5, S5X und S6 bis "Leipzig, Markt";72;1;Handel und Handwerk
645;Zentrum;Haus S 19;Schokomell GmbH;Salzgäßchen;04109 Leipzig;28.11.23;23.12.23;Schokomell GmbH;10:00-21:00;;https://www.schokomell.at/;;51.34087367026282;12.375363181567558;Schokomell GmbH;;1;10:00-21:00;10:00-21:00;10:00-21:00;10:00-21:00;10:00-22:00;10:00-22:00;10:00-21:00;0;;01.12.23=10:00-22:00,02.12.23=10:00-22:00,08.12.23=10:00-22:00,09.12.23=10:00-22:00,15.12.23=10:00-22:00,16.12.23=10:00-22:00,22.12.23=10:00-22:00;freitags und samstags bis 22 Uhr;0;;0;0;;;S1, S2, S3, S4, S5, S5X und S6 bis "Leipzig, Markt";72;1;Süßwaren
653;Zentrum;Haus S 20;Der kleine Maulwurf - Katrin Mittag;Salzgäßchen;04109 Leipzig;28.11.23;23.12.23;Der kleine Maulwurf - Katrin Mittag;10:00-21:00;;https://www.leipzig.de/freizeit-kultur-und-tourismus/veranstaltungen-und-termine/eventsingle/event/leipziger-weihnachtsmarkt-2023;;51.34087735235044;12.375294039114111;Der kleine Maulwurf - Katrin Mittag;;1;10:00-21:00;10:00-21:00;10:00-21:00;10:00-21:00;10:00-22:00;10:00-22:00;10:00-21:00;0;;01.12.23=10:00-22:00,02.12.23=10:00-22:00,08.12.23=10:00-22:00,09.12.23=10:00-22:00,15.12.23=10:00-22:00,16.12.23=10:00-22:00,22.12.23=10:00-22:00;freitags und samstags bis 22 Uhr;0;;0;0;;;S1, S2, S3, S4, S5, S5X und S6 bis "Leipzig, Markt";72;1;Handel und Handwerk
789;Zentrum;Haus S 21;Georg Gräfe - Pulsnitzer Pfefferkuchen GmbH;Salzgäßchen;04109 Leipzig;28.11.23;23.12.23;Georg Gräfe - Pulsnitzer Pfefferkuchen GmbH;10:00-21:00;;https://www.pfefferkuchen-pulsnitz.com/;;51.34087974344847;12.37522567566779;Georg Gräfe - Pulsnitzer Pfefferkuchen GmbH;;1;10:00-21:00;10:00-21:00;10:00-21:00;10:00-21:00;10:00-22:00;10:00-22:00;10:00-21:00;0;;01.12.23=10:00-22:00,02.12.23=10:00-22:00,08.12.23=10:00-22:00,09.12.23=10:00-22:00,15.12.23=10:00-22:00,16.12.23=10:00-22:00,22.12.23=10:00-22:00;freitags und samstags bis 22 Uhr;0;;0;0;;;S1, S2, S3, S4, S5, S5X und S6 bis "Leipzig, Markt";72;1;Nahrung und Genuss
779;Zentrum;Haus StD 01;Brennerei Kapaurer;Augustusplatz;04109 Leipzig;28.11.23;23.12.23;Brennerei Kapaurer;10:00-21:00;;http://www.kapaurer-shop.com;;51.339079397908826;12.37981177371206;Brennerei Kapaurer;;1;10:00-21:00;10:00-21:00;10:00-21:00;10:00-21:00;10:00-22:00;10:00-22:00;10:00-21:00;0;;01.12.23=10:00-22:00,02.12.23=10:00-22:00,08.12.23=10:00-22:00,09.12.23=10:00-22:00,15.12.23=10:00-22:00,16.12.23=10:00-22:00,22.12.23=10:00-22:00;freitags und samstags bis 22 Uhr;0;;0;0;;;Straßenbahn 4, 7, 12, 14, 15 (oder 8, 10, 11, 14 auf Ostseite);72;1;Nahrung und Genuss
737;Zentrum;Haus StD 02;Brennerei Kapaurer;Augustusplatz;04109 Leipzig;28.11.23;23.12.23;Brennerei Kapaurer;10:00-21:00;;http://www.kapaurer-shop.com;;51.33900261787999;12.379766787380637;Brennerei Kapaurer;;1;10:00-21:00;10:00-21:00;10:00-21:00;10:00-21:00;10:00-22:00;10:00-22:00;10:00-21:00;0;;01.12.23=10:00-22:00,02.12.23=10:00-22:00,08.12.23=10:00-22:00,09.12.23=10:00-22:00,15.12.23=10:00-22:00,16.12.23=10:00-22:00,22.12.23=10:00-22:00;freitags und samstags bis 22 Uhr;0;;0;0;;;Straßenbahn 4, 7, 12, 14, 15 (oder 8, 10, 11, 14 auf Ostseite);72;1;Imbiss und Getränke
504;Zentrum;Haus StD 03;Brennerei Kapaurer;Augustusplatz;04109 Leipzig;28.11.23;23.12.23;Brennerei Kapaurer;10:00-21:00;;http://www.kapaurer-shop.com;;51.3389316863003;12.379807769210615;Brennerei Kapaurer;;1;10:00-21:00;10:00-21:00;10:00-21:00;10:00-21:00;10:00-22:00;10:00-22:00;10:00-21:00;0;;01.12.23=10:00-22:00,02.12.23=10:00-22:00,08.12.23=10:00-22:00,09.12.23=10:00-22:00,15.12.23=10:00-22:00,16.12.23=10:00-22:00,22.12.23=10:00-22:00;freitags und samstags bis 22 Uhr;0;;0;0;;;Straßenbahn 4, 7, 12, 14, 15 (oder 8, 10, 11, 14 auf Ostseite);72;1;Imbiss und Getränke
738;Zentrum;Haus StD 04;Brennerei Kapaurer;Augustusplatz;04109 Leipzig;28.11.23;23.12.23;Brennerei Kapaurer;10:00-21:00;;http://www.kapaurer-shop.com;;51.33888289861301;12.379725173614114;Brennerei Kapaurer;;1;10:00-21:00;10:00-21:00;10:00-21:00;10:00-21:00;10:00-22:00;10:00-22:00;10:00-21:00;0;;01.12.23=10:00-22:00,02.12.23=10:00-22:00,08.12.23=10:00-22:00,09.12.23=10:00-22:00,15.12.23=10:00-22:00,16.12.23=10:00-22:00,22.12.23=10:00-22:00;freitags und samstags bis 22 Uhr;0;;0;0;;;Straßenbahn 4, 7, 12, 14, 15 (oder 8, 10, 11, 14 auf Ostseite);72;1;Imbiss und Getränke
503;Zentrum;Haus StD 05;Brennerei Kapaurer;Augustusplatz;04109 Leipzig;28.11.23;23.12.23;Brennerei Kapaurer;10:00-21:00;;http://www.kapaurer-shop.com;;51.3387656316584;12.379707042308745;Brennerei Kapaurer;;1;10:00-21:00;10:00-21:00;10:00-21:00;10:00-21:00;10:00-22:00;10:00-22:00;10:00-21:00;0;;01.12.23=10:00-22:00,02.12.23=10:00-22:00,08.12.23=10:00-22:00,09.12.23=10:00-22:00,15.12.23=10:00-22:00,16.12.23=10:00-22:00,22.12.23=10:00-22:00;freitags und samstags bis 22 Uhr;0;;0;0;;;Straßenbahn 4, 7, 12, 14, 15 (oder 8, 10, 11, 14 auf Ostseite);72;1;Imbiss und Getränke
755;Zentrum;Haus StD 06;Brennerei Kapaurer;Augustusplatz;04109 Leipzig;28.11.23;23.12.23;Brennerei Kapaurer;10:00-21:00;;http://www.kapaurer-shop.com;;51.3390669502931;12.379912260605918;Brennerei Kapaurer;;1;10:00-21:00;10:00-21:00;10:00-21:00;10:00-21:00;10:00-22:00;10:00-22:00;10:00-21:00;0;;01.12.23=10:00-22:00,02.12.23=10:00-22:00,08.12.23=10:00-22:00,09.12.23=10:00-22:00,15.12.23=10:00-22:00,16.12.23=10:00-22:00,22.12.23=10:00-22:00;freitags und samstags bis 22 Uhr;0;;0;0;;;Straßenbahn 4, 7, 12, 14, 15 (oder 8, 10, 11, 14 auf Ostseite);72;1;Imbiss und Getränke
754;Zentrum;Haus StD 07;Brennerei Kapaurer;Augustusplatz;04109 Leipzig;28.11.23;23.12.23;Brennerei Kapaurer;10:00-21:00;;http://www.kapaurer-shop.com;;51.33875291367595;12.379809550962356;Brennerei Kapaurer;;1;10:00-21:00;10:00-21:00;10:00-21:00;10:00-21:00;10:00-22:00;10:00-22:00;10:00-21:00;0;;01.12.23=10:00-22:00,02.12.23=10:00-22:00,08.12.23=10:00-22:00,09.12.23=10:00-22:00,15.12.23=10:00-22:00,16.12.23=10:00-22:00,22.12.23=10:00-22:00;freitags und samstags bis 22 Uhr;0;;0;0;;;Straßenbahn 4, 7, 12, 14, 15 (oder 8, 10, 11, 14 auf Ostseite);72;1;Imbiss und Getränke
747;Zentrum;Haus StD 08;Brennerei Kapaurer;Augustusplatz;04109 Leipzig;28.11.23;23.12.23;Brennerei Kapaurer;10:00-21:00;;http://www.kapaurer-shop.com;;51.33870625054339;12.379797965876676;Brennerei Kapaurer;;1;10:00-21:00;10:00-21:00;10:00-21:00;10:00-21:00;10:00-22:00;10:00-22:00;10:00-21:00;0;;01.12.23=10:00-22:00,02.12.23=10:00-22:00,08.12.23=10:00-22:00,09.12.23=10:00-22:00,15.12.23=10:00-22:00,16.12.23=10:00-22:00,22.12.23=10:00-22:00;freitags und samstags bis 22 Uhr;0;;0;0;;;Straßenbahn 4, 7, 12, 14, 15 (oder 8, 10, 11, 14 auf Ostseite);72;1;Imbiss und Getränke
746;Zentrum;Haus StD 09;Brennerei Kapaurer;Augustusplatz;04109 Leipzig;28.11.23;23.12.23;Brennerei Kapaurer;10:00-21:00;;http://www.kapaurer-shop.com;;51.33866379397779;12.379762575161587;Brennerei Kapaurer;;1;10:00-21:00;10:00-21:00;10:00-21:00;10:00-21:00;10:00-22:00;10:00-22:00;10:00-21:00;0;;01.12.23=10:00-22:00,02.12.23=10:00-22:00,08.12.23=10:00-22:00,09.12.23=10:00-22:00,15.12.23=10:00-22:00,16.12.23=10:00-22:00,22.12.23=10:00-22:00;freitags und samstags bis 22 Uhr;0;;0;0;;;Straßenbahn 4, 7, 12, 14, 15 (oder 8, 10, 11, 14 auf Ostseite);72;1;Imbiss und Getränke